zip,est,lat,lng,city,state_name
1001,1,42.06262,-72.62521,Agawam,Massachusetts
1035,1,42.35563,-72.5692,Hadley,Massachusetts
1060,1,42.32218,-72.63126,Northampton,Massachusetts
1089,1,42.12532,-72.65025,West Springfield,Massachusetts
1104,1,42.13326,-72.56733,Springfield,Massachusetts
1129,1,42.1211,-72.4877,Springfield,Massachusetts
1230,1,42.18197,-73.34244,Great Barrington,Massachusetts
1237,1,42.5529,-73.25373,Lanesborough,Massachusetts
1267,1,42.66593,-73.24209,Williamstown,Massachusetts
1301,1,42.62375,-72.60379,Greenfield,Massachusetts
1366,1,42.48858,-72.18564,Petersham,Massachusetts
1420,1,42.58559,-71.81693,Fitchburg,Massachusetts
1440,1,42.58797,-71.98649,Gardner,Massachusetts
1453,1,42.51961,-71.76583,Leominster,Massachusetts
1462,1,42.58994,-71.72036,Lunenburg,Massachusetts
1510,2,42.4119,-71.68883,Clinton,Massachusetts
1524,1,42.24919,-71.91989,Leicester,Massachusetts
1527,3,42.19228,-71.77397,Millbury,Massachusetts
1581,1,42.26815,-71.61402,Westborough,Massachusetts
1583,1,42.37034,-71.78502,West Boylston,Massachusetts
1606,1,42.31367,-71.79614,Worcester,Massachusetts
1610,1,42.24645,-71.80968,Worcester,Massachusetts
1701,3,42.32195,-71.43796,Framingham,Massachusetts
1721,1,42.25726,-71.46867,Ashland,Massachusetts
1752,1,42.3494,-71.54681,Marlborough,Massachusetts
1756,1,42.09301,-71.55146,Mendon,Massachusetts
1801,1,42.48694,-71.15415,Woburn,Massachusetts
1803,1,42.5028,-71.20147,Burlington,Massachusetts
1843,1,42.68985,-71.16095,Lawrence,Massachusetts
1844,2,42.73426,-71.18858,Methuen,Massachusetts
1853,1,,,[],[]
1879,1,42.66626,-71.42911,Tyngsboro,Massachusetts
1915,2,42.56841,-70.8647,Beverly,Massachusetts
1923,2,42.57398,-70.94923,Danvers,Massachusetts
1930,1,42.62605,-70.68966,Gloucester,Massachusetts
1952,1,42.84655,-70.86163,Salisbury,Massachusetts
2019,1,42.0777,-71.47407,Bellingham,Massachusetts
2026,4,42.24665,-71.1777,Dedham,Massachusetts
2043,1,42.21678,-70.88494,Hingham,Massachusetts
2066,1,42.20129,-70.76155,Scituate,Massachusetts
2067,1,42.10778,-71.18183,Sharon,Massachusetts
2111,1,42.35067,-71.06054,Boston,Massachusetts
2116,1,42.35105,-71.07638,Boston,Massachusetts
2138,3,42.37997,-71.13446,Cambridge,Massachusetts
2139,1,42.36224,-71.10253,Cambridge,Massachusetts
2144,1,42.40088,-71.122,Somerville,Massachusetts
2151,1,42.41887,-71.004,Revere,Massachusetts
2176,1,42.45561,-71.05901,Melrose,Massachusetts
2184,1,42.20386,-71.0022,Braintree,Massachusetts
2190,1,42.16625,-70.95253,South Weymouth,Massachusetts
2215,2,42.34741,-71.10276,Boston,Massachusetts
2333,1,42.03521,-70.94235,East Bridgewater,Massachusetts
2339,1,42.12241,-70.85665,Hanover,Massachusetts
2364,1,41.98616,-70.74823,Kingston,Massachusetts
2368,1,42.17506,-71.05011,Randolph,Massachusetts
2446,1,42.3435,-71.12179,Brookline,Massachusetts
2453,1,42.36918,-71.24101,Waltham,Massachusetts
2461,1,42.31693,-71.20875,Newton Highlands,Massachusetts
2465,3,42.34969,-71.22646,West Newton,Massachusetts
2467,1,42.31725,-71.16096,Chestnut Hill,Massachusetts
2474,1,42.42053,-71.15666,Arlington,Massachusetts
2535,1,41.34896,-70.74629,Chilmark,Massachusetts
2539,2,41.37994,-70.53227,Edgartown,Massachusetts
2554,1,41.28555,-70.08043,Nantucket,Massachusetts
2556,1,41.63903,-70.62521,North Falmouth,Massachusetts
2557,2,41.44218,-70.56648,Oak Bluffs,Massachusetts
2571,1,41.76184,-70.70138,Wareham,Massachusetts
2601,2,41.66,-70.29327,Hyannis,Massachusetts
2638,1,41.73225,-70.19459,Dennis,Massachusetts
2645,1,41.70352,-70.06215,Harwich,Massachusetts
2649,1,41.61778,-70.49077,Mashpee,Massachusetts
2657,2,42.06139,-70.19813,Provincetown,Massachusetts
2660,1,41.70828,-70.15517,South Dennis,Massachusetts
2663,1,41.90576,-69.989,South Wellfleet,Massachusetts
2703,1,41.93108,-71.29499,Attleboro,Massachusetts
2745,2,41.70284,-70.94695,New Bedford,Massachusetts
2747,1,41.6577,-71.01202,North Dartmouth,Massachusetts
2760,1,41.97004,-71.33586,North Attleboro,Massachusetts
2771,2,41.83787,-71.31736,Seekonk,Massachusetts
2777,1,41.75699,-71.21208,Swansea,Massachusetts
2780,1,41.90743,-71.11939,Taunton,Massachusetts
2807,1,41.17762,-71.57854,Block Island,Rhode Island
2840,2,41.47838,-71.31993,Newport,Rhode Island
2865,1,41.91251,-71.44822,Lincoln,Rhode Island
2879,1,41.42865,-71.53837,Wakefield,Rhode Island
2886,2,41.70493,-71.45892,Warwick,Rhode Island
2903,3,41.81902,-71.41003,Providence,Rhode Island
2906,1,41.83964,-71.38963,Providence,Rhode Island
2910,1,41.77552,-71.43564,Cranston,Rhode Island
2914,1,41.81326,-71.36608,East Providence,Rhode Island
2917,1,41.90615,-71.52365,Smithfield,Rhode Island
3038,2,42.88867,-71.27932,Derry,New Hampshire
3053,1,42.87927,-71.38702,Londonderry,New Hampshire
3055,1,42.81783,-71.67361,Milford,New Hampshire
3104,1,43.00926,-71.4411,Manchester,New Hampshire
3106,1,43.07097,-71.43651,Hooksett,New Hampshire
3246,1,43.57239,-71.4775,Laconia,New Hampshire
3249,1,43.55806,-71.38505,Gilford,New Hampshire
3251,1,44.0796,-71.65276,Lincoln,New Hampshire
3253,1,43.63193,-71.49749,Meredith,New Hampshire
3301,4,43.22423,-71.54342,Concord,New Hampshire
3431,2,42.96785,-72.29862,Keene,New Hampshire
3561,1,44.33222,-71.80973,Littleton,New Hampshire
3755,1,43.72377,-72.19563,Hanover,New Hampshire
3766,1,43.63491,-72.23819,Lebanon,New Hampshire
3801,1,43.07293,-70.8052,Portsmouth,New Hampshire
3818,1,43.97302,-71.25261,Conway,New Hampshire
3820,1,43.18933,-70.88428,Dover,New Hampshire
3825,1,43.21366,-71.04227,Barrington,New Hampshire
3843,1,,,[],[]
3907,1,43.25474,-70.611,Ogunquit,Maine
4001,1,43.52991,-70.92078,Acton,Maine
4005,2,43.49591,-70.49537,Biddeford,Maine
4009,1,44.04791,-70.73632,Bridgton,Maine
4011,2,43.90068,-69.97607,Brunswick,Maine
4101,3,43.6624,-70.2586,Portland,Maine
4103,1,43.69392,-70.2909,Portland,Maine
4105,1,43.74753,-70.2825,Falmouth,Maine
4210,1,44.08505,-70.24923,Auburn,Maine
4217,1,44.36726,-70.83364,Bethel,Maine
4240,1,44.09147,-70.16808,Lewiston,Maine
4270,1,44.11241,-70.51559,Oxford,Maine
4330,1,44.36387,-69.73729,Augusta,Maine
4401,1,44.84711,-68.84654,Bangor,Maine
4473,1,44.88594,-68.71888,Orono,Maine
4538,1,43.85632,-69.62807,Boothbay Harbor,Maine
4605,1,44.66038,-68.41623,Ellsworth,Maine
4609,1,44.38518,-68.27108,Bar Harbor,Maine
4619,1,45.13397,-67.22401,Calais,Maine
4658,1,44.53873,-67.87257,Milbridge,Maine
4676,1,44.34741,-68.64238,Sedgwick,Maine
4736,1,46.90661,-68.01998,Caribou,Maine
4756,1,47.33054,-68.30176,Madawaska,Maine
4841,2,44.12739,-69.13686,Rockland,Maine
4861,1,44.09302,-69.17483,Thomaston,Maine
4901,3,44.55449,-69.57037,Waterville,Maine
4915,1,44.46643,-69.04156,Belfast,Maine
4938,1,44.65881,-70.10329,Farmington,Maine
4970,1,45.00032,-70.63519,Rangeley,Maine
4976,1,44.79873,-69.66951,Skowhegan,Maine
5032,1,43.80193,-72.65708,Bethel,Vermont
5060,1,43.96199,-72.68594,Randolph,Vermont
5091,1,43.64707,-72.55165,Woodstock,Vermont
5201,1,42.87652,-73.1426,Bennington,Vermont
5255,1,43.16696,-73.06685,Manchester Center,Vermont
5301,1,42.84346,-72.65901,Brattleboro,Vermont
5401,1,44.47484,-73.21758,Burlington,Vermont
5403,2,44.447,-73.17229,South Burlington,Vermont
5446,1,44.5541,-73.21647,Colchester,Vermont
5452,1,44.5238,-73.06479,Essex Junction,Vermont
5478,2,44.7941,-73.11714,Saint Albans,Vermont
5495,1,44.42901,-73.09197,Williston,Vermont
5602,3,44.2848,-72.61498,Montpelier,Vermont
5641,1,44.18602,-72.45108,Barre,Vermont
5661,1,44.53743,-72.61724,Morrisville,Vermont
5672,1,44.48151,-72.72174,Stowe,Vermont
5673,1,44.19371,-72.84356,Waitsfield,Vermont
5701,2,43.63365,-72.91368,Rutland,Vermont
5753,1,43.9991,-73.17403,Middlebury,Vermont
5777,1,43.5552,-73.05504,West Rutland,Vermont
5819,1,44.40397,-71.98837,Saint Johnsbury,Vermont
5855,1,44.92829,-72.1943,Newport,Vermont
6002,1,41.84286,-72.73714,Bloomfield,Connecticut
6016,1,41.90417,-72.54438,Broad Brook,Connecticut
6037,1,41.61148,-72.7775,Berlin,Connecticut
6040,2,41.7616,-72.52247,Manchester,Connecticut
6045,1,,,[],[]
6062,1,41.67338,-72.86079,Plainville,Connecticut
6070,1,41.87674,-72.81626,Simsbury,Connecticut
6082,1,41.98393,-72.55475,Enfield,Connecticut
6098,1,41.92379,-73.10003,Winsted,Connecticut
6106,2,41.74818,-72.69683,Hartford,Connecticut
6107,1,41.75375,-72.75966,West Hartford,Connecticut
6108,1,41.78078,-72.62165,East Hartford,Connecticut
6114,2,41.7394,-72.66949,Hartford,Connecticut
6241,1,41.85635,-71.84904,Dayville,Connecticut
6250,2,41.77434,-72.19669,Mansfield Center,Connecticut
6340,1,41.35643,-72.04477,Groton,Connecticut
6351,1,41.58873,-71.94854,Jewett City,Connecticut
6355,1,41.36857,-71.97426,Mystic,Connecticut
6357,1,41.32711,-72.21478,Niantic,Connecticut
6379,1,41.36685,-71.85826,Pawcatuck,Connecticut
6385,1,41.35735,-72.15581,Waterford,Connecticut
6405,1,41.28405,-72.79809,Branford,Connecticut
6415,1,41.55563,-72.34694,Colchester,Connecticut
6443,1,41.33976,-72.62783,Madison,Connecticut
6450,1,41.53332,-72.77399,Meriden,Connecticut
6457,1,41.54759,-72.65484,Middletown,Connecticut
6473,1,41.38069,-72.85598,North Haven,Connecticut
6483,1,41.381,-73.08726,Seymour,Connecticut
6492,1,41.45927,-72.80473,Wallingford,Connecticut
6498,1,41.30688,-72.46652,Westbrook,Connecticut
6501,1,,,[],[]
6512,1,41.28111,-72.8719,East Haven,Connecticut
6513,1,41.31953,-72.86856,New Haven,Connecticut
6604,1,41.17684,-73.20027,Bridgeport,Connecticut
6605,1,41.16348,-73.21763,Bridgeport,Connecticut
6611,1,41.26009,-73.20823,Trumbull,Connecticut
6614,1,41.22989,-73.12785,Stratford,Connecticut
6706,1,41.53285,-73.02389,Waterbury,Connecticut
6750,1,41.72327,-73.2624,Bantam,Connecticut
6776,1,41.60011,-73.4162,New Milford,Connecticut
6785,1,41.70491,-73.43815,South Kent,Connecticut
6790,1,41.83747,-73.12874,Torrington,Connecticut
6795,1,41.61873,-73.12336,Watertown,Connecticut
6801,1,41.37468,-73.39275,Bethel,Connecticut
6810,1,41.37627,-73.45904,Danbury,Connecticut
6824,1,41.17571,-73.28111,Fairfield,Connecticut
6830,1,41.048,-73.624,Greenwich,Connecticut
6840,1,41.15925,-73.49916,New Canaan,Connecticut
6851,2,41.13948,-73.40387,Norwalk,Connecticut
6854,1,41.09148,-73.42972,Norwalk,Connecticut
6877,1,41.30642,-73.50216,Ridgefield,Connecticut
6880,1,41.14379,-73.34698,Westport,Connecticut
6897,2,41.20705,-73.44009,Wilton,Connecticut
6901,3,41.05349,-73.53845,Stamford,Connecticut
6907,1,41.1021,-73.52033,Stamford,Connecticut
7002,1,40.66681,-74.11582,Bayonne,New Jersey
7006,1,40.85221,-74.2817,Caldwell,New Jersey
7009,1,40.85651,-74.22871,Cedar Grove,New Jersey
7012,1,40.84694,-74.1596,Clifton,New Jersey
7014,1,40.83162,-74.13532,Clifton,New Jersey
7016,1,40.65678,-74.30354,Cranford,New Jersey
7020,1,40.82374,-73.97401,Edgewater,New Jersey
7026,1,40.87914,-74.1085,Garfield,New Jersey
7030,1,40.7451,-74.02815,Hoboken,New Jersey
7036,1,40.62526,-74.23917,Linden,New Jersey
7041,1,40.72301,-74.30065,Millburn,New Jersey
7042,2,40.81382,-74.21775,Montclair,New Jersey
7043,1,40.84411,-74.20041,Montclair,New Jersey
7052,1,40.78928,-74.26281,West Orange,New Jersey
7054,1,40.85527,-74.40239,Parsippany,New Jersey
7068,1,40.82077,-74.30862,Roseland,New Jersey
7079,1,40.74908,-74.26022,South Orange,New Jersey
7080,1,40.57483,-74.41542,South Plainfield,New Jersey
7083,1,40.69443,-74.2692,Union,New Jersey
7090,1,40.65172,-74.34328,Westfield,New Jersey
7092,1,40.68106,-74.36038,Mountainside,New Jersey
7093,2,40.78675,-74.00871,West New York,New Jersey
7094,3,40.78109,-74.06588,Secaucus,New Jersey
7102,1,40.73576,-74.17343,Newark,New Jersey
7201,2,40.67237,-74.17643,Elizabeth,New Jersey
7204,2,40.66532,-74.2666,Roselle Park,New Jersey
7302,1,40.71894,-74.04462,Jersey City,New Jersey
7304,1,40.71741,-74.07637,Jersey City,New Jersey
7405,1,40.98646,-74.38302,Butler,New Jersey
7410,1,40.93587,-74.11771,Fair Lawn,New Jersey
7450,1,40.98219,-74.11275,Ridgewood,New Jersey
7470,3,40.94805,-74.24504,Wayne,New Jersey
7506,2,40.95794,-74.15815,Hawthorne,New Jersey
7621,1,40.92357,-73.99824,Bergenfield,New Jersey
7624,1,40.97329,-73.96044,Closter,New Jersey
7642,1,41.00742,-74.04402,Hillsdale,New Jersey
7652,1,40.94553,-74.07122,Paramus,New Jersey
7660,1,40.85434,-74.02013,Ridgefield Park,New Jersey
7666,2,40.88998,-74.01067,Teaneck,New Jersey
7670,1,40.91758,-73.95323,Tenafly,New Jersey
7675,1,41.00918,-74.00428,Westwood,New Jersey
7676,1,40.98843,-74.06359,Township Of Washington,New Jersey
7701,1,40.36046,-74.07866,Red Bank,New Jersey
7712,1,40.24805,-74.05531,Asbury Park,New Jersey
7716,2,40.40237,-74.03533,Atlantic Highlands,New Jersey
7720,1,40.20176,-74.01276,Bradley Beach,New Jersey
7724,1,40.29801,-74.07517,Eatontown,New Jersey
7728,1,40.22522,-74.28447,Freehold,New Jersey
7730,1,40.42611,-74.17422,Hazlet,New Jersey
7747,1,40.41312,-74.2521,Matawan,New Jersey
7751,1,40.36191,-74.25821,Morganville,New Jersey
7840,1,40.86034,-74.83192,Hackettstown,New Jersey
7866,1,40.9531,-74.48639,Rockaway,New Jersey
7871,1,41.04666,-74.62793,Sparta,New Jersey
7876,1,40.85302,-74.65627,Succasunna,New Jersey
7901,1,40.71462,-74.36604,Summit,New Jersey
7922,1,40.67525,-74.42806,Berkeley Heights,New Jersey
7924,1,40.727,-74.58941,Bernardsville,New Jersey
7930,1,40.78222,-74.68642,Chester,New Jersey
7936,1,40.81918,-74.36382,East Hanover,New Jersey
7940,1,40.76006,-74.41889,Madison,New Jersey
7960,1,40.78452,-74.49813,Morristown,New Jersey
8002,1,39.93142,-75.02515,Cherry Hill,New Jersey
8008,1,39.62188,-74.22421,Beach Haven,New Jersey
8012,1,39.78409,-75.05586,Blackwood,New Jersey
8016,1,40.06926,-74.83198,Burlington,New Jersey
8050,1,39.70291,-74.24576,Manahawkin,New Jersey
8053,1,39.86051,-74.89469,Marlton,New Jersey
8057,1,39.97948,-74.94105,Moorestown,New Jersey
8080,1,39.75714,-75.11801,Sewell,New Jersey
8083,1,39.84138,-75.02867,Somerdale,New Jersey
8096,2,39.82921,-75.12871,Woodbury,New Jersey
8204,1,38.97131,-74.92054,Cape May,New Jersey
8225,1,39.36167,-74.53963,Northfield,New Jersey
8226,2,39.26812,-74.60196,Ocean City,New Jersey
8234,1,39.38662,-74.62369,Egg Harbor Township,New Jersey
8242,1,39.01786,-74.88627,Rio Grande,New Jersey
8247,1,39.05279,-74.78508,Stone Harbor,New Jersey
8330,1,39.4566,-74.73814,Mays Landing,New Jersey
8360,2,39.49374,-75.00352,Vineland,New Jersey
8540,2,40.36423,-74.65661,Princeton,New Jersey
8558,1,40.41382,-74.70236,Skillman,New Jersey
8610,1,40.19377,-74.71565,Trenton,New Jersey
8619,1,40.2414,-74.69669,Trenton,New Jersey
8723,1,40.03896,-74.11091,Brick,New Jersey
8753,1,39.98091,-74.15055,Toms River,New Jersey
8755,1,40.00968,-74.22457,Toms River,New Jersey
8807,1,40.59241,-74.6202,Bridgewater,New Jersey
8812,1,40.5999,-74.47979,Dunellen,New Jersey
8816,1,40.42943,-74.41602,East Brunswick,New Jersey
8822,1,40.52281,-74.86576,Flemington,New Jersey
8835,1,40.54147,-74.58876,Manville,New Jersey
8837,1,40.51432,-74.34477,Edison,New Jersey
8853,1,40.52879,-74.74246,Neshanic Station,New Jersey
8865,1,40.7094,-75.15109,Phillipsburg,New Jersey
8902,1,40.44236,-74.48579,North Brunswick,New Jersey
8903,1,,,[],[]
10001,3,40.75064,-73.99728,New York,New York
10002,1,40.71597,-73.98692,New York,New York
10003,7,40.73184,-73.98915,New York,New York
10007,1,40.71387,-74.00792,New York,New York
10011,3,40.74173,-74.00037,New York,New York
10012,2,40.7256,-73.99794,New York,New York
10013,4,40.72001,-74.00472,New York,New York
10014,1,40.73407,-74.00601,New York,New York
10016,1,40.74515,-73.97807,New York,New York
10017,1,40.75235,-73.9726,New York,New York
10019,3,40.76586,-73.9853,New York,New York
10021,3,40.76963,-73.95899,New York,New York
10022,1,40.75856,-73.96787,New York,New York
10023,4,40.77464,-73.97836,New York,New York
10024,2,40.78534,-73.97138,New York,New York
10027,1,40.81187,-73.95459,New York,New York
10028,3,40.77643,-73.95339,New York,New York
10036,3,40.75976,-73.99064,New York,New York
10281,1,,,[],[]
10303,1,40.63223,-74.16903,Staten Island,New York
10306,1,40.57149,-74.1243,Staten Island,New York
10308,1,40.55213,-74.15029,Staten Island,New York
10314,1,40.60086,-74.16306,Staten Island,New York
10451,1,40.82097,-73.92383,Bronx,New York
10462,1,40.84297,-73.85873,Bronx,New York
10465,1,40.8286,-73.82179,Bronx,New York
10467,1,40.87522,-73.872,Bronx,New York
10471,1,40.90002,-73.9067,Bronx,New York
10475,1,40.87528,-73.82702,Bronx,New York
10506,1,41.1889,-73.63411,Bedford,New York
10512,1,41.4483,-73.71054,Carmel,New York
10523,1,41.06005,-73.81859,Elmsford,New York
10532,1,41.09873,-73.80066,Hawthorne,New York
10538,1,40.9376,-73.75707,Larchmont,New York
10543,1,40.95274,-73.73645,Mamaroneck,New York
10547,2,41.31178,-73.84637,Mohegan Lake,New York
10549,1,41.19981,-73.72028,Mount Kisco,New York
10570,1,41.12854,-73.78917,Pleasantville,New York
10573,3,41.01676,-73.67735,Port Chester,New York
10598,1,41.28309,-73.79516,Yorktown Heights,New York
10601,2,41.03288,-73.7648,White Plains,New York
10607,1,41.03949,-73.81214,White Plains,New York
10704,1,40.91911,-73.86187,Yonkers,New York
10708,1,40.9379,-73.83167,Bronxville,New York
10710,2,40.96732,-73.84739,Yonkers,New York
10801,1,40.91751,-73.78396,New Rochelle,New York
10803,1,40.89978,-73.80619,Pelham,New York
10901,1,41.14554,-74.12504,Suffern,New York
10918,1,41.34816,-74.25828,Chester,New York
10940,2,41.45149,-74.46997,Middletown,New York
10950,1,41.31919,-74.19825,Monroe,New York
10956,1,41.15562,-73.99314,New City,New York
10990,1,41.2651,-74.3663,Warwick,New York
10994,2,41.09702,-73.97322,West Nyack,New York
11005,1,40.75661,-73.71424,Floral Park,New York
11010,1,40.70066,-73.67514,Franklin Square,New York
11022,1,,,[],[]
11030,1,40.79293,-73.68868,Manhasset,New York
11040,1,40.74572,-73.67979,New Hyde Park,New York
11050,2,40.83815,-73.69113,Port Washington,New York
11101,1,40.74679,-73.93916,Long Island City,New York
11104,1,40.74484,-73.92049,Sunnyside,New York
11201,3,40.69477,-73.99031,Brooklyn,New York
11208,1,40.67481,-73.87243,Brooklyn,New York
11211,1,40.71428,-73.94602,Brooklyn,New York
11215,2,40.66255,-73.98687,Brooklyn,New York
11217,1,40.68242,-73.97943,Brooklyn,New York
11220,1,40.64142,-74.01741,Brooklyn,New York
11225,1,40.6631,-73.95392,Brooklyn,New York
11230,2,40.6221,-73.96525,Brooklyn,New York
11231,1,40.67603,-74.00644,Brooklyn,New York
11234,1,40.6072,-73.91107,Brooklyn,New York
11235,1,40.58411,-73.94331,Brooklyn,New York
11357,1,40.78636,-73.81094,Whitestone,New York
11360,1,40.7805,-73.78159,Bayside,New York
11362,2,40.75899,-73.73583,Little Neck,New York
11365,2,40.73983,-73.79499,Fresh Meadows,New York
11367,1,40.73044,-73.82274,Flushing,New York
11369,1,40.76345,-73.87222,East Elmhurst,New York
11372,1,40.75172,-73.88367,Jackson Heights,New York
11373,1,40.73892,-73.87854,Elmhurst,New York
11375,3,40.72315,-73.84373,Forest Hills,New York
11385,1,40.70103,-73.89011,Ridgewood,New York
11415,1,40.70808,-73.82801,Kew Gardens,New York
11432,1,40.71491,-73.79295,Jamaica,New York
11510,1,40.65027,-73.60809,Baldwin,New York
11530,1,40.72716,-73.63654,Garden City,New York
11542,1,40.87073,-73.62879,Glen Cove,New York
11561,1,40.58969,-73.64455,Long Beach,New York
11563,1,40.65746,-73.67408,Lynbrook,New York
11565,1,40.67505,-73.67177,Malverne,New York
11566,1,40.66307,-73.55407,Merrick,New York
11570,1,40.66504,-73.63882,Rockville Centre,New York
11577,2,40.78288,-73.6391,Roslyn Heights,New York
11581,1,40.65153,-73.71653,Valley Stream,New York
11582,1,,,[],[]
11590,2,40.75541,-73.57463,Westbury,New York
11702,1,40.65155,-73.33824,Babylon,New York
11704,1,40.71623,-73.35908,West Babylon,New York
11710,2,40.67217,-73.53293,Bellmore,New York
11725,1,40.84056,-73.28085,Commack,New York
11727,1,40.88019,-73.00368,Coram,New York
11729,1,40.76249,-73.32161,Deer Park,New York
11731,1,40.86262,-73.31703,East Northport,New York
11735,2,40.73177,-73.43284,Farmingdale,New York
11742,2,40.81034,-73.0419,Holtsville,New York
11743,2,40.88018,-73.4266,Huntington,New York
11746,1,40.81421,-73.3608,Huntington Station,New York
11751,1,40.72999,-73.21424,Islip,New York
11756,1,40.72545,-73.51656,Levittown,New York
11776,1,40.91345,-73.04567,Port Jefferson Station,New York
11779,1,40.8127,-73.1156,Ronkonkoma,New York
11783,1,40.67766,-73.49068,Seaford,New York
11790,1,40.90719,-73.12777,Stony Brook,New York
11801,1,40.76256,-73.52383,Hicksville,New York
11937,1,40.99714,-72.20253,East Hampton,New York
11944,1,41.09888,-72.37223,Greenport,New York
11946,1,40.87033,-72.52294,Hampton Bays,New York
11952,1,40.99716,-72.54369,Mattituck,New York
11963,1,40.99921,-72.32271,Sag Harbor,New York
11968,1,40.90035,-72.42081,Southampton,New York
12010,1,42.93752,-74.17287,Amsterdam,New York
12020,1,43.00208,-73.87401,Ballston Spa,New York
12037,1,42.33506,-73.55714,Chatham,New York
12043,1,42.70357,-74.5267,Cobleskill,New York
12051,1,42.34493,-73.83938,Coxsackie,New York
12065,1,42.85402,-73.78654,Clifton Park,New York
12095,1,43.03151,-74.41553,Johnstown,New York
12110,1,42.75349,-73.77671,Latham,New York
12133,1,,,[],[]
12140,1,42.689,-73.56689,Poestenkill,New York
12144,1,42.63106,-73.71801,Rensselaer,New York
12203,1,42.68138,-73.85099,Albany,New York
12205,1,42.71719,-73.83006,Albany,New York
12208,1,42.65293,-73.80835,Albany,New York
12209,1,42.6382,-73.78976,Albany,New York
12302,1,42.88188,-73.98323,Schenectady,New York
12305,1,42.81219,-73.95036,Schenectady,New York
12306,1,42.80686,-74.03344,Schenectady,New York
12401,1,41.93504,-74.05446,Kingston,New York
12414,1,42.2211,-73.92356,Catskill,New York
12477,1,42.08528,-74.00028,Saugerties,New York
12496,1,42.32669,-74.27256,Windham,New York
12498,2,42.04772,-74.11007,Woodstock,New York
12524,1,41.53092,-73.89245,Fishkill,New York
12534,2,42.22434,-73.75427,Hudson,New York
12546,1,41.96627,-73.53313,Millerton,New York
12553,1,41.46146,-74.07311,New Windsor,New York
12561,1,41.75602,-74.0958,New Paltz,New York
12571,1,42.00663,-73.81152,Red Hook,New York
12572,1,41.92548,-73.8717,Rhinebeck,New York
12601,2,41.70602,-73.91119,Poughkeepsie,New York
12602,1,,,[],[]
12701,1,41.65125,-74.6982,Monticello,New York
12723,1,41.77809,-75.02751,Callicoon,New York
12804,1,43.3375,-73.68307,Queensbury,New York
12817,1,43.63697,-73.82614,Chestertown,New York
12833,1,43.13866,-73.84355,Greenfield Center,New York
12838,1,43.34354,-73.40756,Hartford,New York
12866,1,43.07537,-73.7401,Saratoga Springs,New York
12870,1,43.83931,-73.7625,Schroon Lake,New York
12901,1,44.70842,-73.47465,Plattsburgh,New York
12946,2,44.23162,-73.98903,Lake Placid,New York
12986,1,44.22279,-74.44056,Tupper Lake,New York
13021,2,42.91713,-76.5542,Auburn,New York
13041,1,43.19079,-76.19711,Clay,New York
13066,2,43.03297,-76.00259,Fayetteville,New York
13104,1,42.96378,-75.95523,Manlius,New York
13115,1,43.3937,-76.47462,Minetto,New York
13126,1,43.43469,-76.46331,Oswego,New York
13165,1,42.91185,-76.87601,Waterloo,New York
13202,1,43.04356,-76.15065,Syracuse,New York
13211,1,43.10333,-76.11954,Syracuse,New York
13214,2,43.03865,-76.0741,Syracuse,New York
13290,1,43.07132,-76.17368,Syracuse,New York
13346,1,42.82093,-75.54453,Hamilton,New York
13365,1,43.09804,-74.84937,Little Falls,New York
13367,1,43.85563,-75.31772,Lowville,New York
13413,1,43.0576,-75.27495,New Hartford,New York
13421,1,43.06293,-75.64654,Oneida,New York
13440,2,43.21807,-75.45941,Rome,New York
13502,1,43.14121,-75.16584,Utica,New York
13601,1,43.96949,-75.90965,Watertown,New York
13612,1,43.98571,-75.76911,Black River,New York
13617,1,44.5789,-75.14668,Canton,New York
13662,2,44.9378,-74.89383,Massena,New York
13676,1,44.65178,-74.91377,Potsdam,New York
13760,1,42.13425,-76.08354,Endicott,New York
13815,1,42.54712,-75.53413,Norwich,New York
13820,1,42.47204,-75.03893,Oneonta,New York
13849,1,42.33785,-75.31392,Unadilla,New York
13850,1,42.04873,-76.02663,Vestal,New York
13905,1,42.18086,-75.94476,Binghamton,New York
14020,1,42.99513,-78.21508,Batavia,New York
14043,1,42.90142,-78.70431,Depew,New York
14048,1,42.48087,-79.31128,Dunkirk,New York
14052,1,42.77054,-78.58084,East Aurora,New York
14075,1,42.71297,-78.82985,Hamburg,New York
14094,1,43.15989,-78.70032,Lockport,New York
14105,1,43.19043,-78.4813,Middleport,New York
14127,1,42.75204,-78.74402,Orchard Park,New York
14141,1,42.52366,-78.7109,Springville,New York
14203,1,42.86244,-78.86507,Buffalo,New York
14207,1,42.95201,-78.89824,Buffalo,New York
14216,1,42.94855,-78.862,Buffalo,New York
14221,2,42.97918,-78.72158,Buffalo,New York
14225,1,42.92879,-78.752,Buffalo,New York
14226,2,42.97078,-78.79844,Buffalo,New York
14227,1,42.88402,-78.74665,Buffalo,New York
14303,1,43.08428,-79.03908,Niagara Falls,New York
14304,2,43.10197,-78.95282,Niagara Falls,New York
14437,1,42.57072,-77.73435,Dansville,New York
14489,1,43.09008,-76.99238,Lyons,New York
14502,1,43.09532,-77.33598,Macedon,New York
14513,1,43.07204,-77.0961,Newark,New York
14527,1,42.66764,-77.06473,Penn Yan,New York
14530,1,42.73446,-78.00276,Perry,New York
14564,1,42.98329,-77.42417,Victor,New York
14580,1,43.21883,-77.44561,Webster,New York
14604,1,43.1569,-77.60536,Rochester,New York
14607,1,43.15099,-77.58682,Rochester,New York
14614,1,43.1574,-77.61473,Rochester,New York
14618,1,43.11305,-77.55547,Rochester,New York
14620,1,43.12878,-77.60463,Rochester,New York
14622,1,43.21389,-77.55359,Rochester,New York
14623,2,43.08798,-77.64314,Rochester,New York
14624,1,43.12765,-77.7317,Rochester,New York
14626,1,43.21348,-77.71272,Rochester,New York
14701,1,42.08091,-79.25502,Jamestown,New York
14722,1,42.20961,-79.46882,Chautauqua,New York
14750,2,42.07939,-79.32752,Lakewood,New York
14760,1,42.07098,-78.41421,Olean,New York
14770,1,42.0468,-78.29963,Portville,New York
14830,1,42.12927,-77.02783,Corning,New York
14843,2,42.32819,-77.64371,Hornell,New York
14845,1,42.20225,-76.8334,Horseheads,New York
14850,2,42.43249,-76.49891,Ithaca,New York
14870,1,42.16816,-77.13234,Painted Post,New York
14895,1,42.07772,-77.93387,Wellsville,New York
14903,1,42.12372,-76.87771,Elmira,New York
15001,1,40.59161,-80.32078,Aliquippa,Pennsylvania
15010,1,40.76829,-80.35873,Beaver Falls,Pennsylvania
15017,1,40.34348,-80.12865,Bridgeville,Pennsylvania
15024,1,40.57649,-79.84649,Cheswick,Pennsylvania
15061,1,40.66013,-80.31082,Monaca,Pennsylvania
15084,1,40.6282,-79.8028,Tarentum,Pennsylvania
15108,2,40.50006,-80.20031,Coraopolis,Pennsylvania
15120,2,40.39597,-79.90689,Homestead,Pennsylvania
15137,1,40.37762,-79.80902,North Versailles,Pennsylvania
15139,1,40.52192,-79.83479,Oakmont,Pennsylvania
15142,1,40.38474,-80.12231,Presto,Pennsylvania
15203,2,40.4257,-79.97491,Pittsburgh,Pennsylvania
15205,2,40.4381,-80.10552,Pittsburgh,Pennsylvania
15217,2,40.43083,-79.91999,Pittsburgh,Pennsylvania
15218,1,40.42366,-79.88924,Pittsburgh,Pennsylvania
15219,1,40.44304,-79.98443,Pittsburgh,Pennsylvania
15228,1,40.37075,-80.04395,Pittsburgh,Pennsylvania
15235,1,40.45968,-79.82194,Pittsburgh,Pennsylvania
15236,1,40.34756,-79.97652,Pittsburgh,Pennsylvania
15238,1,40.53405,-79.88115,Pittsburgh,Pennsylvania
15241,1,40.33293,-80.08291,Pittsburgh,Pennsylvania
15301,2,40.16411,-80.25304,Washington,Pennsylvania
15320,1,39.87386,-79.99768,Carmichaels,Pennsylvania
15370,1,39.8734,-80.17991,Waynesburg,Pennsylvania
15401,1,39.89914,-79.74965,Uniontown,Pennsylvania
15425,1,40.02702,-79.55411,Connellsville,Pennsylvania
15431,1,39.94066,-79.58075,Dunbar,Pennsylvania
15442,1,40.01542,-79.84019,Grindstone,Pennsylvania
15522,1,39.94931,-78.55173,Bedford,Pennsylvania
15601,1,40.31397,-79.53643,Greensburg,Pennsylvania
15626,1,40.40868,-79.57592,Delmont,Pennsylvania
15642,1,40.32045,-79.72119,Irwin,Pennsylvania
15650,1,40.27527,-79.39213,Latrobe,Pennsylvania
15690,1,40.6455,-79.54243,Vandergrift,Pennsylvania
15701,1,40.62935,-79.15056,Indiana,Pennsylvania
15722,1,40.59833,-78.72532,Carrolltown,Pennsylvania
15801,1,41.12867,-78.72352,Du Bois,Pennsylvania
15904,2,40.3056,-78.84382,Johnstown,Pennsylvania
15905,2,40.29423,-78.98035,Johnstown,Pennsylvania
16001,1,40.91049,-79.94376,Butler,Pennsylvania
16046,1,40.70192,-80.02866,Mars,Pennsylvania
16055,1,40.7157,-79.74753,Sarver,Pennsylvania
16101,2,40.98776,-80.28814,New Castle,Pennsylvania
16127,1,41.17433,-80.07002,Grove City,Pennsylvania
16148,1,41.23147,-80.43199,Hermitage,Pennsylvania
16154,1,41.32539,-80.42111,Transfer,Pennsylvania
16214,1,41.2008,-79.36046,Clarion,Pennsylvania
16314,1,41.51895,-80.06782,Cochranton,Pennsylvania
16319,1,41.3216,-79.62942,Cranberry,Pennsylvania
16335,2,41.63143,-80.15378,Meadville,Pennsylvania
16365,1,41.83943,-79.15324,Warren,Pennsylvania
16505,1,42.11789,-80.14304,Erie,Pennsylvania
16509,1,42.05861,-80.04419,Erie,Pennsylvania
16565,1,,,[],[]
16602,2,40.51491,-78.37052,Altoona,Pennsylvania
16652,1,40.51692,-77.95302,Huntingdon,Pennsylvania
16701,1,41.91105,-78.77385,Bradford,Pennsylvania
16735,1,41.63045,-78.81,Kane,Pennsylvania
16801,2,40.78538,-77.84214,State College,Pennsylvania
16803,1,40.80849,-77.89449,State College,Pennsylvania
16822,1,41.15813,-77.71441,Beech Creek,Pennsylvania
16830,1,41.08569,-78.43317,Clearfield,Pennsylvania
16866,1,40.86684,-78.17163,Philipsburg,Pennsylvania
16881,1,41.02743,-78.31119,Woodland,Pennsylvania
17003,1,40.35735,-76.55528,Annville,Pennsylvania
17013,1,40.241,-77.19286,Carlisle,Pennsylvania
17022,1,40.16677,-76.60823,Elizabethtown,Pennsylvania
17030,1,40.60833,-76.74417,Gratz,Pennsylvania
17033,1,40.26829,-76.62754,Hershey,Pennsylvania
17042,1,40.29488,-76.42271,Lebanon,Pennsylvania
17044,1,40.58236,-77.59013,Lewistown,Pennsylvania
17050,1,40.24907,-77.03005,Mechanicsburg,Pennsylvania
17057,1,40.19437,-76.72659,Middletown,Pennsylvania
17059,1,40.59241,-77.38165,Mifflintown,Pennsylvania
17070,1,40.20217,-76.86377,New Cumberland,Pennsylvania
17078,1,40.28952,-76.58484,Palmyra,Pennsylvania
17111,1,40.27041,-76.78265,Harrisburg,Pennsylvania
17112,2,40.37497,-76.77163,Harrisburg,Pennsylvania
17201,1,39.96229,-77.65677,Chambersburg,Pennsylvania
17241,1,40.17793,-77.40326,Newville,Pennsylvania
17313,1,39.88472,-76.65719,Dallastown,Pennsylvania
17325,2,39.82762,-77.22641,Gettysburg,Pennsylvania
17331,1,39.79085,-76.98028,Hanover,Pennsylvania
17402,1,39.95799,-76.66045,York,Pennsylvania
17408,1,39.93451,-76.80203,York,Pennsylvania
17522,1,40.17499,-76.17009,Ephrata,Pennsylvania
17543,1,40.18217,-76.30038,Lititz,Pennsylvania
17584,1,39.95981,-76.26463,Willow Street,Pennsylvania
17603,1,40.0127,-76.35287,Lancaster,Pennsylvania
17724,2,41.63827,-76.80034,Canton,Pennsylvania
17752,1,41.18244,-76.92144,Montgomery,Pennsylvania
17756,1,41.20841,-76.73325,Muncy,Pennsylvania
17815,1,41.02216,-76.43061,Bloomsburg,Pennsylvania
17837,1,40.97485,-76.94247,Lewisburg,Pennsylvania
17870,1,40.80992,-76.8897,Selinsgrove,Pennsylvania
17931,1,40.78378,-76.21638,Frackville,Pennsylvania
18015,1,40.5887,-75.36786,Bethlehem,Pennsylvania
18018,1,40.62766,-75.39538,Bethlehem,Pennsylvania
18034,1,40.54182,-75.41654,Center Valley,Pennsylvania
18041,1,40.41742,-75.51306,East Greenville,Pennsylvania
18045,1,40.6919,-75.27494,Easton,Pennsylvania
18049,1,40.51912,-75.50018,Emmaus,Pennsylvania
18067,1,40.71792,-75.47937,Northampton,Pennsylvania
18088,1,40.76578,-75.5576,Walnutport,Pennsylvania
18102,1,40.60792,-75.47613,Allentown,Pennsylvania
18103,1,40.57223,-75.48138,Allentown,Pennsylvania
18202,1,40.94874,-76.0483,Hazleton,Pennsylvania
18218,1,40.81974,-75.91611,Coaldale,Pennsylvania
18235,1,40.83603,-75.692,Lehighton,Pennsylvania
18301,1,41.03141,-75.18316,East Stroudsburg,Pennsylvania
18344,1,41.11735,-75.34442,Mount Pocono,Pennsylvania
18360,1,40.97254,-75.28562,Stroudsburg,Pennsylvania
18407,1,41.59971,-75.53026,Carbondale,Pennsylvania
18431,1,41.62214,-75.25531,Honesdale,Pennsylvania
18503,1,41.41007,-75.66767,Scranton,Pennsylvania
18507,1,41.35541,-75.68016,Moosic,Pennsylvania
18508,1,41.45503,-75.65827,Scranton,Pennsylvania
18621,1,41.25441,-76.09129,Hunlock Creek,Pennsylvania
18657,1,41.52712,-75.95601,Tunkhannock,Pennsylvania
18702,1,41.21406,-75.76925,Wilkes Barre,Pennsylvania
18711,1,,,[],[]
18840,1,41.97433,-76.52968,Sayre,Pennsylvania
18848,1,41.75358,-76.45615,Towanda,Pennsylvania
18901,1,40.30529,-75.15026,Doylestown,Pennsylvania
18951,1,40.45294,-75.33833,Quakertown,Pennsylvania
18976,1,40.24676,-75.14321,Warrington,Pennsylvania
19004,1,40.01362,-75.22979,Bala Cynwyd,Pennsylvania
19010,1,40.02362,-75.3298,Bryn Mawr,Pennsylvania
19020,2,40.10453,-74.93853,Bensalem,Pennsylvania
19046,1,40.10133,-75.10558,Jenkintown,Pennsylvania
19047,1,40.18207,-74.91062,Langhorne,Pennsylvania
19063,1,39.92248,-75.41419,Media,Pennsylvania
19064,1,39.93214,-75.33873,Springfield,Pennsylvania
19073,1,39.98093,-75.4346,Newtown Square,Pennsylvania
19082,1,39.96043,-75.27032,Upper Darby,Pennsylvania
19087,1,40.06172,-75.40004,Wayne,Pennsylvania
19103,1,39.95303,-75.17386,Philadelphia,Pennsylvania
19104,2,39.95891,-75.19836,Philadelphia,Pennsylvania
19106,4,39.94589,-75.14224,Philadelphia,Pennsylvania
19115,1,40.09094,-75.04595,Philadelphia,Pennsylvania
19121,1,39.98231,-75.17995,Philadelphia,Pennsylvania
19127,1,40.02854,-75.22746,Philadelphia,Pennsylvania
19147,1,39.93645,-75.15468,Philadelphia,Pennsylvania
19154,1,40.0951,-74.98159,Philadelphia,Pennsylvania
19335,1,40.02271,-75.72045,Downingtown,Pennsylvania
19355,1,40.0466,-75.5302,Malvern,Pennsylvania
19382,1,39.92766,-75.61475,West Chester,Pennsylvania
19406,1,40.09467,-75.38402,King Of Prussia,Pennsylvania
19428,1,40.08011,-75.30317,Conshohocken,Pennsylvania
19446,1,40.23068,-75.30369,Lansdale,Pennsylvania
19456,1,40.1367,-75.45962,Oaks,Pennsylvania
19460,1,40.12674,-75.5294,Phoenixville,Pennsylvania
19462,1,40.11542,-75.28453,Plymouth Meeting,Pennsylvania
19464,1,40.25882,-75.616,Pottstown,Pennsylvania
19477,1,40.18447,-75.23583,Spring House,Pennsylvania
19512,1,40.35,-75.67937,Boyertown,Pennsylvania
19526,1,40.5465,-75.99802,Hamburg,Pennsylvania
19530,2,40.54012,-75.77675,Kutztown,Pennsylvania
19601,1,40.3526,-75.9408,Reading,Pennsylvania
19605,1,40.39917,-75.94596,Reading,Pennsylvania
19606,2,40.3357,-75.85755,Reading,Pennsylvania
19610,1,40.34015,-75.97612,Reading,Pennsylvania
19702,1,39.62199,-75.72803,Newark,Delaware
19803,1,39.79912,-75.5422,Wilmington,Delaware
19804,1,39.7166,-75.62094,Wilmington,Delaware
19901,1,39.17335,-75.47758,Dover,Delaware
19939,1,38.56575,-75.2022,Dagsboro,Delaware
19971,2,38.69113,-75.10132,Rehoboth Beach,Delaware
20001,1,38.91002,-77.018,Washington,District of Columbia
20004,1,38.89504,-77.02661,Washington,District of Columbia
20007,2,38.91259,-77.07756,Washington,District of Columbia
20009,1,38.91986,-77.03749,Washington,District of Columbia
20012,1,38.97863,-77.03076,Washington,District of Columbia
20015,2,38.96661,-77.05837,Washington,District of Columbia
20016,1,38.93822,-77.09139,Washington,District of Columbia
20036,2,38.90705,-77.04155,Washington,District of Columbia
20070,1,,,[],[]
20101,1,,,[],[]
20109,1,38.79472,-77.53105,Manassas,Virginia
20148,1,38.99062,-77.53284,Ashburn,Virginia
20165,1,39.05058,-77.38854,Sterling,Virginia
20190,1,38.95968,-77.33806,Reston,Virginia
20601,1,38.61863,-76.85715,Waldorf,Maryland
20616,1,38.65443,-77.08848,Bryans Road,Maryland
20653,1,38.22795,-76.43139,Lexington Park,Maryland
20705,1,39.04503,-76.90009,Beltsville,Maryland
20716,1,38.92734,-76.71494,Bowie,Maryland
20748,1,38.81692,-76.94124,Temple Hills,Maryland
20770,1,38.99981,-76.88567,Greenbelt,Maryland
20774,1,38.87589,-76.76925,Upper Marlboro,Maryland
20782,2,38.96469,-76.9649,Hyattsville,Maryland
20814,2,39.00506,-77.10295,Bethesda,Maryland
20816,1,38.95612,-77.11873,Bethesda,Maryland
20817,1,38.99809,-77.14919,Bethesda,Maryland
20832,1,39.15134,-77.07331,Olney,Maryland
20850,2,39.0908,-77.1809,Rockville,Maryland
20874,1,39.1291,-77.29721,Germantown,Maryland
20878,2,39.11376,-77.24781,Gaithersburg,Maryland
20895,1,39.02696,-77.07781,Kensington,Maryland
20902,1,39.04381,-77.0421,Silver Spring,Maryland
20905,1,39.11052,-76.99036,Silver Spring,Maryland
20910,2,39.00227,-77.03634,Silver Spring,Maryland
21009,1,39.47032,-76.29378,Abingdon,Maryland
21015,1,39.54691,-76.29619,Bel Air,Maryland
21030,1,39.49002,-76.6659,Cockeysville,Maryland
21044,1,39.21047,-76.88353,Columbia,Maryland
21046,1,39.17357,-76.84183,Columbia,Maryland
21061,1,39.16116,-76.63226,Glen Burnie,Maryland
21076,3,39.16856,-76.72239,Hanover,Maryland
21090,1,39.20919,-76.66796,Linthicum Heights,Maryland
21117,2,39.42719,-76.77795,Owings Mills,Maryland
21157,1,39.54889,-76.98162,Westminster,Maryland
21201,2,39.29487,-76.62237,Baltimore,Maryland
21202,1,39.29705,-76.60747,Baltimore,Maryland
21204,1,39.40353,-76.63024,Towson,Maryland
21212,1,39.3678,-76.61456,Baltimore,Maryland
21220,1,39.345,-76.3966,Middle River,Maryland
21224,3,39.28309,-76.54088,Baltimore,Maryland
21231,1,39.28775,-76.592,Baltimore,Maryland
21236,2,39.38789,-76.48552,Nottingham,Maryland
21244,1,39.3342,-76.78217,Windsor Mill,Maryland
21401,2,38.98967,-76.5505,Annapolis,Maryland
21502,1,39.64143,-78.75609,Cumberland,Maryland
21532,1,39.65559,-78.96025,Frostburg,Maryland
21550,1,39.39107,-79.39085,Oakland,Maryland
21601,1,38.79275,-76.08242,Easton,Maryland
21613,1,38.49537,-76.07169,Cambridge,Maryland
21620,1,39.20667,-76.08739,Chestertown,Maryland
21702,1,39.48019,-77.4578,Frederick,Maryland
21704,1,39.3506,-77.3735,Frederick,Maryland
21740,1,39.63233,-77.73902,Hagerstown,Maryland
21742,2,39.67363,-77.65928,Hagerstown,Maryland
21784,1,39.40087,-76.9726,Sykesville,Maryland
21801,1,38.38106,-75.64073,Salisbury,Maryland
22030,2,38.83891,-77.34188,Fairfax,Virginia
22032,3,38.82012,-77.29032,Fairfax,Virginia
22033,1,38.87564,-77.38419,Fairfax,Virginia
22041,1,38.8485,-77.14212,Falls Church,Virginia
22102,1,38.95199,-77.22901,McLean,Virginia
22116,1,,,[],[]
22201,1,38.88684,-77.09501,Arlington,Virginia
22203,1,38.87377,-77.1164,Arlington,Virginia
22204,1,38.86076,-77.09894,Arlington,Virginia
22206,1,38.8442,-77.0886,Arlington,Virginia
22305,1,38.83655,-77.06234,Alexandria,Virginia
22314,2,38.80732,-77.0563,Alexandria,Virginia
22315,1,38.75735,-77.14803,Alexandria,Virginia
22401,1,38.29928,-77.48704,Fredericksburg,Virginia
22407,1,38.28581,-77.58055,Fredericksburg,Virginia
22554,1,38.42285,-77.3835,Stafford,Virginia
22560,1,37.91289,-76.96196,Tappahannock,Virginia
22601,2,39.1743,-78.1743,Winchester,Virginia
22602,1,39.1508,-78.26555,Winchester,Virginia
22630,1,38.92909,-78.18052,Front Royal,Virginia
22655,1,39.06443,-78.21425,Stephens City,Virginia
22701,1,38.44038,-77.99633,Culpeper,Virginia
22801,1,38.40519,-78.87931,Harrisonburg,Virginia
22835,1,38.67199,-78.4548,Luray,Virginia
22901,2,38.08874,-78.55569,Charlottesville,Virginia
22902,1,37.95566,-78.46883,Charlottesville,Virginia
23060,1,37.65981,-77.53427,Glen Allen,Virginia
23061,1,37.4331,-76.55019,Gloucester,Virginia
23067,1,,,[],[]
23072,1,37.29543,-76.48148,Hayes,Virginia
23112,1,37.43738,-77.66394,Midlothian,Virginia
23113,1,37.53935,-77.68093,Midlothian,Virginia
23185,1,37.24927,-76.68702,Williamsburg,Virginia
23188,1,37.33849,-76.74925,Williamsburg,Virginia
23221,1,37.5533,-77.49056,Richmond,Virginia
23226,1,37.57774,-77.5198,Richmond,Virginia
23230,1,37.587,-77.49153,Richmond,Virginia
23233,1,37.64461,-77.62828,Henrico,Virginia
23294,1,37.63048,-77.54205,Henrico,Virginia
23320,3,36.75208,-76.21807,Chesapeake,Virginia
23321,1,36.80067,-76.42189,Chesapeake,Virginia
23336,1,37.95461,-75.33759,Chincoteague Island,Virginia
23417,1,37.73061,-75.76687,Onancock,Virginia
23435,1,36.83751,-76.4803,Suffolk,Virginia
23452,1,36.84604,-76.09197,Virginia Beach,Virginia
23454,1,36.83216,-76.02616,Virginia Beach,Virginia
23455,1,36.88974,-76.1441,Virginia Beach,Virginia
23462,2,36.8366,-76.15105,Virginia Beach,Virginia
23464,1,36.79732,-76.17899,Virginia Beach,Virginia
23502,1,36.86274,-76.20983,Norfolk,Virginia
23510,1,36.8518,-76.29154,Norfolk,Virginia
23517,1,36.86927,-76.29198,Norfolk,Virginia
23602,1,37.11511,-76.51625,Newport News,Virginia
23666,2,37.05818,-76.40817,Hampton,Virginia
23831,1,37.34437,-77.44998,Chester,Virginia
23834,1,37.28911,-77.40063,Colonial Heights,Virginia
23901,1,37.32309,-78.41186,Farmville,Virginia
24012,1,37.31585,-79.89833,Roanoke,Virginia
24014,1,37.22427,-79.91282,Roanoke,Virginia
24015,1,37.25588,-79.97979,Roanoke,Virginia
24060,1,37.25772,-80.41961,Blacksburg,Virginia
24073,2,37.13053,-80.4225,Christiansburg,Virginia
24101,1,37.17702,-79.80111,Hardy,Virginia
24112,1,36.72378,-79.84921,Martinsville,Virginia
24141,2,37.10105,-80.56677,Radford,Virginia
24151,1,36.95827,-79.86457,Rocky Mount,Virginia
24153,1,37.29674,-80.11609,Salem,Virginia
24201,1,36.61059,-82.16971,Bristol,Virginia
24210,2,36.77231,-82.02244,Abingdon,Virginia
24293,1,37.00559,-82.56458,Wise,Virginia
24333,1,36.64057,-80.92921,Galax,Virginia
24382,1,36.95702,-81.10652,Wytheville,Virginia
24401,3,38.13257,-79.08846,Staunton,Virginia
24416,1,37.72892,-79.35534,Buena Vista,Virginia
24426,1,37.76589,-80.06927,Covington,Virginia
24450,1,37.77883,-79.53888,Lexington,Virginia
24501,1,37.35565,-79.15608,Lynchburg,Virginia
24502,2,37.35624,-79.2194,Lynchburg,Virginia
24541,1,36.59072,-79.51572,Danville,Virginia
24701,1,37.29929,-81.2065,Bluefield,West Virginia
24712,1,37.46903,-81.02029,Athens,West Virginia
24801,1,37.46841,-81.55544,Welch,West Virginia
24901,2,37.85298,-80.47598,Lewisburg,West Virginia
25271,1,38.78845,-81.68625,Ripley,West Virginia
25276,1,38.78803,-81.33203,Spencer,West Virginia
25301,1,38.35123,-81.62761,Charleston,West Virginia
25313,1,38.41547,-81.75704,Charleston,West Virginia
25401,1,39.45642,-77.97267,Martinsburg,West Virginia
25427,1,39.52608,-78.09098,Hedgesville,West Virginia
25443,1,39.43835,-77.81477,Shepherdstown,West Virginia
25504,1,38.37297,-82.26674,Barboursville,West Virginia
25560,1,38.44736,-81.89908,Scott Depot,West Virginia
25601,1,37.86255,-82.0026,Logan,West Virginia
25701,2,38.36809,-82.41127,Huntington,West Virginia
25801,2,37.83805,-81.27017,Beckley,West Virginia
26034,1,40.59404,-80.55258,Chester,West Virginia
26059,1,40.07156,-80.59379,Triadelphia,West Virginia
26104,1,39.27413,-81.47779,Parkersburg,West Virginia
26105,1,39.32949,-81.52267,Vienna,West Virginia
26151,1,38.89493,-81.17503,Mount Zion,West Virginia
26155,1,39.6333,-80.76707,New Martinsville,West Virginia
26241,2,38.9163,-79.79229,Elkins,West Virginia
26330,1,39.28837,-80.22109,Bridgeport,West Virginia
26354,1,39.34847,-80.02866,Grafton,West Virginia
26505,2,39.6511,-79.94306,Morgantown,West Virginia
26534,1,39.64748,-79.99733,Granville,West Virginia
26554,1,39.46475,-80.11461,Fairmont,West Virginia
26651,1,38.3185,-80.87902,Summersville,West Virginia
26836,1,39.00693,-78.96366,Moorefield,West Virginia
27030,2,36.48836,-80.63013,Mount Airy,North Carolina
27101,1,36.11204,-80.19889,Winston Salem,North Carolina
27103,1,36.05822,-80.32125,Winston Salem,North Carolina
27105,1,36.16294,-80.23521,Winston Salem,North Carolina
27106,1,36.14255,-80.3228,Winston Salem,North Carolina
27203,1,35.73253,-79.78857,Asheboro,North Carolina
27215,1,36.03055,-79.48729,Burlington,North Carolina
27253,1,35.96239,-79.34581,Graham,North Carolina
27265,4,36.00947,-80.03272,High Point,North Carolina
27284,1,36.11818,-80.07794,Kernersville,North Carolina
27288,2,36.49812,-79.74587,Eden,North Carolina
27292,1,35.73469,-80.20845,Lexington,North Carolina
27330,2,35.51624,-79.18394,Sanford,North Carolina
27407,2,36.01124,-79.87588,Greensboro,North Carolina
27408,2,36.10321,-79.81411,Greensboro,North Carolina
27410,1,36.11826,-79.89223,Greensboro,North Carolina
27502,1,35.72123,-78.90828,Apex,North Carolina
27505,1,35.414,-79.00198,Broadway,North Carolina
27511,1,35.76324,-78.78437,Cary,North Carolina
27514,4,35.96776,-79.04406,Chapel Hill,North Carolina
27516,1,35.91239,-79.15156,Chapel Hill,North Carolina
27518,1,35.72927,-78.7736,Cary,North Carolina
27529,2,35.65048,-78.58167,Garner,North Carolina
27534,1,35.37153,-77.90646,Goldsboro,North Carolina
27536,2,36.32645,-78.40754,Henderson,North Carolina
27560,1,35.85845,-78.82544,Morrisville,North Carolina
27577,3,35.49166,-78.3446,Smithfield,North Carolina
27609,2,35.8437,-78.63282,Raleigh,North Carolina
27614,1,35.94739,-78.62059,Raleigh,North Carolina
27615,2,35.89772,-78.636,Raleigh,North Carolina
27617,1,35.90723,-78.77221,Raleigh,North Carolina
27636,1,,,[],[]
27701,2,35.99858,-78.89872,Durham,North Carolina
27717,1,,,[],[]
27804,1,35.98958,-77.84778,Rocky Mount,North Carolina
27834,2,35.6571,-77.37981,Greenville,North Carolina
27870,1,36.43053,-77.71828,Roanoke Rapids,North Carolina
27886,1,35.90369,-77.52248,Tarboro,North Carolina
27889,1,35.58909,-77.02386,Washington,North Carolina
27893,2,35.69351,-77.90458,Wilson,North Carolina
27907,1,,,[],[]
27910,1,36.27996,-76.99281,Ahoskie,North Carolina
27915,1,35.40794,-75.49465,Avon,North Carolina
27927,1,36.4131,-75.8497,Corolla,North Carolina
27932,1,36.10223,-76.59414,Edenton,North Carolina
27948,1,36.01761,-75.68663,Kill Devil Hills,North Carolina
28001,1,35.33594,-80.20419,Albemarle,North Carolina
28025,1,35.38095,-80.52719,Concord,North Carolina
28027,1,35.40879,-80.67524,Concord,North Carolina
28036,1,35.48586,-80.79375,Davidson,North Carolina
28043,2,35.31301,-81.86971,Forest City,North Carolina
28054,1,35.26128,-81.15072,Gastonia,North Carolina
28078,1,35.40545,-80.86633,Huntersville,North Carolina
28081,1,35.50199,-80.67024,Kannapolis,North Carolina
28092,1,35.48404,-81.25391,Lincolnton,North Carolina
28105,1,35.11914,-80.71116,Matthews,North Carolina
28110,1,35.06552,-80.52781,Monroe,North Carolina
28117,1,35.57405,-80.89658,Mooresville,North Carolina
28146,1,35.62194,-80.39563,Salisbury,North Carolina
28150,1,35.34712,-81.57502,Shelby,North Carolina
28207,1,35.19512,-80.82606,Charlotte,North Carolina
28209,2,35.17878,-80.85418,Charlotte,North Carolina
28210,3,35.12969,-80.8548,Charlotte,North Carolina
28212,1,35.1896,-80.74519,Charlotte,North Carolina
28216,1,35.31039,-80.8883,Charlotte,North Carolina
28262,1,35.32609,-80.74234,Charlotte,North Carolina
28273,2,35.12624,-80.94469,Charlotte,North Carolina
28277,3,35.05212,-80.81622,Charlotte,North Carolina
28301,1,35.07442,-78.88376,Fayetteville,North Carolina
28303,1,35.0852,-78.95815,Fayetteville,North Carolina
28304,1,35.02498,-78.99072,Fayetteville,North Carolina
28309,1,,,[],[]
28314,1,35.0557,-79.01678,Fayetteville,North Carolina
28328,1,35.00504,-78.33513,Clinton,North Carolina
28353,1,,,[],[]
28359,2,34.58686,-79.05475,Lumberton,North Carolina
28387,1,35.18059,-79.37566,Southern Pines,North Carolina
28405,1,34.26388,-77.86743,Wilmington,North Carolina
28406,1,,,[],[]
28428,1,34.03831,-77.90682,Carolina Beach,North Carolina
28459,1,,,[],[]
28461,1,33.96607,-78.03874,Southport,North Carolina
28472,1,34.29707,-78.68452,Whiteville,North Carolina
28504,1,35.22755,-77.63566,Kinston,North Carolina
28512,1,34.69857,-76.77505,Atlantic Beach,North Carolina
28532,1,34.88857,-76.90872,Havelock,North Carolina
28541,1,,,[],[]
28557,1,34.74064,-76.74566,Morehead City,North Carolina
28562,2,35.08105,-77.12486,New Bern,North Carolina
28594,1,34.66486,-77.02918,Emerald Isle,North Carolina
28601,1,35.7729,-81.32704,Hickory,North Carolina
28603,1,,,[],[]
28607,1,36.21547,-81.64427,Boone,North Carolina
28642,1,36.22433,-80.81628,Jonesville,North Carolina
28645,1,35.97778,-81.54371,Lenoir,North Carolina
28655,1,35.75578,-81.74212,Morganton,North Carolina
28677,1,35.73743,-80.92272,Statesville,North Carolina
28731,1,35.28905,-82.37796,Flat Rock,North Carolina
28734,1,35.1825,-83.42599,Franklin,North Carolina
28779,1,35.3558,-83.20962,Sylva,North Carolina
28782,1,35.23569,-82.1519,Tryon,North Carolina
28786,2,35.46272,-82.99294,Waynesville,North Carolina
28801,1,35.59441,-82.55785,Asheville,North Carolina
28803,1,35.52949,-82.52007,Asheville,North Carolina
28805,2,35.61528,-82.47923,Asheville,North Carolina
29020,1,34.31036,-80.59334,Camden,South Carolina
29063,2,34.13948,-81.20457,Irmo,South Carolina
29072,1,33.9985,-81.27098,Lexington,South Carolina
29116,1,,,[],[]
29150,2,33.87621,-80.35609,Sumter,South Carolina
29204,1,34.02938,-81.00008,Columbia,South Carolina
29206,1,34.02848,-80.95828,Columbia,South Carolina
29210,3,34.04764,-81.10697,Columbia,South Carolina
29223,1,34.09243,-80.92153,Columbia,South Carolina
29229,1,34.14697,-80.89316,Columbia,South Carolina
29301,2,34.93516,-82.01301,Spartanburg,South Carolina
29306,1,34.89338,-81.92177,Spartanburg,South Carolina
29307,1,34.98381,-81.83146,Spartanburg,South Carolina
29342,1,,,[],[]
29401,1,32.77868,-79.9354,Charleston,South Carolina
29405,2,32.85207,-79.97903,North Charleston,South Carolina
29406,1,32.93417,-80.03083,Charleston,South Carolina
29407,1,32.79912,-79.99872,Charleston,South Carolina
29412,2,32.70979,-79.95115,Charleston,South Carolina
29464,1,32.82082,-79.85583,Mount Pleasant,South Carolina
29483,1,33.03126,-80.23205,Summerville,South Carolina
29485,1,32.94398,-80.19362,Summerville,South Carolina
29488,1,32.90664,-80.67458,Walterboro,South Carolina
29501,2,34.20414,-79.82654,Florence,South Carolina
29528,1,,,[],[]
29550,1,34.39309,-80.07595,Hartsville,South Carolina
29572,1,33.76798,-78.79279,Myrtle Beach,South Carolina
29576,1,33.56952,-79.05076,Murrells Inlet,South Carolina
29577,3,33.69711,-78.90495,Myrtle Beach,South Carolina
29578,1,,,[],[]
29607,2,34.80952,-82.33193,Greenville,South Carolina
29609,1,34.91209,-82.38928,Greenville,South Carolina
29621,1,34.50598,-82.60328,Anderson,South Carolina
29625,1,34.55577,-82.76294,Anderson,South Carolina
29640,1,34.88706,-82.57725,Easley,South Carolina
29642,1,34.77487,-82.56538,Easley,South Carolina
29649,1,34.24354,-82.13825,Greenwood,South Carolina
29678,1,34.63365,-82.93991,Seneca,South Carolina
29730,2,34.8878,-81.02116,Rock Hill,South Carolina
29802,1,,,[],[]
29906,2,32.44521,-80.75159,Beaufort,South Carolina
29928,2,32.16214,-80.76274,Hilton Head Island,South Carolina
30019,1,33.97642,-83.88252,Dacula,Georgia
30022,2,34.02745,-84.24643,Alpharetta,Georgia
30033,1,33.81342,-84.28355,Decatur,Georgia
30038,1,33.67078,-84.14209,Lithonia,Georgia
30040,1,34.21622,-84.17978,Cumming,Georgia
30041,1,34.20166,-84.09371,Cumming,Georgia
30043,2,34.00353,-84.00703,Lawrenceville,Georgia
30045,1,33.93046,-83.93019,Lawrenceville,Georgia
30062,1,33.99977,-84.46899,Marietta,Georgia
30076,1,34.02777,-84.31723,Roswell,Georgia
30078,2,33.86118,-84.01795,Snellville,Georgia
30082,1,33.85517,-84.5373,Smyrna,Georgia
30084,1,33.85457,-84.21657,Tucker,Georgia
30087,1,33.81087,-84.13135,Stone Mountain,Georgia
30094,1,33.61243,-84.0555,Conyers,Georgia
30096,1,33.97691,-84.14791,Duluth,Georgia
30097,1,34.0271,-84.14702,Duluth,Georgia
30101,2,34.04355,-84.71244,Acworth,Georgia
30106,1,33.83476,-84.62947,Austell,Georgia
30114,1,34.24433,-84.5393,Canton,Georgia
30120,1,34.16639,-84.85597,Cartersville,Georgia
30125,1,34.00067,-85.27331,Cedartown,Georgia
30135,1,33.67285,-84.74523,Douglasville,Georgia
30141,1,33.86244,-84.77521,Hiram,Georgia
30144,2,34.03672,-84.59174,Kennesaw,Georgia
30161,1,34.23758,-85.17319,Rome,Georgia
30165,2,34.30279,-85.27233,Rome,Georgia
30214,2,33.49222,-84.48697,Fayetteville,Georgia
30240,1,33.03757,-85.12222,Lagrange,Georgia
30253,1,33.45028,-84.18579,Mcdonough,Georgia
30260,1,33.5862,-84.33046,Morrow,Georgia
30265,1,33.41649,-84.70749,Newnan,Georgia
30271,1,,,[],[]
30286,1,32.88078,-84.33334,Thomaston,Georgia
30306,1,33.78867,-84.35136,Atlanta,Georgia
30308,1,33.77094,-84.37773,Atlanta,Georgia
30309,1,33.798,-84.38774,Atlanta,Georgia
30324,1,33.8196,-84.3572,Atlanta,Georgia
30326,2,33.84957,-84.36342,Atlanta,Georgia
30331,1,33.70627,-84.54439,Atlanta,Georgia
30338,1,33.9437,-84.31801,Atlanta,Georgia
30339,1,33.86786,-84.46483,Atlanta,Georgia
30341,1,33.88711,-84.28992,Atlanta,Georgia
30363,1,33.79147,-84.39887,Atlanta,Georgia
30459,1,,,[],[]
30501,1,34.31844,-83.81636,Gainesville,Georgia
30513,1,34.82469,-84.31891,Blue Ridge,Georgia
30518,1,34.132,-84.02578,Buford,Georgia
30529,1,34.2155,-83.482,Commerce,Georgia
30534,1,34.43085,-84.1439,Dawsonville,Georgia
30540,1,34.72313,-84.54421,Ellijay,Georgia
30542,1,34.17846,-83.90915,Flowery Branch,Georgia
30563,1,34.5596,-83.46283,Mount Airy,Georgia
30577,1,34.55549,-83.32632,Toccoa,Georgia
30601,1,34.00032,-83.34851,Athens,Georgia
30604,1,,,[],[]
30606,1,33.93873,-83.43305,Athens,Georgia
30608,1,,,[],[]
30701,1,34.49535,-84.95385,Calhoun,Georgia
30721,1,34.79168,-84.91187,Dalton,Georgia
30722,1,,,[],[]
30741,1,34.95168,-85.28213,Rossville,Georgia
30752,1,34.91136,-85.53079,Trenton,Georgia
30909,2,33.47068,-82.08376,Augusta,Georgia
31015,1,31.93729,-83.77444,Cordele,Georgia
31023,1,32.18288,-83.1991,Eastman,Georgia
31028,1,32.63164,-83.68459,Centerville,Georgia
31040,1,,,[],[]
31061,1,33.06041,-83.22816,Milledgeville,Georgia
31088,1,32.58587,-83.65528,Warner Robins,Georgia
31210,2,32.90486,-83.7356,Macon,Georgia
31313,1,31.83534,-81.6183,Hinesville,Georgia
31401,1,32.06831,-81.09252,Savannah,Georgia
31406,1,31.97783,-81.08517,Savannah,Georgia
31408,1,32.11164,-81.18158,Savannah,Georgia
31414,1,,,[],[]
31416,1,,,[],[]
31419,1,31.98479,-81.23867,Savannah,Georgia
31420,1,,,[],[]
31503,1,31.17687,-82.40173,Waycross,Georgia
31520,1,31.17745,-81.48729,Brunswick,Georgia
31522,6,31.23595,-81.35528,Saint Simons Island,Georgia
31533,1,31.55021,-82.8287,Douglas,Georgia
31545,1,31.64867,-81.9405,Jesup,Georgia
31558,1,30.80173,-81.51606,Saint Marys,Georgia
31602,2,30.86734,-83.34269,Valdosta,Georgia
31707,1,31.58736,-84.20689,Albany,Georgia
31709,1,32.05071,-84.14011,Americus,Georgia
31792,1,30.77079,-84.04238,Thomasville,Georgia
31794,1,31.44418,-83.45151,Tifton,Georgia
31901,1,32.46461,-84.97986,Columbus,Georgia
31902,1,,,[],[]
31904,3,32.55189,-85.00009,Columbus,Georgia
31905,1,32.37304,-84.84331,Fort Moore,Georgia
32003,1,30.09813,-81.71255,Fleming Island,Florida
32035,1,,,[],[]
32055,1,30.27031,-82.62507,Lake City,Florida
32073,1,30.16766,-81.74069,Orange Park,Florida
32086,1,29.75656,-81.30282,Saint Augustine,Florida
32091,1,29.93205,-82.11324,Starke,Florida
32118,1,29.21035,-81.00425,Daytona Beach,Florida
32129,1,29.13721,-81.02381,Port Orange,Florida
32168,1,28.98214,-81.03721,New Smyrna Beach,Florida
32174,1,29.28928,-81.16446,Ormond Beach,Florida
32177,1,29.69011,-81.70565,Palatka,Florida
32204,1,30.31636,-81.68095,Jacksonville,Florida
32207,1,30.29,-81.64018,Jacksonville,Florida
32216,1,30.27891,-81.58305,Jacksonville,Florida
32218,1,30.48673,-81.66959,Jacksonville,Florida
32225,1,30.35768,-81.50592,Jacksonville,Florida
32250,1,30.27846,-81.41035,Jacksonville Beach,Florida
32256,1,30.1929,-81.50309,Jacksonville,Florida
32301,1,30.42701,-84.25799,Tallahassee,Florida
32303,4,30.51237,-84.34386,Tallahassee,Florida
32405,2,30.20002,-85.66869,Panama City,Florida
32406,1,,,[],[]
32413,1,30.30975,-85.88745,Panama City Beach,Florida
32446,2,30.84493,-85.23017,Marianna,Florida
32503,1,30.46022,-87.21372,Pensacola,Florida
32504,2,30.48495,-87.19093,Pensacola,Florida
32505,1,30.45575,-87.26082,Pensacola,Florida
32534,1,30.53276,-87.28374,Pensacola,Florida
32541,2,30.39666,-86.47486,Destin,Florida
32549,1,,,[],[]
32563,1,30.38782,-87.0331,Gulf Breeze,Florida
32569,1,30.40666,-86.72962,Mary Esther,Florida
32571,1,30.67162,-87.20004,Milton,Florida
32605,1,29.67659,-82.37351,Gainesville,Florida
32607,1,29.64524,-82.41923,Gainesville,Florida
32608,1,29.59271,-82.3935,Gainesville,Florida
32701,2,28.66509,-81.36916,Altamonte Springs,Florida
32703,1,28.65579,-81.52139,Apopka,Florida
32720,2,29.01775,-81.37802,Deland,Florida
32721,3,,,[],[]
32746,1,28.76297,-81.35499,Lake Mary,Florida
32751,1,28.631,-81.36457,Maitland,Florida
32763,2,28.94291,-81.30593,Orange City,Florida
32765,1,28.66732,-81.20033,Oviedo,Florida
32771,1,28.81496,-81.31751,Sanford,Florida
32780,1,28.54672,-80.7841,Titusville,Florida
32789,1,28.59977,-81.35235,Winter Park,Florida
32792,1,28.61066,-81.29923,Winter Park,Florida
32801,1,28.542,-81.37343,Orlando,Florida
32819,3,28.45565,-81.472,Orlando,Florida
32828,1,28.53052,-81.17022,Orlando,Florida
32830,1,28.38643,-81.56732,Orlando,Florida
32901,1,28.07887,-80.62268,Melbourne,Florida
32904,1,28.01,-80.79104,Melbourne,Florida
32907,1,28.01565,-80.68187,Palm Bay,Florida
32937,1,28.17464,-80.61146,Satellite Beach,Florida
32940,1,28.21813,-80.7543,Melbourne,Florida
32952,1,28.31749,-80.66832,Merritt Island,Florida
32960,1,27.64069,-80.40366,Vero Beach,Florida
32966,1,27.68716,-80.70693,Vero Beach,Florida
33012,2,25.86583,-80.30247,Hialeah,Florida
33014,1,25.90332,-80.30173,Hialeah,Florida
33015,1,25.94116,-80.31761,Hialeah,Florida
33020,1,26.01911,-80.15251,Hollywood,Florida
33024,2,26.02501,-80.24475,Hollywood,Florida
33027,1,25.98245,-80.34359,Hollywood,Florida
33033,1,25.47858,-80.4057,Homestead,Florida
33040,2,24.5855,-81.74904,Key West,Florida
33050,1,24.72843,-81.03405,Marathon,Florida
33062,2,26.24101,-80.09399,Pompano Beach,Florida
33067,1,26.307,-80.2257,Pompano Beach,Florida
33070,2,25.00873,-80.52501,Tavernier,Florida
33071,2,26.24395,-80.26627,Coral Springs,Florida
33126,2,25.78061,-80.30054,Miami,Florida
33133,3,25.72983,-80.24327,Miami,Florida
33139,2,25.78523,-80.15085,Miami Beach,Florida
33143,1,25.70255,-80.29792,Miami,Florida
33144,1,25.76335,-80.31228,Miami,Florida
33154,1,25.88609,-80.13332,Miami Beach,Florida
33172,2,25.78655,-80.3623,Miami,Florida
33175,1,25.73435,-80.40621,Miami,Florida
33176,2,25.65876,-80.35919,Miami,Florida
33180,2,25.96145,-80.1415,Miami,Florida
33183,1,25.70047,-80.40578,Miami,Florida
33189,1,25.57314,-80.33929,Miami,Florida
33301,1,26.12128,-80.12745,Fort Lauderdale,Florida
33304,1,26.13845,-80.12166,Fort Lauderdale,Florida
33306,2,26.16548,-80.11404,Fort Lauderdale,Florida
33308,1,26.18952,-80.10859,Fort Lauderdale,Florida
33309,1,26.18793,-80.17385,Fort Lauderdale,Florida
33311,1,26.14412,-80.17319,Fort Lauderdale,Florida
33314,1,26.06822,-80.22391,Fort Lauderdale,Florida
33321,1,26.2121,-80.2697,Fort Lauderdale,Florida
33322,1,26.14997,-80.27429,Fort Lauderdale,Florida
33323,1,26.14988,-80.32222,Fort Lauderdale,Florida
33324,2,26.11205,-80.27469,Fort Lauderdale,Florida
33326,1,26.11033,-80.37403,Fort Lauderdale,Florida
33331,3,26.0587,-80.36989,Fort Lauderdale,Florida
33351,1,26.17938,-80.27463,Fort Lauderdale,Florida
33401,2,26.71805,-80.0685,West Palm Beach,Florida
33409,1,26.7161,-80.0965,West Palm Beach,Florida
33410,1,26.84629,-80.08823,Palm Beach Gardens,Florida
33411,1,26.71517,-80.20305,West Palm Beach,Florida
33414,1,26.64829,-80.24943,Wellington,Florida
33415,1,26.66002,-80.12742,West Palm Beach,Florida
33426,3,26.53359,-80.08295,Boynton Beach,Florida
33431,3,26.37996,-80.1028,Boca Raton,Florida
33432,1,26.34546,-80.0838,Boca Raton,Florida
33434,1,26.38139,-80.16913,Boca Raton,Florida
33436,1,26.52423,-80.10758,Boynton Beach,Florida
33442,1,26.31012,-80.14503,Deerfield Beach,Florida
33445,1,26.4548,-80.1063,Delray Beach,Florida
33446,1,26.45444,-80.18353,Delray Beach,Florida
33461,2,26.61936,-80.09048,Lake Worth,Florida
33467,1,26.59472,-80.17567,Lake Worth,Florida
33477,1,26.91401,-80.0799,Jupiter,Florida
33483,1,26.46157,-80.0638,Delray Beach,Florida
33511,1,27.9099,-82.29405,Brandon,Florida
33525,1,28.33503,-82.18383,Dade City,Florida
33541,1,28.23029,-82.22073,Zephyrhills,Florida
33544,1,28.25132,-82.37039,Wesley Chapel,Florida
33572,1,27.7659,-82.39999,Apollo Beach,Florida
33602,1,27.95371,-82.45675,Tampa,Florida
33605,3,27.95121,-82.42924,Tampa,Florida
33609,1,27.94307,-82.51108,Tampa,Florida
33610,1,27.9972,-82.38015,Tampa,Florida
33612,1,28.05071,-82.451,Tampa,Florida
33614,1,28.00619,-82.50598,Tampa,Florida
33625,1,28.06807,-82.56016,Tampa,Florida
33634,1,28.00769,-82.54614,Tampa,Florida
33647,2,28.13401,-82.36017,Tampa,Florida
33679,1,,,[],[]
33701,2,27.7705,-82.63566,Saint Petersburg,Florida
33764,1,27.93679,-82.7424,Clearwater,Florida
33771,1,27.90585,-82.7583,Largo,Florida
33772,1,27.84286,-82.79666,Seminole,Florida
33781,1,27.83861,-82.71512,Pinellas Park,Florida
33785,1,27.88559,-82.84425,Indian Rocks Beach,Florida
33801,1,28.0401,-81.8947,Lakeland,Florida
33802,1,,,[],[]
33803,1,28.00887,-81.93604,Lakeland,Florida
33809,1,28.20291,-81.96597,Lakeland,Florida
33859,1,27.88428,-81.63106,Lake Wales,Florida
33870,1,27.50571,-81.36071,Sebring,Florida
33881,1,28.05439,-81.70081,Winter Haven,Florida
33903,1,26.68217,-81.90688,North Fort Myers,Florida
33904,1,26.57601,-81.94536,Cape Coral,Florida
33907,1,26.56447,-81.87171,Fort Myers,Florida
33913,1,26.51718,-81.69712,Fort Myers,Florida
33928,1,26.43545,-81.71002,Estero,Florida
33931,1,26.44036,-81.90974,Fort Myers Beach,Florida
33948,1,26.98411,-82.15126,Port Charlotte,Florida
34102,1,26.13783,-81.79654,Naples,Florida
34104,1,26.15321,-81.74214,Naples,Florida
34108,1,26.24533,-81.80694,Naples,Florida
34109,1,26.24073,-81.76365,Naples,Florida
34112,2,26.12053,-81.73908,Naples,Florida
34135,1,26.36923,-81.73303,Bonita Springs,Florida
34145,1,25.91903,-81.69506,Marco Island,Florida
34203,1,27.44319,-82.50834,Bradenton,Florida
34205,1,27.48418,-82.5835,Bradenton,Florida
34210,1,27.43897,-82.63117,Bradenton,Florida
34232,1,27.32601,-82.47239,Sarasota,Florida
34236,2,27.32964,-82.55874,Sarasota,Florida
34238,1,27.23049,-82.4687,Sarasota,Florida
34243,1,27.40264,-82.52809,Sarasota,Florida
34293,1,27.04642,-82.35595,Venice,Florida
34420,1,29.05359,-82.04008,Belleview,Florida
34428,1,28.9608,-82.63421,Crystal River,Florida
34453,1,28.89276,-82.33663,Inverness,Florida
34474,1,29.15515,-82.21106,Ocala,Florida
34613,1,28.56183,-82.53803,Brooksville,Florida
34668,1,28.30176,-82.70516,Port Richey,Florida
34677,1,28.05293,-82.67549,Oldsmar,Florida
34684,2,28.08122,-82.72779,Palm Harbor,Florida
34711,1,28.52724,-81.75349,Clermont,Florida
34741,1,28.30544,-81.42567,Kissimmee,Florida
34747,1,28.31111,-81.59107,Kissimmee,Florida
34761,2,28.57975,-81.53386,Ocoee,Florida
34769,1,28.24366,-81.29412,Saint Cloud,Florida
34788,1,28.88542,-81.79678,Leesburg,Florida
34957,1,27.28399,-80.24252,Jensen Beach,Florida
34974,1,27.15062,-80.91371,Okeechobee,Florida
34982,1,27.37669,-80.31082,Fort Pierce,Florida
34986,1,27.32804,-80.40524,Port Saint Lucie,Florida
34994,1,27.19954,-80.2557,Stuart,Florida
35007,1,33.21751,-86.79307,Alabaster,Alabama
35010,1,32.91433,-85.93816,Alexander City,Alabama
35022,1,33.33107,-86.95959,Bessemer,Alabama
35055,1,34.1542,-86.75932,Cullman,Alabama
35160,1,33.36898,-86.1005,Talladega,Alabama
35173,1,33.65284,-86.56337,Trussville,Alabama
35206,1,33.57024,-86.71328,Birmingham,Alabama
35209,1,33.46507,-86.81107,Birmingham,Alabama
35216,2,33.41995,-86.78746,Birmingham,Alabama
35222,1,33.52378,-86.76994,Birmingham,Alabama
35235,1,33.61723,-86.65008,Birmingham,Alabama
35242,2,33.42371,-86.67073,Birmingham,Alabama
35243,1,33.44185,-86.74055,Birmingham,Alabama
35405,1,33.12087,-87.55082,Tuscaloosa,Alabama
35475,1,33.42792,-87.5854,Northport,Alabama
35501,1,33.82145,-87.29544,Jasper,Alabama
35565,1,34.23555,-87.56309,Haleyville,Alabama
35570,1,34.16532,-87.99466,Hamilton,Alabama
35601,1,34.60616,-87.00795,Decatur,Alabama
35603,1,34.53712,-86.96717,Decatur,Alabama
35611,1,34.76554,-87.08418,Athens,Alabama
35631,1,,,[],[]
35768,1,34.77852,-86.10383,Scottsboro,Alabama
35801,1,34.72497,-86.56304,Huntsville,Alabama
35802,2,34.67398,-86.55449,Huntsville,Alabama
35806,2,34.76615,-86.68324,Huntsville,Alabama
35814,1,,,[],[]
35901,1,34.04848,-85.92395,Gadsden,Alabama
35956,1,34.1433,-86.14799,Boaz,Alabama
35957,2,34.19105,-86.19531,Boaz,Alabama
35967,1,34.3981,-85.69698,Fort Payne,Alabama
36037,1,31.79384,-86.62356,Greenville,Alabama
36066,1,32.48216,-86.42431,Prattville,Alabama
36081,1,31.90663,-85.89804,Troy,Alabama
36106,1,32.35264,-86.25793,Montgomery,Alabama
36116,1,32.27312,-86.21765,Montgomery,Alabama
36117,1,32.37831,-86.14627,Montgomery,Alabama
36201,2,33.65082,-85.88264,Anniston,Alabama
36303,3,31.26389,-85.39213,Dothan,Alabama
36330,3,31.30743,-85.85854,Enterprise,Alabama
36352,1,31.25682,-85.61629,Newton,Alabama
36360,1,31.46648,-85.61641,Ozark,Alabama
36420,1,31.18092,-86.57618,Andalusia,Alabama
36526,1,30.61187,-87.86151,Daphne,Alabama
36542,1,30.27683,-87.73867,Gulf Shores,Alabama
36561,1,30.28813,-87.57142,Orange Beach,Alabama
36606,1,30.67088,-88.10617,Mobile,Alabama
36693,1,30.62676,-88.14989,Mobile,Alabama
36695,1,30.6309,-88.27775,Mobile,Alabama
36732,1,32.41638,-87.91367,Demopolis,Alabama
36784,1,31.94208,-87.82271,Thomasville,Alabama
36831,1,,,[],[]
37011,1,,,[],[]
37013,1,36.04658,-86.63445,Antioch,Tennessee
37040,1,36.52408,-87.33287,Clarksville,Tennessee
37042,1,36.56894,-87.41225,Clarksville,Tennessee
37055,1,36.07921,-87.44238,Dickson,Tennessee
37064,1,35.88966,-86.96112,Franklin,Tennessee
37066,2,36.39871,-86.45594,Gallatin,Tennessee
37072,1,36.35686,-86.74494,Goodlettsville,Tennessee
37075,1,36.34085,-86.60845,Hendersonville,Tennessee
37087,2,36.2733,-86.27224,Lebanon,Tennessee
37091,1,35.48546,-86.76405,Lewisburg,Tennessee
37110,1,35.6436,-85.74314,Mcminnville,Tennessee
37115,1,36.25444,-86.69636,Madison,Tennessee
37122,1,36.17791,-86.48872,Mount Juliet,Tennessee
37129,2,35.92556,-86.44098,Murfreesboro,Tennessee
37160,1,35.46562,-86.48268,Shelbyville,Tennessee
37172,1,36.53661,-86.86005,Springfield,Tennessee
37185,2,36.07118,-87.8392,Waverly,Tennessee
37204,1,36.10669,-86.77463,Nashville,Tennessee
37210,1,36.1442,-86.73374,Nashville,Tennessee
37212,1,36.13376,-86.80167,Nashville,Tennessee
37214,1,36.16789,-86.66296,Nashville,Tennessee
37215,1,36.08197,-86.83492,Nashville,Tennessee
37221,2,36.05991,-86.97189,Nashville,Tennessee
37303,1,35.4403,-84.64051,Athens,Tennessee
37330,1,35.28411,-86.12967,Estill Springs,Tennessee
37334,1,35.16532,-86.57966,Fayetteville,Tennessee
37343,1,35.16904,-85.20899,Hixson,Tennessee
37353,1,35.12288,-84.9855,McDonald,Tennessee
37375,1,35.15355,-85.88173,Sewanee,Tennessee
37385,1,35.33494,-84.22933,Tellico Plains,Tennessee
37387,1,35.27745,-85.71427,Tracy City,Tennessee
37388,1,35.35141,-86.19747,Tullahoma,Tennessee
37398,1,35.18182,-86.13808,Winchester,Tennessee
37402,2,35.04672,-85.31553,Chattanooga,Tennessee
37412,1,34.9974,-85.22726,Chattanooga,Tennessee
37421,2,35.02915,-85.153,Chattanooga,Tennessee
37424,1,,,[],[]
37601,1,36.32838,-82.31974,Johnson City,Tennessee
37604,2,36.29923,-82.38302,Johnson City,Tennessee
37643,2,36.37513,-82.13729,Elizabethton,Tennessee
37650,1,36.10416,-82.45938,Erwin,Tennessee
37664,1,36.51163,-82.50729,Kingsport,Tennessee
37748,1,35.94797,-84.51413,Harriman,Tennessee
37766,1,36.39958,-84.07275,La Follette,Tennessee
37801,1,35.67134,-84.08453,Maryville,Tennessee
37813,1,36.17644,-83.26542,Morristown,Tennessee
37821,1,35.97688,-83.19506,Newport,Tennessee
37830,1,35.96431,-84.29221,Oak Ridge,Tennessee
37841,1,36.5088,-84.54665,Oneida,Tennessee
37876,1,35.8645,-83.47876,Sevierville,Tennessee
37902,1,35.96203,-83.92039,Knoxville,Tennessee
37917,1,36.00156,-83.91265,Knoxville,Tennessee
37919,3,35.91429,-84.00106,Knoxville,Tennessee
37922,2,35.86124,-84.10127,Knoxville,Tennessee
37923,1,35.92697,-84.08076,Knoxville,Tennessee
38008,1,35.24455,-88.99879,Bolivar,Tennessee
38017,1,35.06722,-89.65347,Collierville,Tennessee
38018,1,35.13781,-89.76647,Cordova,Tennessee
38025,1,,,[],[]
38104,1,35.13253,-90.00435,Memphis,Tennessee
38115,1,35.05499,-89.86362,Memphis,Tennessee
38117,1,35.11504,-89.90551,Memphis,Tennessee
38119,1,35.07986,-89.84593,Memphis,Tennessee
38122,1,35.1571,-89.92247,Memphis,Tennessee
38128,1,35.22623,-89.92612,Memphis,Tennessee
38134,2,35.17674,-89.85992,Memphis,Tennessee
38135,1,35.23876,-89.8497,Memphis,Tennessee
38138,1,35.08477,-89.7993,Germantown,Tennessee
38187,1,,,[],[]
38237,1,36.36406,-88.83162,Martin,Tennessee
38242,1,36.3076,-88.33244,Paris,Tennessee
38261,1,36.43214,-89.11583,Union City,Tennessee
38305,2,35.70108,-88.76779,Jackson,Tennessee
38343,1,35.82727,-88.92819,Humboldt,Tennessee
38351,1,35.66324,-88.40401,Lexington,Tennessee
38358,1,35.91661,-88.75934,Milan,Tennessee
38464,1,35.29035,-87.42845,Lawrenceburg,Tennessee
38503,1,36.16333,-85.50588,Cookeville,Tennessee
38555,1,35.88956,-84.97537,Crossville,Tennessee
38583,1,35.94649,-85.43781,Sparta,Tennessee
38652,1,34.48545,-88.99652,New Albany,Mississippi
38655,2,34.33114,-89.4825,Oxford,Mississippi
38668,1,34.60109,-89.92505,Senatobia,Mississippi
38671,1,34.96376,-89.99567,Southaven,Mississippi
38701,1,33.30621,-91.03346,Greenville,Mississippi
38804,2,34.28094,-88.67246,Tupelo,Mississippi
38821,1,33.97503,-88.43918,Amory,Mississippi
38835,1,,,[],[]
38901,1,33.76275,-89.79799,Grenada,Mississippi
39056,1,32.37384,-90.35083,Clinton,Mississippi
39110,1,32.50325,-90.13791,Madison,Mississippi
39111,1,31.89536,-89.71816,Magee,Mississippi
39120,1,31.51148,-91.35206,Natchez,Mississippi
39157,1,32.42537,-90.16685,Ridgeland,Mississippi
39180,1,32.223,-90.90225,Vicksburg,Mississippi
39191,1,31.71492,-90.40764,Wesson,Mississippi
39208,1,32.25827,-90.08908,Pearl,Mississippi
39232,1,32.3361,-90.08693,Flowood,Mississippi
39301,1,32.27289,-88.59226,Meridian,Mississippi
39350,1,32.79674,-89.12984,Philadelphia,Mississippi
39401,1,31.23496,-89.26912,Hattiesburg,Mississippi
39423,1,31.17553,-88.91103,Beaumont,Mississippi
39440,1,31.694,-89.14791,Laurel,Mississippi
39503,2,30.47432,-89.14752,Gulfport,Mississippi
39540,1,30.47108,-88.90088,Diberville,Mississippi
39553,1,30.41625,-88.64848,Gautier,Mississippi
39601,1,31.56548,-90.47762,Brookhaven,Mississippi
39701,1,33.41091,-88.50807,Columbus,Mississippi
39819,1,30.78485,-84.64297,Bainbridge,Georgia
40004,1,37.80279,-85.4695,Bardstown,Kentucky
40031,1,38.42617,-85.39368,La Grange,Kentucky
40065,1,38.21225,-85.20734,Shelbyville,Kentucky
40159,1,,,[],[]
40160,1,37.8144,-85.93971,Radcliff,Kentucky
40165,1,37.99407,-85.68918,Shepherdsville,Kentucky
40204,1,38.23873,-85.7208,Louisville,Kentucky
40207,1,38.26357,-85.65543,Louisville,Kentucky
40216,1,38.18707,-85.83738,Louisville,Kentucky
40220,1,38.21535,-85.61794,Louisville,Kentucky
40229,2,38.09074,-85.65597,Louisville,Kentucky
40241,1,38.30339,-85.5774,Louisville,Kentucky
40258,1,38.14514,-85.87253,Louisville,Kentucky
40324,1,38.24786,-84.54956,Georgetown,Kentucky
40351,2,38.19817,-83.4133,Morehead,Kentucky
40353,1,38.06514,-83.94853,Mount Sterling,Kentucky
40356,1,37.87307,-84.56554,Nicholasville,Kentucky
40361,1,38.20536,-84.22415,Paris,Kentucky
40380,1,37.81965,-83.78006,Stanton,Kentucky
40422,1,37.64235,-84.80488,Danville,Kentucky
40475,3,37.7635,-84.30828,Richmond,Kentucky
40503,2,38.0047,-84.53434,Lexington,Kentucky
40504,1,38.04181,-84.54133,Lexington,Kentucky
40507,1,38.04686,-84.49628,Lexington,Kentucky
40509,5,37.99408,-84.36791,Lexington,Kentucky
40601,1,38.23294,-84.88327,Frankfort,Kentucky
40701,1,36.91759,-84.16651,Corbin,Kentucky
40741,1,37.13349,-84.11636,London,Kentucky
40769,1,36.7116,-84.17284,Williamsburg,Kentucky
40831,1,36.76457,-83.33454,Harlan,Kentucky
40965,1,36.62469,-83.73461,Middlesboro,Kentucky
41042,2,38.98595,-84.64906,Florence,Kentucky
41056,1,38.59913,-83.77576,Maysville,Kentucky
41071,1,39.0732,-84.48211,Newport,Kentucky
41076,1,39.0178,-84.44084,Newport,Kentucky
41101,1,38.47392,-82.65045,Ashland,Kentucky
41164,1,38.28914,-83.16231,Olive Hill,Kentucky
41501,1,37.50805,-82.5154,Pikeville,Kentucky
41653,1,37.6603,-82.76466,Prestonsburg,Kentucky
41701,1,37.29778,-83.18781,Hazard,Kentucky
41719,1,37.29727,-83.24526,Bonnyman,Kentucky
41858,1,37.1454,-82.84697,Whitesburg,Kentucky
42001,1,37.03317,-88.7135,Paducah,Kentucky
42029,1,37.00963,-88.38947,Calvert City,Kentucky
42066,1,36.73328,-88.6403,Mayfield,Kentucky
42071,1,36.62139,-88.28291,Murray,Kentucky
42101,1,37.06552,-86.47809,Bowling Green,Kentucky
42104,1,36.87718,-86.45233,Bowling Green,Kentucky
42134,1,36.72626,-86.56433,Franklin,Kentucky
42141,1,36.94883,-85.91489,Glasgow,Kentucky
42240,1,36.88388,-87.46024,Hopkinsville,Kentucky
42301,1,37.73983,-87.24643,Owensboro,Kentucky
42347,1,37.52414,-86.88715,Hartford,Kentucky
42445,1,37.12861,-87.86052,Princeton,Kentucky
42501,1,37.06174,-84.44973,Somerset,Kentucky
42503,1,37.15677,-84.52511,Somerset,Kentucky
42519,1,36.93932,-84.53573,Burnside,Kentucky
42642,1,37.05624,-85.0352,Russell Springs,Kentucky
42701,2,37.70502,-85.83881,Elizabethtown,Kentucky
42718,1,37.38994,-85.37561,Campbellsville,Kentucky
43015,1,40.29812,-83.06049,Delaware,Ohio
43017,1,40.1189,-83.13314,Dublin,Ohio
43026,1,40.02197,-83.18472,Hilliard,Ohio
43040,1,40.26115,-83.35812,Marysville,Ohio
43050,1,40.37188,-82.49536,Mount Vernon,Ohio
43056,1,40.00895,-82.33057,Heath,Ohio
43078,1,40.11302,-83.77538,Urbana,Ohio
43081,1,40.11064,-82.89083,Westerville,Ohio
43113,1,39.59114,-82.96192,Circleville,Ohio
43130,2,39.70013,-82.60992,Lancaster,Ohio
43147,1,39.8982,-82.74227,Pickerington,Ohio
43201,1,39.99114,-83.00056,Columbus,Ohio
43202,1,40.02126,-83.01394,Columbus,Ohio
43207,2,39.89599,-82.96392,Columbus,Ohio
43209,1,39.95462,-82.92992,Columbus,Ohio
43212,1,39.98763,-83.04215,Columbus,Ohio
43215,1,39.96633,-83.01262,Columbus,Ohio
43219,1,40.00774,-82.92233,Columbus,Ohio
43220,1,40.04847,-83.07161,Columbus,Ohio
43228,1,39.96367,-83.12478,Columbus,Ohio
43229,1,40.08569,-82.97636,Columbus,Ohio
43230,1,40.03648,-82.87057,Columbus,Ohio
43235,1,40.10193,-83.05442,Columbus,Ohio
43240,1,40.14501,-82.98209,Columbus,Ohio
43302,1,40.59995,-83.12967,Marion,Ohio
43311,1,40.36427,-83.75812,Bellefontaine,Ohio
43338,1,40.56207,-82.75958,Mount Gilead,Ohio
43402,1,41.40957,-83.65389,Bowling Green,Ohio
43420,2,41.35749,-83.11265,Fremont,Ohio
43512,1,41.30309,-84.35874,Defiance,Ohio
43532,1,41.45486,-83.97008,Liberty Center,Ohio
43537,2,41.57433,-83.68542,Maumee,Ohio
43551,1,41.52095,-83.57503,Perrysburg,Ohio
43567,1,41.57592,-84.15248,Wauseon,Ohio
43612,1,41.70946,-83.54899,Toledo,Ohio
43616,1,41.65727,-83.40931,Oregon,Ohio
43619,1,41.60424,-83.47348,Northwood,Ohio
43623,1,41.70419,-83.65095,Toledo,Ohio
43701,1,39.95986,-81.99498,Zanesville,Ohio
43725,1,40.03949,-81.59934,Cambridge,Ohio
43756,1,39.68993,-81.79574,Mcconnelsville,Ohio
43950,1,40.09164,-80.92193,Saint Clairsville,Ohio
43952,1,40.39763,-80.66278,Steubenville,Ohio
43953,1,40.35815,-80.70548,Steubenville,Ohio
44001,1,41.36825,-82.25958,Amherst,Ohio
44004,1,41.85255,-80.78738,Ashtabula,Ohio
44012,1,41.49443,-82.01594,Avon Lake,Ohio
44035,1,41.36539,-82.13025,Elyria,Ohio
44039,1,41.38404,-82.02014,North Ridgeville,Ohio
44056,1,41.31465,-81.49868,Macedonia,Ohio
44060,2,41.67742,-81.32806,Mentor,Ohio
44074,1,41.28858,-82.23643,Oberlin,Ohio
44077,1,41.69933,-81.21142,Painesville,Ohio
44092,1,41.59797,-81.46867,Wickliffe,Ohio
44094,1,41.60985,-81.3791,Willoughby,Ohio
44107,1,41.48263,-81.80025,Lakewood,Ohio
44113,3,41.48343,-81.69638,Cleveland,Ohio
44116,1,41.47011,-81.85194,Rocky River,Ohio
44118,3,41.5016,-81.55653,Cleveland,Ohio
44120,1,41.47337,-81.58015,Cleveland,Ohio
44123,1,41.60365,-81.52441,Euclid,Ohio
44124,1,41.49999,-81.46774,Cleveland,Ohio
44125,1,41.40658,-81.61548,Cleveland,Ohio
44129,1,41.39035,-81.73536,Cleveland,Ohio
44130,1,41.378,-81.7868,Cleveland,Ohio
44136,1,41.31265,-81.81064,Strongsville,Ohio
44139,1,41.38325,-81.44439,Solon,Ohio
44143,1,41.55358,-81.47513,Cleveland,Ohio
44144,1,41.43738,-81.74272,Cleveland,Ohio
44145,1,41.45245,-81.92944,Westlake,Ohio
44202,1,41.31645,-81.34243,Aurora,Ohio
44203,1,41.02013,-81.62896,Barberton,Ohio
44212,1,41.24386,-81.82863,Brunswick,Ohio
44216,1,40.93848,-81.58397,Clinton,Ohio
44236,1,41.24669,-81.44775,Hudson,Ohio
44240,1,41.13329,-81.34241,Kent,Ohio
44256,1,41.14092,-81.85954,Medina,Ohio
44281,1,41.05851,-81.73854,Wadsworth,Ohio
44310,1,41.10771,-81.49948,Akron,Ohio
44311,1,41.06427,-81.52047,Akron,Ohio
44312,1,41.01462,-81.4412,Akron,Ohio
44333,2,41.16195,-81.63419,Akron,Ohio
44446,2,41.18958,-80.74692,Niles,Ohio
44483,1,41.26537,-80.81575,Warren,Ohio
44512,3,41.0249,-80.66757,Youngstown,Ohio
44515,1,41.1029,-80.76201,Youngstown,Ohio
44601,1,40.91978,-81.1278,Alliance,Ohio
44646,1,40.81055,-81.49835,Massillon,Ohio
44663,2,40.46066,-81.44961,New Philadelphia,Ohio
44680,1,40.60174,-81.54512,Strasburg,Ohio
44691,2,40.80714,-81.97971,Wooster,Ohio
44720,2,40.90112,-81.43259,North Canton,Ohio
44805,1,40.87335,-82.32096,Ashland,Ohio
44857,2,41.21785,-82.58212,Norwalk,Ohio
44870,1,41.40623,-82.7171,Sandusky,Ohio
44871,1,,,[],[]
44883,2,41.12395,-83.17459,Tiffin,Ohio
44903,2,40.77624,-82.52655,Mansfield,Ohio
44906,2,40.76413,-82.57778,Mansfield,Ohio
45005,1,39.53478,-84.3018,Franklin,Ohio
45013,3,39.40649,-84.6501,Hamilton,Ohio
45040,2,39.35023,-84.30996,Mason,Ohio
45056,1,39.49029,-84.74115,Oxford,Ohio
45069,1,39.34213,-84.4105,West Chester,Ohio
45102,1,39.01718,-84.20602,Amelia,Ohio
45106,1,38.94633,-84.06831,Bethel,Ohio
45107,1,39.28888,-83.96967,Blanchester,Ohio
45150,1,39.16567,-84.23281,Milford,Ohio
45176,1,39.08438,-84.02205,Williamsburg,Ohio
45177,2,39.46123,-83.83692,Wilmington,Ohio
45202,1,39.10885,-84.50243,Cincinnati,Ohio
45220,1,39.14736,-84.52101,Cincinnati,Ohio
45233,1,39.1191,-84.66559,Cincinnati,Ohio
45238,1,39.10927,-84.61053,Cincinnati,Ohio
45240,3,39.28434,-84.52605,Cincinnati,Ohio
45245,1,39.06065,-84.27748,Cincinnati,Ohio
45246,2,39.2906,-84.46612,Cincinnati,Ohio
45248,1,39.16442,-84.66229,Cincinnati,Ohio
45309,1,39.84475,-84.42204,Brookville,Ohio
45324,1,39.81986,-84.00026,Fairborn,Ohio
45327,1,39.63286,-84.39841,Germantown,Ohio
45331,1,40.09729,-84.64616,Greenville,Ohio
45344,1,39.95567,-84.00734,New Carlisle,Ohio
45356,1,40.16252,-84.23097,Piqua,Ohio
45365,1,40.2828,-84.15582,Sidney,Ohio
45373,2,40.03353,-84.19588,Troy,Ohio
45387,2,39.79754,-83.88622,Yellow Springs,Ohio
45402,1,39.75983,-84.20751,Dayton,Ohio
45414,1,39.84008,-84.21115,Dayton,Ohio
45424,2,39.84695,-84.11032,Dayton,Ohio
45430,1,39.71296,-84.08435,Dayton,Ohio
45431,1,39.76488,-84.08012,Dayton,Ohio
45449,1,39.66472,-84.24067,Dayton,Ohio
45458,1,39.60036,-84.1576,Dayton,Ohio
45502,1,39.92791,-83.81703,Springfield,Ohio
45504,1,39.94811,-83.86481,Springfield,Ohio
45505,1,39.90737,-83.7615,Springfield,Ohio
45601,1,39.30996,-82.9555,Chillicothe,Ohio
45640,1,39.02345,-82.65032,Jackson,Ohio
45648,1,38.92161,-83.01393,Lucasville,Ohio
45662,1,38.78938,-82.92114,Portsmouth,Ohio
45701,1,39.31205,-82.08079,Athens,Ohio
45750,1,39.4301,-81.42947,Marietta,Ohio
45764,1,39.45116,-82.24336,Nelsonville,Ohio
45804,1,40.71569,-84.06911,Lima,Ohio
45805,1,40.72979,-84.16242,Lima,Ohio
45822,2,40.55266,-84.59664,Celina,Ohio
45840,2,41.02626,-83.64943,Findlay,Ohio
45891,1,40.8748,-84.57785,Van Wert,Ohio
46016,1,40.09781,-85.68152,Anderson,Indiana
46033,1,39.97975,-86.08595,Carmel,Indiana
46052,1,40.04448,-86.46086,Lebanon,Indiana
46060,2,40.06616,-85.93137,Noblesville,Indiana
46071,1,40.11941,-86.60549,Thorntown,Indiana
46072,1,40.28526,-86.06891,Tipton,Indiana
46112,1,39.86561,-86.38215,Brownsburg,Indiana
46122,1,39.76822,-86.5475,Danville,Indiana
46123,1,39.76502,-86.40015,Avon,Indiana
46131,1,39.47196,-86.04233,Franklin,Indiana
46140,1,39.80358,-85.77049,Greenfield,Indiana
46142,1,39.62029,-86.1764,Greenwood,Indiana
46151,1,39.44783,-86.4275,Martinsville,Indiana
46168,2,39.68985,-86.39262,Plainfield,Indiana
46176,1,39.52684,-85.77297,Shelbyville,Indiana
46204,2,39.77134,-86.15703,Indianapolis,Indiana
46217,1,39.67254,-86.19338,Indianapolis,Indiana
46220,1,39.8676,-86.10818,Indianapolis,Indiana
46227,1,39.67607,-86.13145,Indianapolis,Indiana
46229,2,39.78852,-85.978,Indianapolis,Indiana
46240,1,39.90697,-86.12367,Indianapolis,Indiana
46241,1,39.72389,-86.26842,Indianapolis,Indiana
46250,1,39.90399,-86.06864,Indianapolis,Indiana
46254,2,39.84796,-86.26936,Indianapolis,Indiana
46256,1,39.90682,-86.01152,Indianapolis,Indiana
46268,1,39.89769,-86.23253,Indianapolis,Indiana
46278,1,39.89389,-86.29606,Indianapolis,Indiana
46307,1,41.40215,-87.32693,Crown Point,Indiana
46323,1,41.58961,-87.45323,Hammond,Indiana
46350,1,41.60697,-86.72157,La Porte,Indiana
46360,1,41.68739,-86.86464,Michigan City,Indiana
46368,1,41.5848,-87.17937,Portage,Indiana
46375,2,41.49162,-87.45193,Schererville,Indiana
46383,2,41.45838,-87.00156,Valparaiso,Indiana
46394,1,41.67733,-87.50279,Whiting,Indiana
46410,2,41.48083,-87.33293,Merrillville,Indiana
46514,1,41.72328,-85.97547,Elkhart,Indiana
46526,1,41.55307,-85.88448,Goshen,Indiana
46534,1,41.28561,-86.61878,Knox,Indiana
46545,2,41.69376,-86.14602,Mishawaka,Indiana
46550,1,41.44701,-86.00028,Nappanee,Indiana
46563,2,41.35541,-86.32612,Plymouth,Indiana
46567,1,41.41473,-85.73044,Syracuse,Indiana
46582,1,41.28323,-85.85235,Warsaw,Indiana
46614,1,41.60359,-86.28064,South Bend,Indiana
46706,3,41.34242,-85.03922,Auburn,Indiana
46725,1,41.1518,-85.47655,Columbia City,Indiana
46738,2,41.32189,-85.13731,Garrett,Indiana
46750,2,40.87677,-85.49674,Huntington,Indiana
46755,1,41.45119,-85.27209,Kendallville,Indiana
46802,1,41.06787,-85.16299,Fort Wayne,Indiana
46804,1,41.05421,-85.23913,Fort Wayne,Indiana
46815,1,41.1034,-85.05913,Fort Wayne,Indiana
46825,2,41.15397,-85.12425,Fort Wayne,Indiana
46902,1,40.43743,-86.09111,Kokomo,Indiana
46947,2,40.76044,-86.37303,Logansport,Indiana
46952,1,40.59882,-85.63249,Marion,Indiana
46970,1,40.75827,-86.0614,Peru,Indiana
46975,1,41.0718,-86.25177,Rochester,Indiana
46996,1,41.0626,-86.65906,Winamac,Indiana
47006,1,39.29141,-85.21365,Batesville,Indiana
47025,2,39.15415,-84.87461,Lawrenceburg,Indiana
47037,1,39.16431,-85.31908,Osgood,Indiana
47112,1,38.19235,-86.14512,Corydon,Indiana
47122,1,38.3041,-85.98303,Georgetown,Indiana
47129,2,38.31378,-85.76874,Clarksville,Indiana
47150,1,38.28831,-85.84775,New Albany,Indiana
47202,1,,,[],[]
47240,1,39.32394,-85.48028,Greensburg,Indiana
47250,2,38.81867,-85.3552,Madison,Indiana
47274,1,38.96261,-85.92877,Seymour,Indiana
47303,1,40.27108,-85.37648,Muncie,Indiana
47308,1,,,[],[]
47362,2,39.93186,-85.36998,New Castle,Indiana
47371,1,40.41874,-84.95896,Portland,Indiana
47374,2,39.83376,-84.88997,Richmond,Indiana
47375,1,,,[],[]
47394,1,40.1679,-84.98667,Winchester,Indiana
47402,1,,,[],[]
47403,1,39.08635,-86.61082,Bloomington,Indiana
47408,1,39.2283,-86.46452,Bloomington,Indiana
47421,2,38.86415,-86.45122,Bedford,Indiana
47441,1,39.03976,-87.1743,Linton,Indiana
47454,1,38.51596,-86.45989,Paoli,Indiana
47501,1,38.66139,-87.17479,Washington,Indiana
47546,1,38.42071,-86.93469,Jasper,Indiana
47586,1,38.03684,-86.69297,Tell City,Indiana
47591,1,38.62136,-87.50594,Vincennes,Indiana
47630,1,37.95615,-87.35569,Newburgh,Indiana
47635,1,37.8862,-87.10751,Rockport,Indiana
47670,1,38.34355,-87.57797,Princeton,Indiana
47710,1,38.02518,-87.57618,Evansville,Indiana
47715,2,37.97229,-87.48097,Evansville,Indiana
47719,1,,,[],[]
47802,2,39.35153,-87.4106,Terre Haute,Indiana
47804,1,39.49756,-87.39031,Terre Haute,Indiana
47834,1,39.52423,-87.12276,Brazil,Indiana
47872,1,39.75331,-87.16271,Rockville,Indiana
47904,1,40.43835,-86.87609,Lafayette,Indiana
47905,1,40.4218,-86.76418,Lafayette,Indiana
47906,1,40.48541,-86.98584,West Lafayette,Indiana
47918,1,40.30388,-87.20628,Attica,Indiana
47933,1,40.03728,-86.90234,Crawfordsville,Indiana
47960,2,40.78261,-86.74938,Monticello,Indiana
47978,1,40.97991,-87.1163,Rensselaer,Indiana
48009,2,42.54381,-83.21765,Birmingham,Michigan
48025,1,42.52032,-83.26744,Franklin,Michigan
48034,1,42.49689,-83.29102,Southfield,Michigan
48038,1,42.6054,-82.94152,Clinton Township,Michigan
48039,2,42.69664,-82.55052,Marine City,Michigan
48043,1,42.59763,-82.88208,Mount Clemens,Michigan
48044,1,42.64988,-82.9296,Macomb,Michigan
48049,1,43.0361,-82.57504,North Street,Michigan
48051,1,42.69067,-82.82582,New Baltimore,Michigan
48059,1,43.08253,-82.49913,Fort Gratiot,Michigan
48060,1,42.97835,-82.46297,Port Huron,Michigan
48063,1,42.85581,-82.67676,Columbus,Michigan
48066,1,42.50735,-82.93697,Roseville,Michigan
48067,1,42.49053,-83.13786,Royal Oak,Michigan
48071,1,42.50726,-83.10337,Madison Heights,Michigan
48075,2,42.4618,-83.2299,Southfield,Michigan
48092,1,42.51308,-83.05968,Warren,Michigan
48095,1,42.77977,-83.03837,Washington,Michigan
48101,1,42.25976,-83.21067,Allen Park,Michigan
48103,1,42.2581,-83.84333,Ann Arbor,Michigan
48104,2,42.26343,-83.71748,Ann Arbor,Michigan
48108,1,42.22206,-83.7317,Ann Arbor,Michigan
48116,1,42.50428,-83.78069,Brighton,Michigan
48126,3,42.32999,-83.18678,Dearborn,Michigan
48152,4,42.42597,-83.37433,Livonia,Michigan
48162,1,41.96045,-83.43503,Monroe,Michigan
48180,1,42.22605,-83.26881,Taylor,Michigan
48183,1,42.1361,-83.22045,Trenton,Michigan
48187,3,42.3292,-83.48784,Canton,Michigan
48195,1,42.20472,-83.20568,Southgate,Michigan
48197,1,42.1973,-83.62903,Ypsilanti,Michigan
48301,1,42.54441,-83.28284,Bloomfield Hills,Michigan
48312,1,42.55831,-83.00914,Sterling Heights,Michigan
48314,1,42.60978,-83.05426,Sterling Heights,Michigan
48326,1,42.67536,-83.2531,Auburn Hills,Michigan
48327,1,42.6443,-83.41417,Waterford,Michigan
48331,1,42.50389,-83.40863,Farmington,Michigan
48371,1,42.84544,-83.28785,Oxford,Michigan
48377,1,42.50646,-83.4727,Novi,Michigan
48390,1,42.55197,-83.4752,Walled Lake,Michigan
48413,1,43.80231,-82.99663,Bad Axe,Michigan
48415,2,43.27165,-83.80111,Birch Run,Michigan
48420,3,43.17968,-83.71176,Clio,Michigan
48439,3,42.91733,-83.63018,Grand Blanc,Michigan
48444,1,43.06455,-83.05471,Imlay City,Michigan
48446,3,43.05259,-83.33745,Lapeer,Michigan
48471,2,43.41868,-82.85369,Sandusky,Michigan
48509,1,43.02635,-83.60527,Burton,Michigan
48532,1,43.01203,-83.79429,Flint,Michigan
48602,1,43.41971,-83.97469,Saginaw,Michigan
48604,2,43.49749,-83.95887,Saginaw,Michigan
48612,1,43.88001,-84.43637,Beaverton,Michigan
48617,1,43.84695,-84.71717,Clare,Michigan
48624,1,44.05919,-84.45859,Gladwin,Michigan
48629,1,44.3107,-84.77977,Houghton Lake,Michigan
48640,3,43.58394,-84.33648,Midland,Michigan
48706,1,43.59937,-83.95623,Bay City,Michigan
48708,1,43.55653,-83.84853,Bay City,Michigan
48723,1,43.4861,-83.38499,Caro,Michigan
48725,1,43.93763,-83.20596,Caseville,Michigan
48732,1,43.60666,-83.78274,Essexville,Michigan
48750,1,44.44338,-83.45652,Oscoda,Michigan
48768,1,43.37077,-83.57661,Vassar,Michigan
48801,3,43.37871,-84.67667,Alma,Michigan
48813,1,42.57862,-84.84524,Charlotte,Michigan
48823,1,42.76225,-84.45407,East Lansing,Michigan
48838,3,43.18268,-85.25943,Greenville,Michigan
48843,1,42.56891,-83.92333,Howell,Michigan
48858,1,43.61483,-84.79576,Mount Pleasant,Michigan
48864,1,42.70215,-84.40902,Okemos,Michigan
48867,3,43.00537,-84.18766,Owosso,Michigan
48895,1,42.68946,-84.28061,Williamston,Michigan
48911,1,42.67351,-84.57285,Lansing,Michigan
48912,2,42.73896,-84.52319,Lansing,Michigan
48917,1,42.72509,-84.63897,Lansing,Michigan
49007,1,42.30252,-85.5883,Kalamazoo,Michigan
49009,1,42.30913,-85.69278,Kalamazoo,Michigan
49015,2,42.27467,-85.23115,Battle Creek,Michigan
49017,1,42.3979,-85.2111,Battle Creek,Michigan
49019,1,,,[],[]
49022,1,42.11434,-86.3675,Benton Harbor,Michigan
49024,1,42.20207,-85.61917,Portage,Michigan
49036,2,41.90565,-85.02391,Coldwater,Michigan
49048,1,42.27202,-85.49893,Kalamazoo,Michigan
49058,1,42.63331,-85.29316,Hastings,Michigan
49068,1,42.2765,-84.94063,Marshall,Michigan
49091,1,41.82509,-85.44627,Sturgis,Michigan
49093,1,41.97375,-85.64665,Three Rivers,Michigan
49202,2,42.26737,-84.4107,Jackson,Michigan
49221,1,41.90343,-84.06372,Adrian,Michigan
49242,1,41.88434,-84.61581,Hillsdale,Michigan
49307,1,43.69797,-85.48272,Big Rapids,Michigan
49331,1,42.95161,-85.35139,Lowell,Michigan
49341,1,43.12433,-85.49246,Rockford,Michigan
49417,1,43.01519,-86.14387,Grand Haven,Michigan
49418,1,42.8774,-85.77226,Grandville,Michigan
49423,2,42.73964,-86.09015,Holland,Michigan
49431,1,43.97251,-86.39792,Ludington,Michigan
49441,3,43.18745,-86.2736,Muskegon,Michigan
49444,1,43.17671,-86.19892,Muskegon,Michigan
49461,2,43.38215,-86.32317,Whitehall,Michigan
49504,1,42.98047,-85.70937,Grand Rapids,Michigan
49505,1,42.9984,-85.63699,Grand Rapids,Michigan
49508,2,42.87459,-85.62586,Grand Rapids,Michigan
49512,1,42.8821,-85.54764,Grand Rapids,Michigan
49525,1,43.02144,-85.5918,Grand Rapids,Michigan
49601,1,44.2385,-85.5211,Cadillac,Michigan
49615,1,44.97219,-85.20683,Bellaire,Michigan
49629,1,44.90835,-85.39424,Elk Rapids,Michigan
49635,1,44.62261,-86.18914,Frankfort,Michigan
49640,1,44.72088,-86.03664,Honor,Michigan
49682,1,44.97954,-85.6512,Suttons Bay,Michigan
49684,3,44.80191,-85.70549,Traverse City,Michigan
49707,3,45.09375,-83.50186,Alpena,Michigan
49721,1,45.57181,-84.45711,Cheboygan,Michigan
49735,1,44.99576,-84.67117,Gaylord,Michigan
49757,1,45.85933,-84.62533,Mackinac Island,Michigan
49770,1,45.34396,-84.88903,Petoskey,Michigan
49779,1,45.39651,-83.87153,Rogers City,Michigan
49783,1,46.41495,-84.28006,Sault Sainte Marie,Michigan
49829,1,45.76773,-87.16522,Escanaba,Michigan
49849,1,46.423,-87.76797,Ishpeming,Michigan
49854,1,46.09581,-86.36453,Manistique,Michigan
49855,2,46.56603,-87.45932,Marquette,Michigan
49876,1,45.80211,-87.97729,Quinnesec,Michigan
49931,1,47.13652,-88.6063,Houghton,Michigan
49938,1,46.51493,-90.13264,Ironwood,Michigan
50010,2,42.03316,-93.58761,Ames,Iowa
50014,1,42.04993,-93.69342,Ames,Iowa
50021,1,41.7207,-93.56838,Ankeny,Iowa
50022,1,41.41737,-95.00352,Atlantic,Iowa
50049,1,41.03741,-93.29566,Chariton,Iowa
50060,1,40.75508,-93.31922,Corydon,Iowa
50112,1,41.7319,-92.71591,Grinnell,Iowa
50125,1,41.33286,-93.57957,Indianola,Iowa
50129,1,42.01335,-94.3764,Jefferson,Iowa
50131,1,41.69749,-93.72021,Johnston,Iowa
50138,1,41.30246,-93.10534,Knoxville,Iowa
50158,1,42.05016,-92.90143,Marshalltown,Iowa
50207,1,41.43344,-92.6381,New Sharon,Iowa
50208,2,41.71129,-93.03924,Newton,Iowa
50219,1,41.42243,-92.90132,Pella,Iowa
50266,2,41.56323,-93.81107,West Des Moines,Iowa
50273,1,41.32838,-94.05606,Winterset,Iowa
50310,1,41.62777,-93.67297,Des Moines,Iowa
50311,1,41.601,-93.67335,Des Moines,Iowa
50317,1,41.61572,-93.54881,Des Moines,Iowa
50320,1,41.53208,-93.57217,Des Moines,Iowa
50321,1,41.53997,-93.67184,Des Moines,Iowa
50322,2,41.63383,-93.73589,Urbandale,Iowa
50394,1,,,[],[]
50401,1,43.15389,-93.20006,Mason City,Iowa
50421,1,42.84246,-93.62148,Belmond,Iowa
50428,1,43.13573,-93.38815,Clear Lake,Iowa
50436,1,43.26256,-93.66242,Forest City,Iowa
50441,1,42.73938,-93.22146,Hampton,Iowa
50450,1,43.42045,-93.51998,Lake Mills,Iowa
50459,1,43.4458,-93.25445,Northwood,Iowa
50461,1,43.29995,-92.81412,Osage,Iowa
50501,1,42.49244,-94.18967,Fort Dodge,Iowa
50511,1,43.07483,-94.21894,Algona,Iowa
50536,1,43.11605,-94.69716,Emmetsburg,Iowa
50548,1,42.71275,-94.22645,Humboldt,Iowa
50574,1,42.71891,-94.69967,Pocahontas,Iowa
50588,1,42.65777,-95.16391,Storm Lake,Iowa
50613,1,42.53358,-92.49069,Cedar Falls,Iowa
50638,1,42.35654,-92.79495,Grundy Center,Iowa
50644,1,42.47751,-91.89721,Independence,Iowa
50662,1,42.68748,-91.93396,Oelwein,Iowa
50674,1,42.84202,-92.11746,Sumner,Iowa
50675,1,42.19884,-92.4928,Traer,Iowa
50677,1,42.76363,-92.43775,Waverly,Iowa
50702,1,42.45745,-92.31283,Waterloo,Iowa
50801,1,41.07959,-94.39224,Creston,Iowa
51012,1,42.74474,-95.56171,Cherokee,Iowa
51041,1,43.02443,-96.07701,Orange City,Iowa
51101,2,42.49413,-96.39361,Sioux City,Iowa
51106,1,42.46292,-96.32,Sioux City,Iowa
51201,1,43.18331,-95.8657,Sheldon,Iowa
51249,1,43.41068,-95.73203,Sibley,Iowa
51250,1,43.08437,-96.21232,Sioux Center,Iowa
51301,2,43.15314,-95.14973,Spencer,Iowa
51334,1,43.40379,-94.80698,Estherville,Iowa
51351,1,43.31656,-95.18626,Milford,Iowa
51355,1,43.38996,-95.14082,Okoboji,Iowa
51401,1,42.06516,-94.87068,Carroll,Iowa
51503,1,41.2304,-95.77795,Council Bluffs,Iowa
51537,1,41.64646,-95.29531,Harlan,Iowa
51555,1,41.55937,-95.91398,Missouri Valley,Iowa
51566,1,41.0151,-95.22994,Red Oak,Iowa
51601,1,40.72938,-95.35037,Shenandoah,Iowa
51640,1,40.62262,-95.6634,Hamburg,Iowa
52001,1,42.54819,-90.69348,Dubuque,Iowa
52043,1,42.84403,-91.42201,Elkader,Iowa
52057,2,42.4916,-91.45333,Manchester,Iowa
52101,1,43.35741,-91.76494,Decorah,Iowa
52136,1,43.37139,-92.11289,Cresco,Iowa
52172,1,43.27117,-91.48382,Waukon,Iowa
52208,1,41.88568,-92.26475,Belle Plaine,Iowa
52240,1,41.63143,-91.49924,Iowa City,Iowa
52241,1,41.69708,-91.59746,Coralville,Iowa
52302,1,42.0656,-91.57091,Marion,Iowa
52349,1,42.17246,-92.00566,Vinton,Iowa
52353,1,41.29923,-91.71596,Washington,Iowa
52402,1,42.02272,-91.66001,Cedar Rapids,Iowa
52404,1,41.92153,-91.69077,Cedar Rapids,Iowa
52501,2,41.03828,-92.43252,Ottumwa,Iowa
52544,1,40.71774,-92.90831,Centerville,Iowa
52556,1,41.01842,-91.9264,Fairfield,Iowa
52577,2,41.27174,-92.6602,Oskaloosa,Iowa
52627,1,40.65973,-91.35145,Fort Madison,Iowa
52632,1,40.44072,-91.43973,Keokuk,Iowa
52641,1,40.98799,-91.58531,Mount Pleasant,Iowa
52655,1,40.84768,-91.21174,West Burlington,Iowa
52732,1,41.90126,-90.25083,Clinton,Iowa
52742,1,41.83616,-90.51076,De Witt,Iowa
52761,1,41.43798,-91.05802,Muscatine,Iowa
52776,1,41.5795,-91.275,West Liberty,Iowa
52807,1,41.61061,-90.51634,Davenport,Iowa
53012,1,43.31369,-88.03704,Cedarburg,Wisconsin
53018,1,43.04809,-88.39278,Delafield,Wisconsin
53027,2,43.31697,-88.37356,Hartford,Wisconsin
53038,1,43.08592,-88.79031,Johnson Creek,Wisconsin
53042,1,43.95144,-87.98216,Kiel,Wisconsin
53051,1,43.14905,-88.12348,Menomonee Falls,Wisconsin
53080,1,43.40733,-87.98789,Saukville,Wisconsin
53081,1,43.71343,-87.73725,Sheboygan,Wisconsin
53092,1,43.22139,-87.95351,Mequon,Wisconsin
53094,1,43.1462,-88.73365,Watertown,Wisconsin
53095,1,43.38838,-88.15895,West Bend,Wisconsin
53105,1,42.66412,-88.28045,Burlington,Wisconsin
53132,1,42.88589,-88.01063,Franklin,Wisconsin
53142,1,42.54464,-87.93765,Kenosha,Wisconsin
53147,1,42.57075,-88.45024,Lake Geneva,Wisconsin
53151,2,42.97467,-88.09845,New Berlin,Wisconsin
53154,2,42.8803,-87.90092,Oak Creek,Wisconsin
53177,1,42.70047,-87.93474,Sturtevant,Wisconsin
53186,2,43.02305,-88.20319,Waukesha,Wisconsin
53190,2,42.80775,-88.73129,Whitewater,Wisconsin
53202,2,43.04561,-87.89893,Milwaukee,Wisconsin
53208,1,43.04556,-87.96556,Milwaukee,Wisconsin
53211,1,43.08308,-87.88485,Milwaukee,Wisconsin
53213,1,43.04889,-88.00176,Milwaukee,Wisconsin
53215,1,42.99931,-87.94625,Milwaukee,Wisconsin
53217,1,43.15767,-87.91633,Milwaukee,Wisconsin
53223,1,43.16304,-87.98996,Milwaukee,Wisconsin
53226,1,43.04975,-88.04209,Milwaukee,Wisconsin
53228,1,42.96678,-88.04333,Milwaukee,Wisconsin
53406,1,42.73014,-87.86549,Racine,Wisconsin
53511,1,42.54627,-89.09792,Beloit,Wisconsin
53545,1,42.73113,-89.03613,Janesville,Wisconsin
53546,1,42.65126,-88.94854,Janesville,Wisconsin
53549,1,42.99056,-88.77675,Jefferson,Wisconsin
53566,1,42.60912,-89.64817,Monroe,Wisconsin
53578,1,43.31356,-89.77408,Prairie Du Sac,Wisconsin
53588,1,43.18949,-90.08201,Spring Green,Wisconsin
53589,1,42.92684,-89.21182,Stoughton,Wisconsin
53703,1,43.07981,-89.37734,Madison,Wisconsin
53705,1,43.07427,-89.46246,Madison,Wisconsin
53711,1,43.01521,-89.40641,Madison,Wisconsin
53718,1,43.0977,-89.27332,Madison,Wisconsin
53719,3,43.0281,-89.50003,Madison,Wisconsin
53818,1,42.74725,-90.49177,Platteville,Wisconsin
53821,1,43.04769,-91.06569,Prairie Du Chien,Wisconsin
53901,1,43.55606,-89.48606,Portage,Wisconsin
53916,1,43.45538,-88.85813,Beaver Dam,Wisconsin
53949,1,43.78323,-89.33978,Montello,Wisconsin
53965,1,43.67651,-89.75681,Wisconsin Dells,Wisconsin
54016,1,44.97949,-92.69305,Hudson,Wisconsin
54017,1,45.11907,-92.52091,New Richmond,Wisconsin
54022,1,44.84796,-92.6096,River Falls,Wisconsin
54024,1,45.49873,-92.64781,Saint Croix Falls,Wisconsin
54115,1,44.40552,-88.09195,De Pere,Wisconsin
54130,1,44.31194,-88.24301,Kaukauna,Wisconsin
54143,1,45.08708,-87.70045,Marinette,Wisconsin
54166,1,44.77894,-88.63567,Shawano,Wisconsin
54212,1,45.12169,-87.23024,Fish Creek,Wisconsin
54220,1,44.09644,-87.73131,Manitowoc,Wisconsin
54221,1,,,[],[]
54235,1,44.84218,-87.37677,Sturgeon Bay,Wisconsin
54301,1,44.48193,-88.02029,Green Bay,Wisconsin
54302,1,44.50663,-87.97668,Green Bay,Wisconsin
54304,1,44.49419,-88.06758,Green Bay,Wisconsin
54308,1,,,[],[]
54401,1,44.96647,-89.70794,Wausau,Wisconsin
54409,2,45.11928,-89.16909,Antigo,Wisconsin
54449,1,44.63914,-90.19755,Marshfield,Wisconsin
54451,1,45.19131,-90.40172,Medford,Wisconsin
54452,1,45.20879,-89.76743,Merrill,Wisconsin
54455,1,44.7625,-89.68559,Mosinee,Wisconsin
54481,1,44.51935,-89.63678,Stevens Point,Wisconsin
54494,1,44.34414,-89.74054,Wisconsin Rapids,Wisconsin
54501,1,45.65973,-89.34303,Rhinelander,Wisconsin
54521,1,45.9162,-89.25451,Eagle River,Wisconsin
54552,1,45.93615,-90.29081,Park Falls,Wisconsin
54568,1,45.94876,-89.67546,Woodruff,Wisconsin
54601,2,43.80199,-91.14559,La Crosse,Wisconsin
54602,1,,,[],[]
54615,2,44.26158,-90.78049,Black River Falls,Wisconsin
54656,1,44.00291,-90.79601,Sparta,Wisconsin
54660,1,43.98525,-90.50496,Tomah,Wisconsin
54665,1,43.5319,-90.92134,Viroqua,Wisconsin
54701,3,44.7432,-91.50899,Eau Claire,Wisconsin
54703,1,44.83311,-91.5185,Eau Claire,Wisconsin
54728,1,45.30778,-91.6417,Chetek,Wisconsin
54729,1,44.94533,-91.39342,Chippewa Falls,Wisconsin
54751,1,44.84971,-91.92994,Menomonie,Wisconsin
54801,1,45.86711,-91.92266,Spooner,Wisconsin
54829,1,45.5592,-92.06603,Cumberland,Wisconsin
54843,1,46.0251,-91.29494,Hayward,Wisconsin
54868,1,45.52723,-91.70977,Rice Lake,Wisconsin
54872,1,45.76965,-92.39622,Siren,Wisconsin
54880,1,46.59342,-92.12701,Superior,Wisconsin
54901,1,44.06265,-88.53335,Oshkosh,Wisconsin
54914,1,44.26353,-88.48239,Appleton,Wisconsin
54915,2,44.24279,-88.35928,Appleton,Wisconsin
54935,1,43.77542,-88.43396,Fond Du Lac,Wisconsin
54952,1,44.20086,-88.33719,Menasha,Wisconsin
54961,1,44.41173,-88.7628,New London,Wisconsin
54971,1,43.85546,-88.83109,Ripon,Wisconsin
54981,1,44.32733,-89.12558,Waupaca,Wisconsin
55011,1,45.34108,-93.2521,Cedar,Minnesota
55016,1,44.8172,-92.93373,Cottage Grove,Minnesota
55021,1,44.2973,-93.27414,Faribault,Minnesota
55033,1,44.71139,-92.8585,Hastings,Minnesota
55037,1,46.01071,-92.78934,Hinckley,Minnesota
55042,1,44.99253,-92.898,Lake Elmo,Minnesota
55044,1,44.64156,-93.27858,Lakeville,Minnesota
55056,1,45.50915,-92.9543,North Branch,Minnesota
55060,1,44.05966,-93.22639,Owatonna,Minnesota
55066,1,44.51581,-92.5441,Red Wing,Minnesota
55068,1,44.73555,-93.06876,Rosemount,Minnesota
55076,1,44.83318,-93.0334,Inver Grove Heights,Minnesota
55105,1,44.93465,-93.16689,Saint Paul,Minnesota
55109,1,45.0144,-93.02616,Saint Paul,Minnesota
55110,1,45.08961,-93.00418,Saint Paul,Minnesota
55112,1,45.07443,-93.19169,Saint Paul,Minnesota
55113,1,45.01295,-93.15512,Saint Paul,Minnesota
55116,1,44.91001,-93.17033,Saint Paul,Minnesota
55122,2,44.80326,-93.1962,Saint Paul,Minnesota
55124,2,44.74566,-93.20042,Saint Paul,Minnesota
55128,1,44.98812,-92.96405,Saint Paul,Minnesota
55304,1,45.25583,-93.26455,Andover,Minnesota
55313,1,45.17382,-93.84859,Buffalo,Minnesota
55316,1,45.17021,-93.39032,Champlin,Minnesota
55317,1,44.85711,-93.55096,Chanhassen,Minnesota
55318,1,44.81169,-93.63703,Chaska,Minnesota
55328,1,45.03246,-93.80981,Delano,Minnesota
55330,1,45.33359,-93.5679,Elk River,Minnesota
55331,1,44.90124,-93.60832,Excelsior,Minnesota
55343,1,44.91433,-93.41568,Hopkins,Minnesota
55344,1,44.86452,-93.43037,Eden Prairie,Minnesota
55350,1,44.89743,-94.39195,Hutchinson,Minnesota
55355,2,45.09709,-94.54017,Litchfield,Minnesota
55358,1,45.24637,-94.00049,Maple Lake,Minnesota
55362,1,45.30099,-93.83563,Monticello,Minnesota
55364,1,44.93974,-93.67486,Mound,Minnesota
55369,2,45.12834,-93.44837,Osseo,Minnesota
55374,1,45.17715,-93.58035,Rogers,Minnesota
55379,1,44.75492,-93.51713,Shakopee,Minnesota
55387,1,44.85643,-93.77903,Waconia,Minnesota
55403,1,44.97023,-93.28588,Minneapolis,Minnesota
55405,1,44.97034,-93.30461,Minneapolis,Minnesota
55406,1,44.93932,-93.22071,Minneapolis,Minnesota
55408,2,44.94364,-93.2937,Minneapolis,Minnesota
55414,2,44.97915,-93.2259,Minneapolis,Minnesota
55416,1,44.94961,-93.34157,Minneapolis,Minnesota
55421,1,45.05083,-93.25249,Minneapolis,Minnesota
55424,1,44.90509,-93.33978,Minneapolis,Minnesota
55425,1,44.84249,-93.23601,Minneapolis,Minnesota
55429,1,45.06443,-93.34105,Minneapolis,Minnesota
55430,3,45.0632,-93.30148,Minneapolis,Minnesota
55435,1,44.87343,-93.3347,Minneapolis,Minnesota
55441,1,45.00475,-93.42845,Minneapolis,Minnesota
55443,1,45.11894,-93.33802,Minneapolis,Minnesota
55447,1,45.00132,-93.48888,Minneapolis,Minnesota
55448,1,45.1908,-93.30209,Minneapolis,Minnesota
55720,1,46.75138,-92.5399,Cloquet,Minnesota
55730,1,,,[],[]
55746,1,47.35766,-92.95698,Hibbing,Minnesota
55767,1,46.45236,-92.76536,Moose Lake,Minnesota
55768,1,47.51444,-92.67263,Mountain Iron,Minnesota
55802,1,46.75267,-92.08197,Duluth,Minnesota
55811,1,46.83767,-92.21993,Duluth,Minnesota
55901,1,44.07679,-92.5018,Rochester,Minnesota
55904,1,43.96204,-92.39931,Rochester,Minnesota
55912,1,43.6827,-92.99148,Austin,Minnesota
55944,1,43.98754,-92.73758,Kasson,Minnesota
55987,1,43.98469,-91.63143,Winona,Minnesota
55992,1,44.30557,-92.6827,Zumbrota,Minnesota
56001,3,44.13193,-93.97789,Mankato,Minnesota
56007,1,43.66085,-93.3238,Albert Lea,Minnesota
56031,1,43.62246,-94.46757,Fairmont,Minnesota
56073,2,44.30757,-94.46878,New Ulm,Minnesota
56111,1,43.64155,-94.8799,Alpha,Minnesota
56143,1,43.62803,-95.00759,Jackson,Minnesota
56156,1,43.66196,-96.22466,Luverne,Minnesota
56164,1,44.04936,-96.33361,Pipestone,Minnesota
56187,1,43.62357,-95.58507,Worthington,Minnesota
56201,2,45.10181,-95.04226,Willmar,Minnesota
56256,1,45.02306,-96.19986,Madison,Minnesota
56258,1,44.44121,-95.75906,Marshall,Minnesota
56265,1,45.0064,-95.70098,Montevideo,Minnesota
56267,1,45.58512,-95.9322,Morris,Minnesota
56283,2,44.53208,-95.14225,Redwood Falls,Minnesota
56288,1,45.24218,-94.94847,Spicer,Minnesota
56308,1,45.87047,-95.38985,Alexandria,Minnesota
56320,1,45.4629,-94.4171,Cold Spring,Minnesota
56329,1,45.70934,-93.90577,Foley,Minnesota
56345,1,46.00748,-94.38032,Little Falls,Minnesota
56362,1,45.40524,-94.71525,Paynesville,Minnesota
56378,1,45.72308,-94.97982,Sauk Centre,Minnesota
56387,2,45.53215,-94.24141,Waite Park,Minnesota
56401,1,46.32259,-94.11974,Brainerd,Minnesota
56431,1,46.4828,-93.64356,Aitkin,Minnesota
56470,1,47.02368,-95.09433,Park Rapids,Minnesota
56482,1,46.46555,-95.14307,Wadena,Minnesota
56501,1,46.83665,-95.82233,Detroit Lakes,Minnesota
56510,1,47.35811,-96.52316,Ada,Minnesota
56520,1,46.28645,-96.50361,Breckenridge,Minnesota
56537,1,46.27697,-96.08977,Fergus Falls,Minnesota
56542,1,47.56679,-95.72331,Fosston,Minnesota
56560,1,46.83637,-96.73467,Moorhead,Minnesota
56601,1,47.50985,-94.84921,Bemidji,Minnesota
56623,1,48.59722,-94.56913,Baudette,Minnesota
56630,1,47.74432,-94.49852,Blackduck,Minnesota
56633,1,47.31957,-94.50911,Cass Lake,Minnesota
56701,1,48.12021,-96.1994,Thief River Falls,Minnesota
56721,1,47.97108,-96.94336,East Grand Forks,Minnesota
57006,1,44.31588,-96.79518,Brookings,South Dakota
57022,1,43.85081,-96.7327,Dell Rapids,South Dakota
57042,1,43.97744,-97.15133,Madison,South Dakota
57070,1,43.182,-97.1702,Viborg,South Dakota
57077,1,43.31574,-96.75699,Worthing,South Dakota
57078,1,42.91782,-97.44702,Yankton,South Dakota
57105,1,43.52125,-96.73587,Sioux Falls,South Dakota
57106,2,43.50953,-96.83919,Sioux Falls,South Dakota
57252,1,45.20507,-96.61053,Milbank,South Dakota
57301,2,43.71136,-98.04155,Mitchell,South Dakota
57325,1,43.83961,-99.31144,Chamberlain,South Dakota
57350,1,44.3948,-98.20037,Huron,South Dakota
57401,1,45.4753,-98.53042,Aberdeen,South Dakota
57501,1,44.53525,-100.31906,Pierre,South Dakota
57580,1,43.28987,-100.05772,Winner,South Dakota
57601,1,45.36646,-100.51108,Mobridge,South Dakota
57701,3,44.1209,-103.20562,Rapid City,South Dakota
57702,1,44.03085,-103.38433,Rapid City,South Dakota
57709,1,,,[],[]
57747,1,43.37973,-103.5231,Hot Springs,South Dakota
57752,1,43.43593,-102.20738,Kyle,South Dakota
57783,1,44.47106,-103.9219,Spearfish,South Dakota
58072,1,46.92731,-98.00791,Valley City,North Dakota
58102,1,46.9207,-96.83175,Fargo,North Dakota
58103,2,46.85639,-96.82234,Fargo,North Dakota
58201,1,47.86938,-97.14013,Grand Forks,North Dakota
58208,1,,,[],[]
58301,1,48.13015,-98.88798,Devils Lake,North Dakota
58367,1,48.88179,-99.55163,Rolla,North Dakota
58368,2,48.25124,-100.04105,Rugby,North Dakota
58401,1,46.88145,-98.76883,Jamestown,North Dakota
58402,1,46.88191,-98.68755,Jamestown,North Dakota
58425,1,47.45391,-98.12378,Cooperstown,North Dakota
58474,1,46.09588,-98.13574,Oakes,North Dakota
58502,1,,,[],[]
58503,1,46.90587,-100.75262,Bismarck,North Dakota
58545,1,47.34916,-101.58921,Hazen,North Dakota
58601,1,46.90964,-102.82766,Dickinson,North Dakota
58621,1,47.09771,-103.92652,Beach,North Dakota
58623,1,46.16001,-103.42168,Bowman,North Dakota
58639,1,46.04056,-102.63905,Hettinger,North Dakota
58646,1,46.39826,-102.28782,Mott,North Dakota
58701,1,48.14027,-101.32406,Minot,North Dakota
58730,1,48.86171,-103.30652,Crosby,North Dakota
58746,1,48.71921,-102.10115,Kenmare,North Dakota
58801,3,48.23522,-103.76747,Williston,North Dakota
59011,1,45.92453,-109.97244,Big Timber,Montana
59047,1,45.56852,-110.55174,Livingston,Montana
59068,1,45.15929,-109.45626,Red Lodge,Montana
59102,1,45.77479,-108.58133,Billings,Montana
59104,1,,,[],[]
59108,1,,,[],[]
59201,1,48.15981,-105.64647,Wolf Point,Montana
59215,1,47.50431,-105.74543,Circle,Montana
59230,1,48.09992,-106.80196,Glasgow,Montana
59254,2,48.75753,-104.61123,Plentywood,Montana
59327,1,46.2389,-106.7082,Forsyth,Montana
59403,1,,,[],[]
59427,1,48.77357,-112.61639,Cut Bank,Montana
59457,1,47.08027,-109.38656,Lewistown,Montana
59474,1,48.53314,-111.69254,Shelby,Montana
59501,1,48.69591,-109.78556,Havre,Montana
59601,1,46.54199,-112.17474,Helena,Montana
59701,1,46.03497,-112.46087,Butte,Montana
59711,1,46.09734,-113.10317,Anaconda,Montana
59715,1,45.6928,-110.9065,Bozeman,Montana
59718,1,45.63999,-111.16978,Bozeman,Montana
59725,1,45.06267,-112.85714,Dillon,Montana
59750,1,45.91857,-112.68323,Butte,Montana
59758,1,44.78962,-111.19348,West Yellowstone,Montana
59759,1,45.83972,-112.16233,Whitehall,Montana
59801,1,46.85505,-114.01009,Missoula,Montana
59802,1,46.90569,-113.92077,Missoula,Montana
59808,1,46.97984,-114.064,Missoula,Montana
59840,1,46.17558,-114.11674,Hamilton,Montana
59860,1,47.71314,-114.17832,Polson,Montana
59864,1,47.53324,-114.11741,Ronan,Montana
59873,1,47.6972,-115.27357,Thompson Falls,Montana
59912,1,48.43879,-114.16898,Columbia Falls,Montana
59917,1,48.90614,-114.91359,Eureka,Montana
59923,1,48.26996,-115.31073,Libby,Montana
59937,1,48.43893,-114.49769,Whitefish,Montana
60002,1,42.4674,-88.09419,Antioch,Illinois
60005,1,42.06518,-87.98676,Arlington Heights,Illinois
60007,2,42.01431,-87.99828,Elk Grove Village,Illinois
60010,2,42.15255,-88.16519,Barrington,Illinois
60014,1,42.23126,-88.32679,Crystal Lake,Illinois
60018,2,41.99629,-87.89846,Des Plaines,Illinois
60020,1,42.39543,-88.17349,Fox Lake,Illinois
60031,1,42.37494,-87.94119,Gurnee,Illinois
60035,3,42.18358,-87.8106,Highland Park,Illinois
60047,1,42.20202,-88.04522,Lake Zurich,Illinois
60048,1,42.29494,-87.9466,Libertyville,Illinois
60050,2,42.32915,-88.29363,Mchenry,Illinois
60056,1,42.06618,-87.93473,Mount Prospect,Illinois
60061,2,42.2334,-87.96046,Vernon Hills,Illinois
60062,1,42.12663,-87.84235,Northbrook,Illinois
60068,1,42.01276,-87.84435,Park Ridge,Illinois
60069,1,42.19588,-87.92439,Lincolnshire,Illinois
60073,1,42.3516,-88.10597,Round Lake,Illinois
60077,3,42.03617,-87.75633,Skokie,Illinois
60089,1,42.16736,-87.96076,Buffalo Grove,Illinois
60098,1,42.32468,-88.45672,Woodstock,Illinois
60099,1,42.46053,-87.86901,Zion,Illinois
60101,1,41.931,-88.01072,Addison,Illinois
60102,1,42.16406,-88.30928,Algonquin,Illinois
60108,2,41.94905,-88.09232,Bloomingdale,Illinois
60110,1,42.12296,-88.2883,Carpentersville,Illinois
60115,2,41.90109,-88.75469,Dekalb,Illinois
60123,1,42.04011,-88.31166,Elgin,Illinois
60126,1,41.89627,-87.94194,Elmhurst,Illinois
60137,1,41.86539,-88.06225,Glen Ellyn,Illinois
60148,2,41.87505,-88.01859,Lombard,Illinois
60160,1,41.90348,-87.86176,Melrose Park,Illinois
60173,1,42.05287,-88.0526,Schaumburg,Illinois
60174,1,41.92759,-88.29906,Saint Charles,Illinois
60178,1,42.00625,-88.67205,Sycamore,Illinois
60201,2,42.05665,-87.69827,Evanston,Illinois
60301,1,41.88865,-87.79648,Oak Park,Illinois
60411,1,41.50791,-87.59031,Chicago Heights,Illinois
60412,1,,,[],[]
60415,1,41.70341,-87.77953,Chicago Ridge,Illinois
60435,2,41.54492,-88.1288,Joliet,Illinois
60440,1,41.70125,-88.07572,Bolingbrook,Illinois
60445,1,41.62833,-87.73542,Midlothian,Illinois
60450,1,41.37011,-88.43417,Morris,Illinois
60451,1,41.50717,-87.96088,New Lenox,Illinois
60466,1,41.47966,-87.68276,Park Forest,Illinois
60467,1,41.59855,-87.88848,Orland Park,Illinois
60478,1,41.55381,-87.73588,Country Club Hills,Illinois
60481,1,41.28795,-88.12952,Wilmington,Illinois
60510,1,41.84283,-88.31189,Batavia,Illinois
60515,1,41.80991,-88.0247,Downers Grove,Illinois
60517,3,41.73913,-88.04161,Woodridge,Illinois
60525,2,41.78371,-87.86778,La Grange,Illinois
60540,3,41.76361,-88.14476,Naperville,Illinois
60542,1,41.80878,-88.3489,North Aurora,Illinois
60543,1,41.66537,-88.32442,Oswego,Illinois
60546,1,41.83834,-87.82132,Riverside,Illinois
60548,2,41.64811,-88.63471,Sandwich,Illinois
60555,1,41.82261,-88.18854,Warrenville,Illinois
60563,1,41.79933,-88.16884,Naperville,Illinois
60564,1,41.70901,-88.19961,Naperville,Illinois
60601,1,41.88527,-87.62197,Chicago,Illinois
60603,1,41.88018,-87.6274,Chicago,Illinois
60610,2,41.90388,-87.63738,Chicago,Illinois
60611,1,41.89483,-87.61944,Chicago,Illinois
60613,1,41.9558,-87.65706,Chicago,Illinois
60614,1,41.92267,-87.6506,Chicago,Illinois
60620,1,41.74096,-87.65257,Chicago,Illinois
60625,1,41.97318,-87.69963,Chicago,Illinois
60626,1,42.00904,-87.66955,Chicago,Illinois
60639,1,41.9206,-87.75593,Chicago,Illinois
60647,2,41.92074,-87.702,Chicago,Illinois
60652,1,41.74744,-87.71445,Chicago,Illinois
60656,1,41.97424,-87.82709,Chicago,Illinois
60657,1,41.93965,-87.65495,Chicago,Illinois
60714,1,42.02834,-87.81131,Niles,Illinois
60804,1,41.84005,-87.75925,Cicero,Illinois
60901,2,41.11029,-87.90049,Kankakee,Illinois
60914,1,41.18706,-87.86194,Bourbonnais,Illinois
60936,1,40.46456,-88.36103,Gibson City,Illinois
60942,2,40.46678,-87.66134,Hoopeston,Illinois
61032,1,42.31509,-89.63598,Freeport,Illinois
61074,1,42.12615,-90.13061,Savanna,Illinois
61081,1,41.84425,-89.73613,Sterling,Illinois
61115,1,42.36365,-89.02869,Machesney Park,Illinois
61126,1,,,[],[]
61265,2,41.48195,-90.48895,Moline,Illinois
61350,1,41.37152,-88.86157,Ottawa,Illinois
61354,1,41.33158,-89.14281,Peru,Illinois
61356,1,41.38914,-89.43406,Princeton,Illinois
61364,1,41.12822,-88.85097,Streator,Illinois
61401,1,40.94451,-90.38888,Galesburg,Illinois
61434,1,41.17387,-90.03598,Galva,Illinois
61443,1,41.25972,-89.94242,Kewanee,Illinois
61455,1,40.44047,-90.65115,Macomb,Illinois
61523,1,40.91751,-89.53562,Chillicothe,Illinois
61529,1,40.7809,-89.93673,Elmwood,Illinois
61554,1,40.54441,-89.62181,Pekin,Illinois
61571,1,40.70506,-89.42294,Washington,Illinois
61615,2,40.78088,-89.63102,Peoria,Illinois
61701,2,40.47697,-88.99278,Bloomington,Illinois
61704,2,40.46951,-88.94281,Bloomington,Illinois
61761,1,40.52503,-88.95152,Normal,Illinois
61821,1,40.11041,-88.27611,Champaign,Illinois
61834,1,40.16428,-87.64028,Danville,Illinois
61874,1,40.05062,-88.26078,Savoy,Illinois
61920,1,39.50415,-88.16448,Charleston,Illinois
61938,1,39.48004,-88.37571,Mattoon,Illinois
61944,1,39.59969,-87.70146,Paris,Illinois
62024,1,38.88343,-90.08879,East Alton,Illinois
62025,1,38.83004,-89.93298,Edwardsville,Illinois
62052,1,39.11179,-90.32004,Jerseyville,Illinois
62056,2,39.1765,-89.67165,Litchfield,Illinois
62204,1,38.63033,-90.09642,East Saint Louis,Illinois
62208,1,38.59641,-90.00528,Fairview Heights,Illinois
62220,2,38.47247,-89.98704,Belleville,Illinois
62226,1,38.53634,-90.00057,Belleville,Illinois
62249,1,38.75469,-89.66436,Highland,Illinois
62263,1,38.33168,-89.39706,Nashville,Illinois
62269,1,38.59844,-89.91294,O'Fallon,Illinois
62301,2,39.93139,-91.38741,Quincy,Illinois
62370,1,39.51818,-90.99881,Rockport,Illinois
62401,1,39.11843,-88.56467,Effingham,Illinois
62448,1,38.96741,-88.17988,Newton,Illinois
62450,1,38.71436,-88.08777,Olney,Illinois
62454,1,38.99725,-87.75767,Robinson,Illinois
62521,1,39.81435,-88.93086,Decatur,Illinois
62522,1,39.83008,-89.04743,Decatur,Illinois
62526,1,39.90322,-88.9902,Decatur,Illinois
62557,1,39.39974,-89.10503,Pana,Illinois
62568,1,39.55974,-89.29016,Taylorville,Illinois
62650,1,39.73799,-90.22027,Jacksonville,Illinois
62656,1,40.13948,-89.36622,Lincoln,Illinois
62681,1,40.13841,-90.55885,Rushville,Illinois
62701,1,39.80063,-89.64902,Springfield,Illinois
62703,1,39.76276,-89.63106,Springfield,Illinois
62704,1,39.77358,-89.68503,Springfield,Illinois
62705,1,,,[],[]
62711,1,39.76662,-89.73195,Springfield,Illinois
62801,1,38.51097,-89.1412,Centralia,Illinois
62812,1,38.00487,-88.92249,Benton,Illinois
62832,2,38.01001,-89.24969,Du Quoin,Illinois
62864,1,38.33041,-88.90272,Mount Vernon,Illinois
62901,2,37.74003,-89.20946,Carbondale,Illinois
62946,1,37.7028,-88.52887,Harrisburg,Illinois
62959,1,37.71442,-88.91463,Marion,Illinois
63005,1,38.64306,-90.64982,Chesterfield,Missouri
63010,1,38.42964,-90.3932,Arnold,Missouri
63017,1,38.65143,-90.53722,Chesterfield,Missouri
63028,1,38.14545,-90.39423,Festus,Missouri
63034,1,38.84795,-90.28692,Florissant,Missouri
63042,1,38.78133,-90.37909,Hazelwood,Missouri
63084,2,38.41749,-91.01438,Union,Missouri
63090,1,38.53176,-91.05047,Washington,Missouri
63103,1,38.62986,-90.217,Saint Louis,Missouri
63108,2,38.64485,-90.25337,Saint Louis,Missouri
63117,2,38.63077,-90.33037,Saint Louis,Missouri
63126,3,38.5496,-90.37868,Saint Louis,Missouri
63129,1,38.45654,-90.32202,Saint Louis,Missouri
63130,1,38.66491,-90.32495,Saint Louis,Missouri
63131,2,38.6172,-90.44365,Saint Louis,Missouri
63141,2,38.65751,-90.45904,Saint Louis,Missouri
63301,2,38.86159,-90.47207,Saint Charles,Missouri
63368,2,38.7516,-90.72895,O'Fallon,Missouri
63376,1,38.80022,-90.61636,Saint Peters,Missouri
63379,2,38.99817,-90.99037,Troy,Missouri
63382,1,39.31104,-91.49042,Vandalia,Missouri
63383,1,38.80726,-91.19319,Warrenton,Missouri
63385,1,38.79732,-90.85649,Wentzville,Missouri
63401,1,39.69046,-91.45986,Hannibal,Missouri
63501,1,40.16745,-92.59078,Kirksville,Missouri
63552,1,39.75349,-92.45075,Macon,Missouri
63601,1,37.8212,-90.5439,Park Hills,Missouri
63640,1,37.75446,-90.36525,Farmington,Missouri
63702,1,,,[],[]
63703,1,37.27373,-89.53981,Cape Girardeau,Missouri
63801,1,36.89698,-89.60672,Sikeston,Missouri
63841,2,36.77198,-89.98169,Dexter,Missouri
63857,1,36.22402,-90.04612,Kennett,Missouri
63902,1,,,[],[]
63965,1,36.97391,-91.02294,Van Buren,Missouri
64012,1,38.78906,-94.55204,Belton,Missouri
64015,1,39.02099,-94.3006,Blue Springs,Missouri
64037,1,39.05116,-93.73386,Higginsville,Missouri
64057,1,39.0692,-94.32203,Independence,Missouri
64067,1,39.15594,-93.83747,Lexington,Missouri
64068,1,39.25924,-94.39042,Liberty,Missouri
64086,1,38.91181,-94.29293,Lees Summit,Missouri
64093,1,38.79057,-93.73206,Warrensburg,Missouri
64109,1,39.06646,-94.56709,Kansas City,Missouri
64111,1,39.05707,-94.59393,Kansas City,Missouri
64112,1,39.03599,-94.59529,Kansas City,Missouri
64114,1,38.9581,-94.59715,Kansas City,Missouri
64119,1,39.21137,-94.5186,Kansas City,Missouri
64151,1,39.21494,-94.63115,Kansas City,Missouri
64161,1,39.16184,-94.44943,Kansas City,Missouri
64424,2,40.26453,-94.03242,Bethany,Missouri
64429,1,39.73895,-94.2285,Cameron,Missouri
64468,1,40.34241,-94.8811,Maryville,Missouri
64506,1,39.79048,-94.80277,Saint Joseph,Missouri
64601,1,39.8044,-93.57334,Chillicothe,Missouri
64628,1,39.79711,-93.05002,Brookfield,Missouri
64701,2,38.62053,-94.3378,Harrisonville,Missouri
64735,1,38.36612,-93.73644,Clinton,Missouri
64759,2,37.52655,-94.26775,Lamar,Missouri
64772,1,37.82712,-94.33355,Nevada,Missouri
64801,1,37.11056,-94.4974,Joplin,Missouri
64836,1,37.18886,-94.28898,Carthage,Missouri
64850,1,36.86008,-94.3975,Neosho,Missouri
64870,1,37.18474,-94.48136,Webb City,Missouri
65037,1,38.23845,-92.85749,Gravois Mills,Missouri
65065,1,38.13462,-92.66593,Osage Beach,Missouri
65109,2,38.57365,-92.27791,Jefferson City,Missouri
65201,1,38.89595,-92.24365,Columbia,Missouri
65203,1,38.89497,-92.39928,Columbia,Missouri
65251,1,38.84902,-91.97911,Fulton,Missouri
65265,1,39.20531,-91.88728,Mexico,Missouri
65270,1,39.41552,-92.39917,Moberly,Missouri
65301,1,38.69922,-93.22104,Sedalia,Missouri
65302,1,,,[],[]
65340,1,39.09149,-93.18041,Marshall,Missouri
65355,1,38.22137,-93.37144,Warsaw,Missouri
65401,1,37.90691,-91.76374,Rolla,Missouri
65536,1,37.68942,-92.64974,Lebanon,Missouri
65548,1,37.00545,-91.71131,Mountain View,Missouri
65583,1,37.82171,-92.2541,Waynesville,Missouri
65605,1,36.88408,-93.69132,Aurora,Missouri
65613,1,37.63557,-93.39205,Bolivar,Missouri
65616,2,36.67133,-93.24887,Branson,Missouri
65689,1,37.13665,-92.09794,Cabool,Missouri
65708,1,36.91048,-93.90899,Monett,Missouri
65775,2,36.6995,-91.85999,West Plains,Missouri
65806,3,37.20567,-93.29847,Springfield,Missouri
65807,2,37.166,-93.32483,Springfield,Missouri
66002,1,39.5488,-95.13881,Atchison,Kansas
66046,1,38.909,-95.21061,Lawrence,Kansas
66048,2,39.27891,-94.98527,Leavenworth,Kansas
66061,1,38.89633,-94.88029,Olathe,Kansas
66062,1,38.83677,-94.78455,Olathe,Kansas
66067,1,38.61877,-95.27566,Ottawa,Kansas
66103,1,39.06045,-94.62707,Kansas City,Kansas
66202,2,39.02392,-94.66909,Mission,Kansas
66211,1,38.92422,-94.6363,Leawood,Kansas
66212,1,38.9563,-94.68154,Overland Park,Kansas
66217,1,39.01148,-94.77741,Shawnee,Kansas
66223,1,38.86176,-94.66831,Overland Park,Kansas
66434,1,39.86731,-95.54679,Hiawatha,Kansas
66441,1,38.98199,-96.80289,Junction City,Kansas
66502,1,39.14146,-96.52906,Manhattan,Kansas
66508,1,39.85803,-96.64287,Marysville,Kansas
66538,1,39.84942,-96.04591,Seneca,Kansas
66604,1,39.03875,-95.72623,Topeka,Kansas
66615,1,39.05214,-95.89491,Topeka,Kansas
66701,1,37.82862,-94.75999,Fort Scott,Kansas
66720,1,37.64631,-95.459,Chanute,Kansas
66742,1,37.92023,-95.34755,Gas,Kansas
66749,1,37.93597,-95.41069,Iola,Kansas
66762,1,37.39443,-94.71092,Pittsburg,Kansas
66801,1,38.41105,-96.2221,Emporia,Kansas
66901,1,39.55618,-97.64317,Concordia,Kansas
66956,1,39.79625,-98.21581,Mankato,Kansas
66967,1,39.82571,-98.79366,Smith Center,Kansas
67037,1,37.56646,-97.22095,Derby,Kansas
67042,1,37.84868,-96.79809,El Dorado,Kansas
67068,1,37.61991,-98.11473,Kingman,Kansas
67156,1,37.25099,-96.96503,Winfield,Kansas
67202,1,37.68668,-97.33521,Wichita,Kansas
67204,2,37.77167,-97.36341,Wichita,Kansas
67205,3,37.75012,-97.42317,Wichita,Kansas
67206,1,37.70363,-97.22461,Wichita,Kansas
67209,2,37.6639,-97.43463,Wichita,Kansas
67214,1,37.70661,-97.31755,Wichita,Kansas
67216,1,37.6089,-97.3143,Wichita,Kansas
67226,1,37.76898,-97.21915,Wichita,Kansas
67301,1,37.21092,-95.75224,Independence,Kansas
67357,1,37.33951,-95.25261,Parsons,Kansas
67361,1,37.13733,-96.21714,Sedan,Kansas
67401,1,38.83554,-97.64621,Salina,Kansas
67420,1,39.40035,-98.08527,Beloit,Kansas
67460,1,38.38431,-97.69719,Mcpherson,Kansas
67501,1,37.97989,-97.9309,Hutchinson,Kansas
67530,1,38.35149,-98.79678,Great Bend,Kansas
67560,1,38.39781,-99.94818,Ness City,Kansas
67601,1,38.873,-99.34032,Hays,Kansas
67654,2,39.83067,-99.95573,Norton,Kansas
67701,1,39.39509,-101.05034,Colby,Kansas
67735,1,39.35119,-101.76646,Goodland,Kansas
67748,1,39.06507,-100.85643,Oakley,Kansas
67801,2,37.72961,-100.05406,Dodge City,Kansas
67846,1,38.02311,-100.77756,Garden City,Kansas
67901,1,37.0943,-100.89864,Liberal,Kansas
67950,1,37.06277,-101.86765,Elkhart,Kansas
68008,1,41.54573,-96.17421,Blair,Nebraska
68025,1,41.43749,-96.49158,Fremont,Nebraska
68114,1,41.26318,-96.05208,Omaha,Nebraska
68118,1,41.263,-96.1772,Omaha,Nebraska
68132,1,41.26506,-96.00153,Omaha,Nebraska
68134,1,41.29776,-96.0503,Omaha,Nebraska
68137,1,41.20595,-96.11924,Omaha,Nebraska
68144,2,41.23473,-96.11909,Omaha,Nebraska
68154,3,41.26408,-96.11665,Omaha,Nebraska
68164,1,41.29886,-96.10949,Omaha,Nebraska
68305,1,40.36392,-95.85788,Auburn,Nebraska
68310,2,40.24957,-96.74943,Beatrice,Nebraska
68361,1,40.50756,-97.60146,Geneva,Nebraska
68410,1,40.63729,-95.88584,Nebraska City,Nebraska
68434,1,40.90947,-97.11675,Seward,Nebraska
68467,1,40.86528,-97.59778,York,Nebraska
68501,1,,,[],[]
68505,1,40.82446,-96.61562,Lincoln,Nebraska
68508,1,40.81831,-96.70621,Lincoln,Nebraska
68509,1,,,[],[]
68516,2,40.73493,-96.6428,Lincoln,Nebraska
68601,1,41.45205,-97.39477,Columbus,Nebraska
68661,1,41.49559,-97.08347,Schuyler,Nebraska
68701,1,42.02024,-97.44099,Norfolk,Nebraska
68763,1,42.51809,-98.58254,Oneill,Nebraska
68803,2,40.95357,-98.41593,Grand Island,Nebraska
68818,1,40.82211,-98.01036,Aurora,Nebraska
68822,1,41.38899,-99.62766,Broken Bow,Nebraska
68826,1,41.16341,-98.0191,Central City,Nebraska
68847,1,40.73465,-99.02272,Kearney,Nebraska
68850,1,40.82548,-99.73574,Lexington,Nebraska
68862,1,41.60362,-98.93841,Ord,Nebraska
68901,1,40.59092,-98.36599,Hastings,Nebraska
68902,1,,,[],[]
68939,1,40.10977,-98.96169,Franklin,Nebraska
68949,1,40.43193,-99.39481,Holdrege,Nebraska
68978,1,40.06339,-98.09379,Superior,Nebraska
69001,1,40.25232,-100.65782,McCook,Nebraska
69021,1,40.13945,-101.53594,Benkelman,Nebraska
69025,1,40.61957,-100.50814,Curtis,Nebraska
69153,1,41.08018,-101.67866,Ogallala,Nebraska
69162,1,41.13001,-103.02815,Sidney,Nebraska
69301,1,42.12297,-102.88593,Alliance,Nebraska
69337,1,42.86566,-102.99513,Chadron,Nebraska
69343,1,42.66842,-101.94084,Gordon,Nebraska
69357,1,42.0776,-103.79553,Mitchell,Nebraska
69361,1,42.01254,-103.56802,Scottsbluff,Nebraska
70006,1,30.01393,-90.19171,Metairie,Louisiana
70058,1,29.8701,-90.06708,Harvey,Louisiana
70068,1,30.14113,-90.43502,La Place,Louisiana
70112,1,29.95608,-90.07733,New Orleans,Louisiana
70123,2,29.951,-90.20501,New Orleans,Louisiana
70125,1,29.95202,-90.10338,New Orleans,Louisiana
70130,2,29.93671,-90.06949,New Orleans,Louisiana
70364,1,29.63419,-90.68752,Houma,Louisiana
70380,2,29.71944,-91.12634,Morgan City,Louisiana
70403,1,30.47989,-90.48639,Hammond,Louisiana
70433,1,30.46184,-90.13796,Covington,Louisiana
70460,1,30.29925,-89.83455,Slidell,Louisiana
70503,2,30.17353,-92.05901,Lafayette,Louisiana
70508,1,30.15627,-92.02913,Lafayette,Louisiana
70510,2,29.89493,-92.19569,Abbeville,Louisiana
70518,1,30.13503,-91.92922,Broussard,Louisiana
70526,1,30.21051,-92.37951,Crowley,Louisiana
70535,1,30.47999,-92.42367,Eunice,Louisiana
70563,1,30.02454,-91.73053,New Iberia,Louisiana
70570,1,30.5315,-92.10852,Opelousas,Louisiana
70601,1,30.22627,-93.21525,Lake Charles,Louisiana
70607,1,30.04982,-93.20606,Lake Charles,Louisiana
70808,1,30.4057,-91.14236,Baton Rouge,Louisiana
70810,1,30.34637,-91.07998,Baton Rouge,Louisiana
70816,1,30.4288,-91.02144,Baton Rouge,Louisiana
70817,1,30.37558,-90.98026,Baton Rouge,Louisiana
70836,1,30.38758,-91.08357,Baton Rouge,Louisiana
71019,1,32.03951,-93.30701,Coushatta,Louisiana
71075,1,32.99349,-93.49199,Springhill,Louisiana
71105,1,32.45512,-93.71012,Shreveport,Louisiana
71111,2,32.57904,-93.70379,Bossier City,Louisiana
71203,1,32.58398,-92.01351,Monroe,Louisiana
71220,1,32.8622,-91.91236,Bastrop,Louisiana
71270,1,32.49378,-92.64139,Ruston,Louisiana
71291,1,32.56977,-92.18277,West Monroe,Louisiana
71301,1,31.27446,-92.46864,Alexandria,Louisiana
71446,1,31.15585,-93.17187,Leesville,Louisiana
71458,1,,,[],[]
71601,1,34.17409,-91.89811,Pine Bluff,Arkansas
71657,1,,,[],[]
71731,1,,,[],[]
71901,3,34.52682,-92.97247,Hot Springs National Park,Arkansas
71953,1,34.61291,-94.2118,Mena,Arkansas
72015,1,34.49298,-92.58974,Benton,Arkansas
72023,1,34.95909,-92.05925,Cabot,Arkansas
72031,1,35.60717,-92.52904,Clinton,Arkansas
72032,2,35.07393,-92.36451,Conway,Arkansas
72104,1,34.34774,-92.81814,Malvern,Arkansas
72110,1,35.15514,-92.77273,Morrilton,Arkansas
72116,1,34.80025,-92.24505,North Little Rock,Arkansas
72117,1,34.78076,-92.14548,North Little Rock,Arkansas
72143,2,35.2279,-91.73613,Searcy,Arkansas
72160,1,34.44284,-91.53136,Stuttgart,Arkansas
72202,1,34.74626,-92.27016,Little Rock,Arkansas
72205,1,34.74948,-92.3524,Little Rock,Arkansas
72210,1,34.71506,-92.50378,Little Rock,Arkansas
72211,1,34.74792,-92.41675,Little Rock,Arkansas
72223,1,34.79251,-92.49091,Little Rock,Arkansas
72315,1,35.90093,-89.9029,Blytheville,Arkansas
72335,1,34.99042,-90.75645,Forrest City,Arkansas
72396,1,35.22966,-90.83559,Wynne,Arkansas
72404,1,35.77656,-90.78356,Jonesboro,Arkansas
72450,1,36.0784,-90.51695,Paragould,Arkansas
72472,1,35.59264,-90.54459,Trumann,Arkansas
72501,1,35.79167,-91.65399,Batesville,Arkansas
72542,1,36.29656,-91.46925,Hardy,Arkansas
72601,1,36.23669,-93.09181,Harrison,Arkansas
72653,2,36.34292,-92.38603,Mountain Home,Arkansas
72701,2,35.9873,-94.08179,Fayetteville,Arkansas
72703,2,36.1155,-94.04897,Fayetteville,Arkansas
72714,1,36.46841,-94.21649,Bella Vista,Arkansas
72756,2,36.32214,-93.9922,Rogers,Arkansas
72757,1,,,[],[]
72764,1,36.17746,-94.051,Springdale,Arkansas
72801,1,35.28057,-93.14161,Russellville,Arkansas
72830,1,35.51685,-93.50859,Clarksville,Arkansas
72903,1,35.35241,-94.36042,Fort Smith,Arkansas
72906,1,,,[],[]
72958,2,34.90173,-94.14659,Waldron,Arkansas
73013,1,35.62149,-97.49614,Edmond,Oklahoma
73015,1,35.07648,-98.59016,Carnegie,Oklahoma
73034,1,35.69877,-97.42665,Edmond,Oklahoma
73036,1,35.50752,-97.95771,El Reno,Oklahoma
73044,1,35.86664,-97.43476,Guthrie,Oklahoma
73072,2,35.21106,-97.50518,Norman,Oklahoma
73075,1,34.75187,-97.23428,Pauls Valley,Oklahoma
73099,2,35.52583,-97.76343,Yukon,Oklahoma
73101,1,,,[],[]
73104,1,35.47508,-97.5038,Oklahoma City,Oklahoma
73111,1,35.51889,-97.47722,Oklahoma City,Oklahoma
73114,1,35.57916,-97.51784,Oklahoma City,Oklahoma
73118,1,35.51788,-97.53007,Oklahoma City,Oklahoma
73120,1,35.58049,-97.57248,Oklahoma City,Oklahoma
73127,1,35.47785,-97.64836,Oklahoma City,Oklahoma
73134,1,35.6151,-97.56935,Oklahoma City,Oklahoma
73146,1,,,[],[]
73149,2,35.3892,-97.48908,Oklahoma City,Oklahoma
73160,1,35.33574,-97.47651,Oklahoma City,Oklahoma
73401,1,34.21045,-97.11434,Ardmore,Oklahoma
73402,1,,,[],[]
73501,1,34.56211,-98.2864,Lawton,Oklahoma
73507,2,34.74802,-98.50201,Lawton,Oklahoma
73521,1,34.63547,-99.31538,Altus,Oklahoma
73533,2,34.49484,-97.84774,Duncan,Oklahoma
73644,1,35.40327,-99.42718,Elk City,Oklahoma
73703,1,36.44022,-97.9634,Enid,Oklahoma
73717,1,36.84161,-98.77807,Alva,Oklahoma
73737,1,36.29133,-98.58517,Fairview,Oklahoma
73750,1,35.8534,-97.94435,Kingfisher,Oklahoma
73801,1,36.4733,-99.4307,Woodward,Oklahoma
73942,2,36.74452,-101.49555,Guymon,Oklahoma
74003,1,36.73107,-96.06675,Bartlesville,Oklahoma
74006,1,36.71507,-95.89391,Bartlesville,Oklahoma
74011,1,35.98154,-95.81007,Broken Arrow,Oklahoma
74017,1,36.39359,-95.57986,Claremore,Oklahoma
74023,1,35.95708,-96.74963,Cushing,Oklahoma
74037,1,36.00149,-95.98171,Jenks,Oklahoma
74055,1,36.27735,-95.81998,Owasso,Oklahoma
74063,1,36.15201,-96.19206,Sand Springs,Oklahoma
74066,1,35.99379,-96.1676,Sapulpa,Oklahoma
74074,1,36.07832,-97.06452,Stillwater,Oklahoma
74120,1,36.1504,-95.97689,Tulsa,Oklahoma
74133,4,36.04113,-95.87955,Tulsa,Oklahoma
74135,1,36.09725,-95.92315,Tulsa,Oklahoma
74145,1,36.09728,-95.88731,Tulsa,Oklahoma
74155,1,,,[],[]
74301,1,36.68157,-95.23687,Vinita,Oklahoma
74354,1,36.88962,-94.88096,Miami,Oklahoma
74361,1,36.30914,-95.30732,Pryor,Oklahoma
74401,2,35.72304,-95.45431,Muskogee,Oklahoma
74426,1,35.44553,-95.52759,Checotah,Oklahoma
74447,1,35.64975,-96.00628,Okmulgee,Oklahoma
74464,1,35.94419,-94.97365,Tahlequah,Oklahoma
74501,1,34.98501,-95.78597,Mcalester,Oklahoma
74601,1,36.70436,-97.14604,Ponca City,Oklahoma
74604,1,36.69672,-96.98132,Ponca City,Oklahoma
74701,1,34.00974,-96.3769,Durant,Oklahoma
74745,1,33.86017,-94.81319,Idabel,Oklahoma
74801,3,35.31749,-96.96824,Shawnee,Oklahoma
74804,1,35.39358,-96.92399,Shawnee,Oklahoma
74820,1,34.80691,-96.71348,Ada,Oklahoma
74868,1,35.26699,-96.64193,Seminole,Oklahoma
74953,1,35.03931,-94.57156,Poteau,Oklahoma
75013,1,33.11463,-96.69413,Allen,Texas
75025,1,33.09057,-96.74061,Plano,Texas
75032,1,32.85756,-96.42858,Rockwall,Texas
75034,1,33.12084,-96.83778,Frisco,Texas
75040,1,32.92797,-96.62006,Garland,Texas
75041,1,32.88101,-96.65149,Garland,Texas
75052,2,32.66455,-97.02809,Grand Prairie,Texas
75061,1,32.82607,-96.96563,Irving,Texas
75062,1,32.847,-96.95813,Irving,Texas
75063,1,32.90797,-96.9961,Irving,Texas
75067,2,33.01416,-97.00268,Lewisville,Texas
75069,1,33.16805,-96.59671,Mckinney,Texas
75074,1,33.03298,-96.67304,Plano,Texas
75075,1,33.02163,-96.74043,Plano,Texas
75077,1,33.07921,-97.06401,Lewisville,Texas
75081,1,32.94969,-96.70899,Richardson,Texas
75090,1,33.6054,-96.54657,Sherman,Texas
75092,1,33.64869,-96.70011,Sherman,Texas
75093,1,33.03521,-96.80943,Plano,Texas
75104,1,32.58295,-96.96712,Cedar Hill,Texas
75110,1,32.08071,-96.52344,Corsicana,Texas
75119,1,32.32293,-96.59107,Ennis,Texas
75126,1,32.74361,-96.45289,Forney,Texas
75146,1,32.57608,-96.75137,Lancaster,Texas
75149,1,32.76994,-96.6151,Mesquite,Texas
75150,1,32.81545,-96.6308,Mesquite,Texas
75165,1,32.36687,-96.79677,Waxahachie,Texas
75169,1,32.70335,-95.99754,Wills Point,Texas
75202,1,32.77843,-96.8037,Dallas,Texas
75204,1,32.80216,-96.78885,Dallas,Texas
75205,1,32.83657,-96.79617,Dallas,Texas
75206,2,32.83161,-96.77032,Dallas,Texas
75208,1,32.75409,-96.83943,Dallas,Texas
75209,1,32.8487,-96.8257,Dallas,Texas
75220,1,32.86692,-96.87571,Dallas,Texas
75225,1,32.86511,-96.79109,Dallas,Texas
75234,1,32.92423,-96.88904,Dallas,Texas
75238,1,32.87855,-96.70785,Dallas,Texas
75240,1,32.93194,-96.78924,Dallas,Texas
75243,2,32.91232,-96.73633,Dallas,Texas
75247,1,32.81417,-96.87803,Dallas,Texas
75402,1,33.06724,-96.08576,Greenville,Texas
75418,1,33.57235,-96.1773,Bonham,Texas
75455,1,33.21725,-94.98022,Mount Pleasant,Texas
75460,1,33.6627,-95.60296,Paris,Texas
75503,1,33.51345,-94.13038,Texarkana,Texas
75603,1,32.40448,-94.71754,Longview,Texas
75605,2,32.58385,-94.71554,Longview,Texas
75633,1,32.12788,-94.28109,Carthage,Texas
75638,1,33.01869,-94.73173,Daingerfield,Texas
75652,1,32.2301,-94.7281,Henderson,Texas
75662,1,32.38076,-94.87503,Kilgore,Texas
75670,1,32.56456,-94.42326,Marshall,Texas
75701,1,32.32297,-95.29679,Tyler,Texas
75703,3,32.23825,-95.31947,Tyler,Texas
75710,1,,,[],[]
75751,1,32.07875,-95.91661,Athens,Texas
75766,1,31.94592,-95.25181,Jacksonville,Texas
75801,1,31.74004,-95.55116,Palestine,Texas
75835,1,31.29758,-95.48834,Crockett,Texas
75901,1,31.30264,-94.65481,Lufkin,Texas
75902,1,,,[],[]
75961,1,31.5576,-94.51098,Nacogdoches,Texas
76011,1,32.7543,-97.08223,Arlington,Texas
76015,1,32.69204,-97.13341,Arlington,Texas
76016,2,32.68907,-97.18868,Arlington,Texas
76018,1,32.66074,-97.08967,Arlington,Texas
76022,1,32.83063,-97.14506,Bedford,Texas
76028,1,32.52603,-97.30491,Burleson,Texas
76031,1,32.34873,-97.33267,Cleburne,Texas
76034,1,32.89121,-97.1488,Colleyville,Texas
76048,2,32.40791,-97.80117,Granbury,Texas
76051,1,32.94192,-97.07888,Grapevine,Texas
76053,1,32.81683,-97.17898,Hurst,Texas
76063,1,32.56913,-97.14376,Mansfield,Texas
76067,1,32.80303,-98.1449,Mineral Wells,Texas
76092,1,32.95562,-97.14879,Southlake,Texas
76102,1,32.75799,-97.32858,Fort Worth,Texas
76115,1,32.67861,-97.33117,Fort Worth,Texas
76116,2,32.72128,-97.44766,Fort Worth,Texas
76120,1,32.76742,-97.18286,Fort Worth,Texas
76132,1,32.66743,-97.41827,Fort Worth,Texas
76135,1,32.83708,-97.46621,Fort Worth,Texas
76137,1,32.85864,-97.29137,Fort Worth,Texas
76180,1,32.83994,-97.22468,North Richland Hills,Texas
76201,1,33.22122,-97.14715,Denton,Texas
76205,2,33.19074,-97.12894,Denton,Texas
76210,1,33.14985,-97.0962,Denton,Texas
76234,1,33.27587,-97.51404,Decatur,Texas
76308,3,33.85684,-98.5378,Wichita Falls,Texas
76384,1,34.14355,-99.32067,Vernon,Texas
76401,1,32.27918,-98.19994,Stephenville,Texas
76450,1,33.05968,-98.64152,Graham,Texas
76502,1,31.09388,-97.41082,Temple,Texas
76513,1,31.05777,-97.50369,Belton,Texas
76522,2,31.21577,-97.97215,Copperas Cove,Texas
76528,1,31.43589,-97.7844,Gatesville,Texas
76543,1,31.12343,-97.64077,Killeen,Texas
76548,1,31.05299,-97.64613,Harker Heights,Texas
76574,1,30.58297,-97.38967,Taylor,Texas
76634,1,31.80953,-97.56866,Clifton,Texas
76710,2,31.5387,-97.19554,Waco,Texas
76712,1,31.52411,-97.25514,Woodway,Texas
76801,1,31.75471,-99.05462,Brownwood,Texas
76901,2,31.52352,-100.63993,San Angelo,Texas
76904,1,31.28844,-100.41695,San Angelo,Texas
77002,1,29.75635,-95.36538,Houston,Texas
77019,1,29.75318,-95.41212,Houston,Texas
77024,2,29.77073,-95.50869,Houston,Texas
77027,1,29.73919,-95.44609,Houston,Texas
77029,1,29.76382,-95.26326,Houston,Texas
77040,1,29.87539,-95.52861,Houston,Texas
77056,1,29.74849,-95.46806,Houston,Texas
77064,1,29.92279,-95.5467,Houston,Texas
77069,1,29.98631,-95.52398,Houston,Texas
77070,1,29.97783,-95.57377,Houston,Texas
77077,1,29.75375,-95.64189,Houston,Texas
77082,1,29.72383,-95.6414,Houston,Texas
77084,1,29.82698,-95.6612,Houston,Texas
77089,1,29.58698,-95.2257,Houston,Texas
77090,1,30.00845,-95.44317,Houston,Texas
77304,1,30.33097,-95.51538,Conroe,Texas
77338,3,30.00858,-95.28351,Humble,Texas
77340,1,30.64601,-95.53441,Huntsville,Texas
77375,2,30.09393,-95.59095,Tomball,Texas
77380,2,30.1365,-95.46863,Spring,Texas
77414,1,28.90601,-95.8935,Bay City,Texas
77429,1,29.99068,-95.65808,Cypress,Texas
77430,1,29.26487,-95.65616,Damon,Texas
77437,1,29.20452,-96.27328,El Campo,Texas
77447,1,30.05178,-95.82868,Hockley,Texas
77449,1,29.83674,-95.73547,Katy,Texas
77471,2,29.55159,-95.86785,Rosenberg,Texas
77477,1,29.62625,-95.56718,Stafford,Texas
77478,1,29.61896,-95.6077,Sugar Land,Texas
77494,1,29.74566,-95.82302,Katy,Texas
77502,1,29.67984,-95.19953,Pasadena,Texas
77503,1,29.69078,-95.15781,Pasadena,Texas
77554,1,29.23187,-94.92544,Galveston,Texas
77566,1,29.04971,-95.47511,Lake Jackson,Texas
77581,2,29.5624,-95.27982,Pearland,Texas
77591,1,29.39971,-95.00074,Texas City,Texas
77598,2,29.53766,-95.13714,Webster,Texas
77630,2,30.06534,-93.86844,Orange,Texas
77642,1,29.93917,-93.91606,Port Arthur,Texas
77656,1,30.42866,-94.16887,Silsbee,Texas
77705,1,29.90652,-94.16961,Beaumont,Texas
77706,1,30.10049,-94.16717,Beaumont,Texas
77808,1,30.78965,-96.31362,Bryan,Texas
77833,1,30.20842,-96.40797,Brenham,Texas
77845,1,30.56212,-96.27607,College Station,Texas
77904,2,28.91788,-97.0311,Victoria,Texas
77962,1,29.03253,-96.5023,Ganado,Texas
77979,1,28.60248,-96.6017,Port Lavaca,Texas
77984,1,29.45373,-97.18849,Shiner,Texas
78041,3,27.55489,-99.46889,Laredo,Texas
78045,1,27.83197,-99.65963,Laredo,Texas
78061,2,28.90162,-99.13104,Pearsall,Texas
78064,1,28.9206,-98.4249,Pleasanton,Texas
78071,2,28.47756,-98.19733,Three Rivers,Texas
78102,1,28.4094,-97.71733,Beeville,Texas
78114,1,29.12124,-98.19708,Floresville,Texas
78130,1,29.69224,-98.06877,New Braunfels,Texas
78155,1,29.53305,-97.93832,Seguin,Texas
78201,1,29.46901,-98.52861,San Antonio,Texas
78205,2,29.42364,-98.48647,San Antonio,Texas
78209,1,29.48899,-98.45675,San Antonio,Texas
78216,1,29.53641,-98.48999,San Antonio,Texas
78218,1,29.49354,-98.39948,San Antonio,Texas
78221,1,29.28097,-98.47529,San Antonio,Texas
78223,1,29.31102,-98.38675,San Antonio,Texas
78229,2,29.5056,-98.57261,San Antonio,Texas
78230,3,29.5455,-98.55571,San Antonio,Texas
78232,1,29.58792,-98.47503,San Antonio,Texas
78233,1,29.55483,-98.36323,San Antonio,Texas
78238,1,29.47088,-98.61925,San Antonio,Texas
78250,1,29.50341,-98.66668,San Antonio,Texas
78257,1,29.64373,-98.57713,San Antonio,Texas
78332,1,27.71671,-98.13208,Alice,Texas
78363,1,27.43836,-97.85532,Kingsville,Texas
78374,1,27.88849,-97.29366,Portland,Texas
78382,1,28.11489,-97.06342,Rockport,Texas
78412,2,27.70364,-97.34264,Corpus Christi,Texas
78501,1,26.21599,-98.2391,Mcallen,Texas
78502,1,,,[],[]
78504,1,26.27758,-98.23728,Mcallen,Texas
78520,1,25.96564,-97.55103,Brownsville,Texas
78521,1,25.95109,-97.32078,Brownsville,Texas
78540,1,26.54911,-97.99164,Edinburg,Texas
78550,2,26.25469,-97.66406,Harlingen,Texas
78572,1,26.19848,-98.35633,Mission,Texas
78577,1,26.1665,-98.19082,Pharr,Texas
78596,1,26.10668,-97.99856,Weslaco,Texas
78597,1,26.2474,-97.19688,South Padre Island,Texas
78602,1,30.12735,-97.32801,Bastrop,Texas
78608,1,30.9341,-97.93255,Briggs,Texas
78613,2,30.50683,-97.81939,Cedar Park,Texas
78624,1,30.29227,-98.87141,Fredericksburg,Texas
78654,1,30.57112,-98.20982,Marble Falls,Texas
78660,1,30.44361,-97.59558,Pflugerville,Texas
78664,2,30.50461,-97.64583,Round Rock,Texas
78666,2,29.8826,-97.97974,San Marcos,Texas
78701,1,30.27022,-97.74248,Austin,Texas
78703,1,30.29385,-97.76554,Austin,Texas
78704,2,30.24298,-97.76537,Austin,Texas
78705,1,30.2947,-97.739,Austin,Texas
78738,1,30.30668,-97.99002,Austin,Texas
78744,1,30.18024,-97.72888,Austin,Texas
78745,2,30.20743,-97.79822,Austin,Texas
78746,2,30.29759,-97.81136,Austin,Texas
78748,1,30.16144,-97.8227,Austin,Texas
78750,3,30.41685,-97.80223,Austin,Texas
78752,1,30.33141,-97.70364,Austin,Texas
78759,2,30.4027,-97.76093,Austin,Texas
78840,1,29.74499,-100.92362,Del Rio,Texas
78852,1,28.82698,-100.31543,Eagle Pass,Texas
79014,2,35.91912,-100.32123,Canadian,Texas
79015,1,34.95259,-101.89925,Canyon,Texas
79029,1,35.89513,-102.02756,Dumas,Texas
79065,1,35.52363,-100.90378,Pampa,Texas
79070,1,36.25346,-100.80731,Perryton,Texas
79072,1,34.1719,-101.745,Plainview,Texas
79106,1,35.20369,-101.89178,Amarillo,Texas
79107,1,35.23119,-101.7946,Amarillo,Texas
79119,1,35.10876,-102.01968,Amarillo,Texas
79226,1,34.91965,-100.99229,Clarendon,Texas
79331,2,32.66775,-101.97488,Lamesa,Texas
79413,1,33.54576,-101.88775,Lubbock,Texas
79416,1,33.60473,-101.97658,Lubbock,Texas
79423,1,33.43376,-101.84751,Lubbock,Texas
79424,1,33.46865,-101.93881,Lubbock,Texas
79549,1,32.90152,-100.90407,Snyder,Texas
79553,1,32.93785,-99.84022,Stamford,Texas
79601,1,32.57226,-99.64921,Abilene,Texas
79605,1,32.43394,-99.78182,Abilene,Texas
79606,2,32.35477,-99.83139,Abilene,Texas
79707,2,32.03304,-102.21189,Midland,Texas
79720,3,32.20171,-101.51395,Big Spring,Texas
79735,1,30.74837,-102.85518,Fort Stockton,Texas
79762,2,31.92573,-102.35502,Odessa,Texas
79830,1,29.89491,-103.49925,Alpine,Texas
79901,1,31.7597,-106.48049,El Paso,Texas
79912,1,31.84839,-106.53272,El Paso,Texas
79924,1,31.90224,-106.41355,El Paso,Texas
79925,2,31.79851,-106.36327,El Paso,Texas
79936,1,31.77373,-106.29631,El Paso,Texas
80002,1,39.79405,-105.10845,Arvada,Colorado
80003,1,39.827,-105.06412,Arvada,Colorado
80011,1,39.74393,-104.78994,Aurora,Colorado
80012,1,39.69976,-104.83784,Aurora,Colorado
80013,1,39.66145,-104.76577,Aurora,Colorado
80016,2,39.59391,-104.72311,Aurora,Colorado
80020,1,39.93121,-105.07407,Broomfield,Colorado
80021,1,39.89105,-105.11448,Broomfield,Colorado
80022,1,39.86448,-104.78868,Commerce City,Colorado
80023,1,39.97407,-105.01011,Broomfield,Colorado
80027,1,39.9508,-105.16354,Louisville,Colorado
80109,1,39.36473,-104.90056,Castle Rock,Colorado
80111,1,39.6124,-104.88025,Englewood,Colorado
80112,1,39.57288,-104.85854,Englewood,Colorado
80123,1,39.61578,-105.0692,Littleton,Colorado
80124,1,39.53197,-104.89173,Lone Tree,Colorado
80126,1,39.54127,-104.96251,Littleton,Colorado
80127,1,39.52249,-105.15773,Littleton,Colorado
80134,1,39.48282,-104.77957,Parker,Colorado
80202,1,39.75156,-104.99768,Denver,Colorado
80203,2,39.73142,-104.98274,Denver,Colorado
80204,2,39.73476,-105.0207,Denver,Colorado
80206,1,39.73041,-104.95258,Denver,Colorado
80218,2,39.73119,-104.97073,Denver,Colorado
80221,1,39.81555,-105.0103,Denver,Colorado
80222,2,39.6713,-104.92828,Denver,Colorado
80226,1,39.71081,-105.09155,Denver,Colorado
80231,2,39.67123,-104.88787,Denver,Colorado
80237,1,39.63996,-104.90178,Denver,Colorado
80238,1,39.77722,-104.8808,Denver,Colorado
80301,1,40.04795,-105.19876,Boulder,Colorado
80401,2,39.71672,-105.23286,Golden,Colorado
80435,1,39.60161,-105.92452,Dillon,Colorado
80439,1,39.6343,-105.42994,Evergreen,Colorado
80477,1,,,[],[]
80482,1,39.90429,-105.78404,Winter Park,Colorado
80487,1,40.58803,-106.89321,Steamboat Springs,Colorado
80501,1,40.16479,-105.10208,Longmont,Colorado
80517,1,40.39731,-105.61165,Estes Park,Colorado
80524,1,40.64814,-105.02155,Fort Collins,Colorado
80525,1,40.52795,-105.04249,Fort Collins,Colorado
80526,2,40.5174,-105.13262,Fort Collins,Colorado
80527,1,,,[],[]
80537,1,40.38304,-105.20277,Loveland,Colorado
80601,1,39.96288,-104.80777,Brighton,Colorado
80631,3,40.44216,-104.67809,Greeley,Colorado
80701,1,40.13494,-103.81102,Fort Morgan,Colorado
80723,1,40.15981,-103.55046,Brush,Colorado
80737,1,40.88974,-102.19267,Julesburg,Colorado
80751,1,40.65263,-103.24504,Sterling,Colorado
80759,1,40.10892,-102.68759,Yuma,Colorado
80903,1,38.83249,-104.81342,Colorado Springs,Colorado
80906,2,38.76744,-104.87023,Colorado Springs,Colorado
80920,1,38.95579,-104.77191,Colorado Springs,Colorado
80922,1,38.88996,-104.70084,Colorado Springs,Colorado
80935,1,,,[],[]
81008,1,38.40765,-104.59354,Pueblo,Colorado
81050,1,37.92266,-103.51528,La Junta,Colorado
81052,1,37.94242,-102.65625,Lamar,Colorado
81082,2,37.20343,-104.41717,Trinidad,Colorado
81101,1,37.47197,-105.85243,Alamosa,Colorado
81144,2,37.5516,-106.14851,Monte Vista,Colorado
81147,1,37.28675,-107.08333,Pagosa Springs,Colorado
81201,1,38.55129,-106.08157,Salida,Colorado
81212,1,38.54409,-105.42498,Canon City,Colorado
81235,1,37.99363,-107.33098,Lake City,Colorado
81301,2,37.51095,-107.82066,Durango,Colorado
81302,1,,,[],[]
81321,1,37.31826,-108.76267,Cortez,Colorado
81326,1,37.14635,-108.11525,Hesperus,Colorado
81401,2,38.51559,-107.78472,Montrose,Colorado
81402,1,,,[],[]
81416,1,38.66482,-108.20403,Delta,Colorado
81428,1,38.95928,-107.59899,Paonia,Colorado
81435,3,37.90014,-107.92397,Telluride,Colorado
81505,2,39.18593,-108.59997,Grand Junction,Colorado
81601,3,39.59357,-107.32815,Glenwood Springs,Colorado
81611,2,39.14561,-106.74885,Aspen,Colorado
81623,2,39.2451,-107.20921,Carbondale,Colorado
81626,1,,,[],[]
81657,1,39.64864,-106.32608,Vail,Colorado
82001,1,41.095,-104.93265,Cheyenne,Wyoming
82009,1,41.38431,-104.85415,Cheyenne,Wyoming
82070,1,41.21404,-105.85037,Laramie,Wyoming
82201,1,42.01049,-105.11328,Wheatland,Wyoming
82240,1,42.23064,-104.17824,Torrington,Wyoming
82301,2,41.98163,-107.47745,Rawlins,Wyoming
82401,1,44.00089,-108.1677,Worland,Wyoming
82414,1,44.45727,-109.59671,Cody,Wyoming
82431,1,44.87059,-108.16218,Lovell,Wyoming
82435,1,44.82409,-109.0348,Powell,Wyoming
82501,2,43.03325,-108.24936,Riverton,Wyoming
82520,1,42.65919,-108.63282,Lander,Wyoming
82601,2,43.0655,-106.34618,Casper,Wyoming
82633,1,42.99525,-105.39874,Douglas,Wyoming
82701,1,43.71185,-104.4451,Newcastle,Wyoming
82716,2,44.54033,-105.64601,Gillette,Wyoming
82801,1,44.83618,-106.89258,Sheridan,Wyoming
82931,1,,,[],[]
82937,1,41.3491,-110.2634,Lyman,Wyoming
83001,3,43.4094,-110.60884,Jackson,Wyoming
83201,1,42.88949,-112.38324,Pocatello,Idaho
83202,2,42.97057,-112.34734,Pocatello,Idaho
83254,1,42.36403,-111.2655,Montpelier,Idaho
83263,1,42.17757,-111.76101,Preston,Idaho
83276,1,42.75942,-111.44451,Soda Springs,Idaho
83301,3,42.39472,-114.52203,Twin Falls,Idaho
83318,2,42.43434,-113.82007,Burley,Idaho
83333,2,43.57589,-114.2214,Hailey,Idaho
83338,1,42.72501,-114.43273,Jerome,Idaho
83340,2,43.77178,-114.58138,Ketchum,Idaho
83402,1,43.53011,-112.16786,Idaho Falls,Idaho
83403,1,,,[],[]
83404,1,43.42818,-112.01432,Idaho Falls,Idaho
83406,1,43.43768,-111.93382,Idaho Falls,Idaho
83422,1,43.70463,-111.23914,Driggs,Idaho
83467,1,45.02006,-113.89828,Salmon,Idaho
83501,1,46.2283,-116.90608,Lewiston,Idaho
83605,1,43.66442,-116.65171,Caldwell,Idaho
83617,1,43.93303,-116.50368,Emmett,Idaho
83642,1,43.57334,-116.40116,Meridian,Idaho
83647,1,43.39487,-115.51159,Mountain Home,Idaho
83651,2,43.58438,-116.62884,Nampa,Idaho
83660,1,43.80016,-116.9301,Parma,Idaho
83702,3,43.66821,-116.16493,Boise,Idaho
83709,2,43.55212,-116.28847,Boise,Idaho
83814,1,47.63717,-116.75811,Coeur D Alene,Idaho
83835,1,47.79557,-116.66843,Hayden,Idaho
83843,1,46.72257,-116.94132,Moscow,Idaho
83854,1,47.7267,-116.97511,Post Falls,Idaho
84003,2,40.46629,-111.69334,American Fork,Utah
84032,1,40.35839,-111.188,Heber City,Utah
84037,1,40.99281,-111.91444,Kaysville,Utah
84041,2,41.07137,-111.98416,Layton,Utah
84043,1,40.41209,-111.87377,Lehi,Utah
84047,1,40.61533,-111.89176,Midvale,Utah
84054,1,40.84078,-111.91754,North Salt Lake,Utah
84060,1,40.6418,-111.50332,Park City,Utah
84062,1,40.38586,-111.68421,Pleasant Grove,Utah
84066,1,40.34671,-110.05171,Roosevelt,Utah
84070,2,40.57707,-111.88916,Sandy,Utah
84074,2,40.57379,-112.29914,Tooele,Utah
84078,3,40.46403,-109.5084,Vernal,Utah
84083,1,40.84354,-113.6944,Wendover,Utah
84088,2,40.59507,-111.96077,West Jordan,Utah
84090,1,,,[],[]
84095,1,40.55856,-111.94165,South Jordan,Utah
84097,1,40.3048,-111.67318,Orem,Utah
84098,1,40.73988,-111.53504,Park City,Utah
84101,1,40.75628,-111.89996,Salt Lake City,Utah
84105,1,40.73841,-111.85982,Salt Lake City,Utah
84106,1,40.70678,-111.85571,Salt Lake City,Utah
84111,3,40.75575,-111.88431,Salt Lake City,Utah
84116,1,40.83258,-112.01691,Salt Lake City,Utah
84117,3,40.66167,-111.83561,Salt Lake City,Utah
84119,3,40.70289,-111.94591,West Valley City,Utah
84302,1,41.57956,-112.04769,Brigham City,Utah
84321,2,41.77938,-111.68316,Logan,Utah
84332,1,41.70313,-111.81205,Providence,Utah
84341,2,41.77197,-111.81128,Logan,Utah
84401,1,41.21962,-112.03352,Ogden,Utah
84404,1,41.27198,-112.11705,Ogden,Utah
84405,2,41.15747,-111.96499,Ogden,Utah
84528,1,39.43404,-111.08778,Huntington,Utah
84532,1,38.53898,-109.45916,Moab,Utah
84601,1,40.22593,-111.6955,Provo,Utah
84604,2,40.3313,-111.57284,Provo,Utah
84627,2,39.35515,-111.58457,Ephraim,Utah
84634,1,39.18028,-111.83561,Gunnison,Utah
84648,1,39.68659,-111.86819,Nephi,Utah
84651,1,39.95633,-111.69342,Payson,Utah
84701,1,38.69586,-111.90474,Richfield,Utah
84715,1,38.33221,-111.60317,Bicknell,Utah
84720,2,37.55477,-113.25665,Cedar City,Utah
84737,1,37.08321,-113.26032,Hurricane,Utah
84767,1,37.20152,-112.9858,Springdale,Utah
84770,4,37.13818,-113.6294,Saint George,Utah
84780,1,37.12798,-113.48108,Washington,Utah
84790,1,37.04615,-113.55738,Saint George,Utah
85004,1,33.45159,-112.06988,Phoenix,Arizona
85007,1,33.44682,-112.09073,Phoenix,Arizona
85015,1,33.50908,-112.10184,Phoenix,Arizona
85016,1,33.50953,-112.03041,Phoenix,Arizona
85018,1,33.5194,-111.99309,Phoenix,Arizona
85020,1,33.56766,-112.05485,Phoenix,Arizona
85027,1,33.6771,-112.10206,Phoenix,Arizona
85032,1,33.62624,-112.00368,Phoenix,Arizona
85033,1,33.49443,-112.21193,Phoenix,Arizona
85044,1,33.33997,-112.00617,Phoenix,Arizona
85050,1,33.68739,-111.99854,Phoenix,Arizona
85051,1,33.55914,-112.13324,Phoenix,Arizona
85053,1,33.6296,-112.13184,Phoenix,Arizona
85054,1,33.67515,-111.94763,Phoenix,Arizona
85085,1,33.75637,-112.07426,Phoenix,Arizona
85201,1,33.4336,-111.84929,Mesa,Arizona
85202,1,33.38252,-111.87482,Mesa,Arizona
85204,1,33.39666,-111.78786,Mesa,Arizona
85206,2,33.39685,-111.71758,Mesa,Arizona
85207,1,33.45362,-111.63631,Mesa,Arizona
85209,1,33.37877,-111.63476,Mesa,Arizona
85222,1,,,[],[]
85226,1,33.26519,-111.94641,Chandler,Arizona
85233,1,33.35242,-111.8115,Gilbert,Arizona
85250,1,33.52986,-111.88991,Scottsdale,Arizona
85251,2,33.49406,-111.92025,Scottsdale,Arizona
85256,1,33.50053,-111.83524,Scottsdale,Arizona
85260,1,33.60943,-111.89113,Scottsdale,Arizona
85267,1,,,[],[]
85281,2,33.42805,-111.93157,Tempe,Arizona
85282,2,33.3943,-111.93242,Tempe,Arizona
85286,1,33.27146,-111.83156,Chandler,Arizona
85295,1,33.30639,-111.73804,Gilbert,Arizona
85296,1,33.33554,-111.74006,Gilbert,Arizona
85298,1,33.23983,-111.72819,Gilbert,Arizona
85301,1,33.53219,-112.17817,Glendale,Arizona
85305,1,33.52996,-112.25563,Glendale,Arizona
85308,1,33.66029,-112.18486,Glendale,Arizona
85323,1,33.41888,-112.32615,Avondale,Arizona
85338,1,33.37252,-112.40826,Goodyear,Arizona
85345,2,33.57215,-112.24838,Peoria,Arizona
85364,1,32.70469,-114.65664,Yuma,Arizona
85365,1,33.07067,-114.13801,Yuma,Arizona
85379,1,33.60207,-112.3736,Surprise,Arizona
85381,1,33.60957,-112.23175,Peoria,Arizona
85390,1,33.92391,-112.86739,Wickenburg,Arizona
85501,1,33.54569,-110.74788,Globe,Arizona
85540,1,32.9781,-109.35704,Morenci,Arizona
85541,1,34.21921,-111.34387,Payson,Arizona
85546,1,32.71743,-109.58175,Safford,Arizona
85621,1,31.42345,-111.03764,Nogales,Arizona
85629,1,31.91413,-111.01334,Sahuarita,Arizona
85635,1,31.55322,-110.17304,Sierra Vista,Arizona
85650,1,31.49759,-110.19906,Sierra Vista,Arizona
85701,1,32.21702,-110.97138,Tucson,Arizona
85705,1,32.27119,-110.99172,Tucson,Arizona
85706,1,32.14783,-110.93541,Tucson,Arizona
85710,1,32.21439,-110.82365,Tucson,Arizona
85711,2,32.21504,-110.88348,Tucson,Arizona
85712,1,32.25229,-110.88636,Tucson,Arizona
85716,2,32.24222,-110.92351,Tucson,Arizona
85737,1,32.41425,-110.94683,Tucson,Arizona
85741,1,32.3364,-111.04077,Tucson,Arizona
85743,2,32.30501,-111.18548,Tucson,Arizona
85750,1,32.29952,-110.84288,Tucson,Arizona
85929,1,34.16512,-109.95948,Lakeside,Arizona
85938,1,34.17814,-109.40089,Springerville,Arizona
86001,1,35.35119,-111.75607,Flagstaff,Arizona
86023,1,36.13498,-112.23438,Grand Canyon,Arizona
86025,1,34.90484,-110.08557,Holbrook,Arizona
86033,1,36.67692,-110.25536,Kayenta,Arizona
86040,1,36.66294,-111.3852,Page,Arizona
86045,1,36.14775,-111.13344,Tuba City,Arizona
86301,1,34.59452,-112.42454,Prescott,Arizona
86314,1,34.59823,-112.33079,Prescott Valley,Arizona
86326,1,34.69857,-112.01383,Cottonwood,Arizona
86336,1,34.8902,-111.85157,Sedona,Arizona
86404,1,34.61156,-114.29452,Lake Havasu City,Arizona
86409,1,35.46429,-114.03245,Kingman,Arizona
87001,1,35.41231,-106.37944,Algodones,New Mexico
87031,1,34.78007,-106.72649,Los Lunas,New Mexico
87102,1,35.08116,-106.64636,Albuquerque,New Mexico
87106,1,35.00818,-106.61185,Albuquerque,New Mexico
87108,1,35.07235,-106.57835,Albuquerque,New Mexico
87109,2,35.15285,-106.57543,Albuquerque,New Mexico
87110,1,35.10812,-106.57816,Albuquerque,New Mexico
87112,1,35.10093,-106.51622,Albuquerque,New Mexico
87114,2,35.19718,-106.68216,Albuquerque,New Mexico
87123,1,35.06206,-106.46991,Albuquerque,New Mexico
87305,2,35.40327,-108.73151,Gallup,New Mexico
87401,2,36.73824,-108.18377,Farmington,New Mexico
87501,1,35.71273,-105.86523,Santa Fe,New Mexico
87504,1,,,[],[]
87505,1,35.62307,-105.86891,Santa Fe,New Mexico
87507,1,35.621,-106.11061,Santa Fe,New Mexico
87532,1,35.97965,-106.1048,Espanola,New Mexico
87544,1,35.7869,-106.31914,Los Alamos,New Mexico
87571,1,36.42507,-105.48523,Taos,New Mexico
87701,1,35.53091,-104.94419,Las Vegas,New Mexico
88001,3,32.29026,-106.75318,Las Cruces,New Mexico
88005,1,32.22757,-106.99027,Las Cruces,New Mexico
88061,1,32.6211,-108.40888,Silver City,New Mexico
88101,1,34.50114,-103.26616,Clovis,New Mexico
88130,1,34.1285,-103.31825,Portales,New Mexico
88201,1,33.66517,-104.48932,Roswell,New Mexico
88210,1,32.77272,-104.22567,Artesia,New Mexico
88220,2,32.31421,-104.41732,Carlsbad,New Mexico
88240,1,32.67285,-103.43454,Hobbs,New Mexico
88310,1,32.71809,-106.07231,Alamogordo,New Mexico
88345,1,33.35127,-105.67092,Ruidoso,New Mexico
88401,1,35.08984,-103.80942,Tucumcari,New Mexico
89014,2,36.06153,-115.0577,Henderson,Nevada
89015,2,36.03887,-114.9282,Henderson,Nevada
89024,1,,,[],[]
89027,2,36.81374,-114.08857,Mesquite,Nevada
89029,1,35.12561,-114.68607,Laughlin,Nevada
89030,1,36.21235,-115.12313,North Las Vegas,Nevada
89032,1,36.22239,-115.17358,North Las Vegas,Nevada
89052,1,35.97988,-115.10788,Henderson,Nevada
89053,1,,,[],[]
89084,1,36.29749,-115.1569,North Las Vegas,Nevada
89101,1,36.17279,-115.12234,Las Vegas,Nevada
89103,2,36.11236,-115.21215,Las Vegas,Nevada
89108,1,36.20508,-115.2237,Las Vegas,Nevada
89109,1,36.12603,-115.16327,Las Vegas,Nevada
89115,1,36.25374,-115.04285,Las Vegas,Nevada
89117,1,36.14267,-115.28001,Las Vegas,Nevada
89119,1,36.08452,-115.14606,Las Vegas,Nevada
89121,2,36.12141,-115.09135,Las Vegas,Nevada
89122,1,36.10399,-115.03783,Las Vegas,Nevada
89123,2,36.0352,-115.14908,Las Vegas,Nevada
89130,1,36.25348,-115.22671,Las Vegas,Nevada
89135,1,36.09531,-115.37163,Las Vegas,Nevada
89144,1,36.17746,-115.31943,Las Vegas,Nevada
89301,1,39.52872,-114.76615,Ely,Nevada
89406,1,39.46614,-118.27364,Fallon,Nevada
89411,1,39.01837,-119.85301,Genoa,Nevada
89431,2,39.53865,-119.75005,Sparks,Nevada
89445,1,41.06767,-118.02515,Winnemucca,Nevada
89449,1,38.96433,-119.90688,Stateline,Nevada
89450,1,39.24135,-119.93832,Incline Village,Nevada
89501,1,39.52602,-119.81262,Reno,Nevada
89502,1,39.49383,-119.74701,Reno,Nevada
89511,1,39.40747,-119.88822,Reno,Nevada
89595,1,,,[],[]
89703,1,39.15359,-119.8486,Carson City,Nevada
89801,2,41.18096,-115.76076,Elko,Nevada
90004,1,34.07624,-118.31101,Los Angeles,California
90007,4,34.02819,-118.28486,Los Angeles,California
90008,2,34.01037,-118.3428,Los Angeles,California
90010,1,34.06209,-118.31262,Los Angeles,California
90017,1,34.05306,-118.26447,Los Angeles,California
90022,1,34.02455,-118.15608,Los Angeles,California
90024,9,34.06565,-118.43521,Los Angeles,California
90025,3,34.04551,-118.44583,Los Angeles,California
90026,1,34.07883,-118.2637,Los Angeles,California
90027,3,34.12515,-118.29049,Los Angeles,California
90028,8,34.09982,-118.3268,Los Angeles,California
90029,2,34.08983,-118.29467,Los Angeles,California
90036,4,34.07013,-118.34978,Los Angeles,California
90038,1,34.08882,-118.32671,Los Angeles,California
90039,1,34.11242,-118.26153,Los Angeles,California
90042,1,34.11475,-118.192,Los Angeles,California
90045,2,33.95302,-118.40028,Los Angeles,California
90046,4,34.10752,-118.36575,Los Angeles,California
90048,6,34.07293,-118.3727,Los Angeles,California
90049,1,34.08749,-118.48976,Los Angeles,California
90064,4,34.0358,-118.42653,Los Angeles,California
90066,1,34.00166,-118.43104,Los Angeles,California
90067,4,34.0565,-118.41373,Los Angeles,California
90068,1,34.12794,-118.32914,Los Angeles,California
90069,3,34.09401,-118.38154,West Hollywood,California
90071,1,34.05239,-118.25518,Los Angeles,California
90210,1,34.10251,-118.41505,Beverly Hills,California
90211,1,34.06498,-118.38293,Beverly Hills,California
90212,4,34.06208,-118.40173,Beverly Hills,California
90230,2,33.99691,-118.39487,Culver City,California
90232,2,34.01859,-118.39157,Culver City,California
90241,1,33.94076,-118.1295,Downey,California
90245,1,33.91709,-118.40161,El Segundo,California
90250,1,33.91383,-118.34996,Hawthorne,California
90254,1,33.86532,-118.39616,Hermosa Beach,California
90255,1,33.97697,-118.21725,Huntington Park,California
90265,1,34.07282,-118.84995,Malibu,California
90266,1,33.88968,-118.39705,Manhattan Beach,California
90274,1,33.77732,-118.3684,Palos Verdes Peninsula,California
90275,1,33.7555,-118.36338,Rancho Palos Verdes,California
90278,2,33.87362,-118.37028,Redondo Beach,California
90280,1,33.94453,-118.19256,South Gate,California
90291,1,33.99447,-118.46315,Venice,California
90292,3,33.97865,-118.44707,Marina Del Rey,California
90301,1,33.95647,-118.35863,Inglewood,California
90401,5,34.01584,-118.49251,Santa Monica,California
90403,1,34.03164,-118.48975,Santa Monica,California
90404,2,34.02665,-118.47381,Santa Monica,California
90503,1,33.84089,-118.3538,Torrance,California
90505,1,33.80904,-118.34775,Torrance,California
90602,1,33.97317,-118.02341,Whittier,California
90620,1,33.84616,-118.01176,Buena Park,California
90631,1,33.94266,-117.95126,La Habra,California
90640,1,34.01506,-118.111,Montebello,California
90650,1,33.90703,-118.08249,Norwalk,California
90660,1,33.98868,-118.09111,Pico Rivera,California
90701,1,33.8676,-118.08055,Artesia,California
90703,1,33.86797,-118.06874,Cerritos,California
90704,1,33.3765,-118.43678,Avalon,California
90712,2,33.849,-118.14677,Lakewood,California
90723,1,33.89768,-118.16508,Paramount,California
90731,1,33.7334,-118.27398,San Pedro,California
90740,1,33.75461,-118.07129,Seal Beach,California
90748,1,,,[],[]
90802,3,33.75035,-118.21143,Long Beach,California
90803,2,33.76162,-118.12178,Long Beach,California
90808,1,33.82406,-118.11236,Long Beach,California
91007,1,34.12842,-118.04818,Arcadia,California
91011,1,34.21757,-118.20346,La Canada Flintridge,California
91016,1,34.15246,-118.00065,Monrovia,California
91030,1,34.11029,-118.15748,South Pasadena,California
91101,2,34.14671,-118.13895,Pasadena,California
91205,1,34.13679,-118.24339,Glendale,California
91206,1,34.16076,-118.21311,Glendale,California
91301,1,34.12314,-118.75685,Agoura Hills,California
91302,2,34.12295,-118.67193,Calabasas,California
91307,1,34.20177,-118.66226,West Hills,California
91309,1,,,[],[]
91311,1,34.29011,-118.60776,Chatsworth,California
91321,1,34.36479,-118.4922,Newhall,California
91324,1,34.23855,-118.55015,Northridge,California
91344,1,34.28991,-118.5047,Granada Hills,California
91351,2,34.43269,-118.46276,Canyon Country,California
91355,1,34.42379,-118.58437,Valencia,California
91356,1,34.15504,-118.54757,Tarzana,California
91360,2,34.21475,-118.87735,Thousand Oaks,California
91361,2,34.14016,-118.88398,Westlake Village,California
91362,1,34.19244,-118.81949,Thousand Oaks,California
91367,1,34.17708,-118.61518,Woodland Hills,California
91402,1,34.22413,-118.4448,Panorama City,California
91423,1,34.14924,-118.43239,Sherman Oaks,California
91436,4,34.15219,-118.49053,Encino,California
91501,2,34.19469,-118.29431,Burbank,California
91502,1,34.17684,-118.30936,Burbank,California
91505,1,34.17583,-118.34692,Burbank,California
91602,1,34.15078,-118.36633,North Hollywood,California
91605,1,34.20699,-118.40067,North Hollywood,California
91606,1,34.18655,-118.38867,North Hollywood,California
91608,2,34.13839,-118.35272,Universal City,California
91709,1,33.95105,-117.72549,Chino Hills,California
91710,2,34.00507,-117.68249,Chino,California
91711,1,34.12836,-117.71523,Claremont,California
91723,1,34.08495,-117.88652,Covina,California
91730,1,34.10023,-117.5811,Rancho Cucamonga,California
91731,1,34.07914,-118.04047,El Monte,California
91740,1,34.11884,-117.8534,Glendora,California
91746,1,34.04397,-117.98785,La Puente,California
91748,1,33.9769,-117.89924,Rowland Heights,California
91750,1,34.14927,-117.76647,La Verne,California
91752,1,33.99575,-117.53399,Mira Loma,California
91762,1,34.02764,-117.64308,Ontario,California
91764,2,34.07533,-117.60164,Ontario,California
91767,1,34.08143,-117.73868,Pomona,California
91768,2,34.06358,-117.78941,Pomona,California
91790,1,34.06722,-117.93788,West Covina,California
91801,2,34.09093,-118.12776,Alhambra,California
91910,2,32.63653,-117.06301,Chula Vista,California
91915,1,32.62266,-116.95013,Chula Vista,California
91941,1,32.75964,-116.99253,La Mesa,California
91942,1,32.77728,-117.02129,La Mesa,California
91950,1,32.66952,-117.09313,National City,California
92003,1,33.28701,-117.19977,Bonsall,California
92008,1,33.14564,-117.31691,Carlsbad,California
92009,1,33.09535,-117.24574,Carlsbad,California
92014,1,32.96797,-117.24879,Del Mar,California
92019,1,32.77886,-116.87142,El Cajon,California
92020,1,32.79557,-116.9697,El Cajon,California
92024,2,33.05716,-117.25651,Encinitas,California
92025,1,33.08492,-117.02967,Escondido,California
92028,1,33.38613,-117.22658,Fallbrook,California
92037,2,32.85257,-117.25104,La Jolla,California
92054,2,33.19377,-117.35508,Oceanside,California
92064,1,32.98038,-117.01746,Poway,California
92069,1,33.17536,-117.15761,San Marcos,California
92071,1,32.85045,-116.99479,Santee,California
92081,5,33.16451,-117.24056,Vista,California
92083,1,33.19808,-117.24844,Vista,California
92101,2,32.7162,-117.18589,San Diego,California
92103,1,32.74782,-117.16738,San Diego,California
92107,1,32.7402,-117.24357,San Diego,California
92108,2,32.77423,-117.14097,San Diego,California
92109,1,32.78699,-117.23273,San Diego,California
92111,1,32.8065,-117.16897,San Diego,California
92116,1,32.76484,-117.12303,San Diego,California
92117,2,32.82493,-117.19972,San Diego,California
92126,1,32.912,-117.14344,San Diego,California
92128,1,32.99687,-117.07308,San Diego,California
92130,1,32.94763,-117.20586,San Diego,California
92154,2,32.578,-116.96621,San Diego,California
92201,1,33.70804,-116.23502,Indio,California
92225,1,33.71642,-114.65606,Blythe,California
92231,1,32.68751,-115.56433,Calexico,California
92234,2,33.81386,-116.46663,Cathedral City,California
92243,1,32.77285,-115.60065,El Centro,California
92251,1,32.87129,-115.71804,Imperial,California
92260,2,33.69841,-116.40519,Palm Desert,California
92262,4,33.86287,-116.55736,Palm Springs,California
92270,2,33.76399,-116.42705,Rancho Mirage,California
92277,1,34.11248,-115.68752,Twentynine Palms,California
92284,1,34.16013,-116.42474,Yucca Valley,California
92308,1,34.42005,-117.15558,Apple Valley,California
92311,2,34.97204,-117.0101,Barstow,California
92315,2,34.22011,-116.95301,Big Bear Lake,California
92317,1,34.24507,-117.20874,Blue Jay,California
92335,1,34.08733,-117.46519,Fontana,California
92373,1,34.00648,-117.15351,Redlands,California
92392,2,34.479,-117.40884,Victorville,California
92503,2,33.88308,-117.45222,Riverside,California
92506,1,33.93478,-117.36689,Riverside,California
92508,1,33.89039,-117.3282,Riverside,California
92509,2,34.00293,-117.44547,Jurupa Valley,California
92530,1,33.63386,-117.37949,Lake Elsinore,California
92545,1,33.7311,-117.0359,Hemet,California
92553,1,33.92335,-117.24532,Moreno Valley,California
92562,1,33.53579,-117.35098,Murrieta,California
92583,1,33.79662,-116.93188,San Jacinto,California
92591,3,33.53432,-117.1092,Temecula,California
92602,1,33.72645,-117.7287,Irvine,California
92604,1,33.6879,-117.7889,Irvine,California
92606,1,33.69849,-117.8123,Irvine,California
92610,1,33.68336,-117.65404,Foothill Ranch,California
92612,1,33.65984,-117.82457,Irvine,California
92618,1,33.66729,-117.73362,Irvine,California
92626,1,33.67896,-117.90844,Costa Mesa,California
92627,1,33.64786,-117.9205,Costa Mesa,California
92647,1,33.72395,-118.00685,Huntington Beach,California
92651,1,33.56535,-117.77399,Laguna Beach,California
92653,1,33.59276,-117.69994,Laguna Hills,California
92656,1,33.57518,-117.73036,Aliso Viejo,California
92660,2,33.63375,-117.87504,Newport Beach,California
92663,1,33.62328,-117.93022,Newport Beach,California
92673,1,33.46611,-117.61204,San Clemente,California
92677,2,33.52777,-117.70523,Laguna Niguel,California
92683,1,33.75242,-117.99383,Westminster,California
92688,1,33.61737,-117.61131,Rancho Santa Margarita,California
92691,1,33.61051,-117.66627,Mission Viejo,California
92701,2,33.7486,-117.85877,Santa Ana,California
92705,1,33.755,-117.81488,Santa Ana,California
92782,2,33.72833,-117.79753,Tustin,California
92802,1,33.80831,-117.9237,Anaheim,California
92808,2,33.85623,-117.74018,Anaheim,California
92821,2,33.92997,-117.86986,Brea,California
92832,1,33.86871,-117.92914,Fullerton,California
92841,1,33.7868,-117.98207,Garden Grove,California
92867,1,33.81443,-117.79617,Orange,California
92868,1,33.78799,-117.87637,Orange,California
92881,1,33.82163,-117.56763,Corona,California
92883,2,33.75994,-117.47827,Corona,California
93001,2,34.35321,-119.31868,Ventura,California
93010,3,34.23007,-119.07437,Camarillo,California
93012,1,34.20518,-118.99309,Camarillo,California
93013,1,34.42697,-119.48032,Carpinteria,California
93023,1,34.50372,-119.24856,Ojai,California
93036,1,34.24911,-119.15977,Oxnard,California
93063,1,34.30922,-118.69041,Simi Valley,California
93065,1,34.26206,-118.77151,Simi Valley,California
93101,5,34.41925,-119.70808,Santa Barbara,California
93103,1,34.43888,-119.68173,Santa Barbara,California
93105,1,34.52702,-119.76082,Santa Barbara,California
93117,2,34.49102,-120.08201,Goleta,California
93202,1,36.3187,-119.7076,Armona,California
93210,2,36.19519,-120.43245,Coalinga,California
93230,2,36.28967,-119.62514,Hanford,California
93245,1,36.28614,-119.83405,Lemoore,California
93257,1,35.98708,-118.89493,Porterville,California
93267,1,36.14279,-119.0742,Strathmore,California
93274,1,36.17978,-119.37949,Tulare,California
93277,1,36.29963,-119.38139,Visalia,California
93279,1,,,[],[]
93301,1,35.38428,-119.02057,Bakersfield,California
93304,3,35.33938,-119.02368,Bakersfield,California
93306,1,35.46595,-118.78445,Bakersfield,California
93311,1,35.15378,-119.16567,Bakersfield,California
93401,1,35.23539,-120.61834,San Luis Obispo,California
93420,2,35.16682,-120.46617,Arroyo Grande,California
93436,1,34.60888,-120.4002,Lompoc,California
93442,1,35.4,-120.80495,Morro Bay,California
93446,1,35.65861,-120.71888,Paso Robles,California
93452,1,35.71078,-121.20396,San Simeon,California
93454,1,34.94834,-120.23425,Santa Maria,California
93464,1,,,[],[]
93514,1,37.4947,-118.38514,Bishop,California
93534,1,34.71759,-118.15079,Lancaster,California
93536,1,34.75267,-118.3889,Lancaster,California
93546,2,37.60573,-118.85219,Mammoth Lakes,California
93551,1,34.59404,-118.22634,Palmdale,California
93555,1,35.58596,-117.68446,Ridgecrest,California
93561,1,35.10904,-118.52016,Tehachapi,California
93612,2,36.81548,-119.71076,Clovis,California
93618,1,36.52213,-119.38661,Dinuba,California
93635,1,37.016,-120.88294,Los Banos,California
93644,1,37.41245,-119.59431,Oakhurst,California
93662,1,36.53963,-119.64287,Selma,California
93711,1,36.83508,-119.83309,Fresno,California
93720,1,36.8606,-119.76228,Fresno,California
93726,1,36.79374,-119.76161,Fresno,California
93901,2,36.64794,-121.63044,Salinas,California
93940,3,36.45294,-121.8498,Monterey,California
93950,1,36.61899,-121.92575,Pacific Grove,California
94015,1,37.68121,-122.48074,Daly City,California
94025,1,37.45087,-122.1829,Menlo Park,California
94040,1,37.38034,-122.08531,Mountain View,California
94043,2,37.41188,-122.06892,Mountain View,California
94063,1,37.49367,-122.20823,Redwood City,California
94066,1,37.62539,-122.43229,San Bruno,California
94102,4,37.77956,-122.41931,San Francisco,California
94103,7,37.77299,-122.41136,San Francisco,California
94109,2,37.79334,-122.42138,San Francisco,California
94110,1,37.74975,-122.41528,San Francisco,California
94111,2,37.79847,-122.3998,San Francisco,California
94114,1,37.75814,-122.43547,San Francisco,California
94115,3,37.78608,-122.43742,San Francisco,California
94117,1,37.77002,-122.44425,San Francisco,California
94118,1,37.7801,-122.46185,San Francisco,California
94121,2,37.77849,-122.49548,San Francisco,California
94127,1,37.73642,-122.45961,San Francisco,California
94129,1,37.79743,-122.46662,San Francisco,California
94132,1,37.72219,-122.48475,San Francisco,California
94301,1,37.44424,-122.14992,Palo Alto,California
94306,1,37.41627,-122.13088,Palo Alto,California
94401,1,37.57445,-122.31942,San Mateo,California
94509,2,37.99214,-121.8142,Antioch,California
94513,1,37.92541,-121.68452,Brentwood,California
94520,2,37.99344,-122.03532,Concord,California
94523,2,37.95403,-122.07608,Pleasant Hill,California
94526,1,37.81472,-121.98451,Danville,California
94533,1,38.28132,-122.00693,Fairfield,California
94538,1,37.50653,-121.96361,Fremont,California
94541,1,37.67376,-122.08707,Hayward,California
94546,1,37.73441,-122.09056,Castro Valley,California
94550,1,37.51746,-121.59406,Livermore,California
94553,1,37.97999,-122.15368,Martinez,California
94559,1,38.25238,-122.29382,Napa,California
94560,1,37.50771,-122.02523,Newark,California
94563,2,37.88196,-122.19419,Orinda,California
94565,2,38.00926,-121.92886,Pittsburg,California
94568,1,37.71596,-121.90113,Dublin,California
94578,1,37.70675,-122.1256,San Leandro,California
94583,1,37.77245,-121.99157,San Ramon,California
94587,1,37.59142,-122.06993,Union City,California
94591,1,38.12702,-122.19635,Vallejo,California
94596,1,37.88902,-122.03676,Walnut Creek,California
94597,1,37.91768,-122.0718,Walnut Creek,California
94602,1,37.80517,-122.20422,Oakland,California
94606,1,37.79179,-122.24455,Oakland,California
94607,1,37.80721,-122.30024,Oakland,California
94608,2,37.83611,-122.28621,Emeryville,California
94610,1,37.81229,-122.24048,Oakland,California
94611,1,37.83191,-122.21592,Oakland,California
94704,3,37.8664,-122.26088,Berkeley,California
94705,1,37.86523,-122.2384,Berkeley,California
94706,1,37.88969,-122.29581,Albany,California
94707,1,37.89843,-122.27917,Berkeley,California
94806,1,37.97811,-122.33618,San Pablo,California
94901,1,37.98053,-122.50249,San Rafael,California
94903,2,38.02485,-122.5522,San Rafael,California
94925,1,37.92386,-122.5132,Corte Madera,California
94928,2,38.3459,-122.6935,Rohnert Park,California
94930,2,37.97048,-122.61108,Fairfax,California
94939,2,37.93725,-122.53518,Larkspur,California
94941,1,37.92562,-122.60083,Mill Valley,California
94945,1,38.1258,-122.55443,Novato,California
94954,2,38.24624,-122.56627,Petaluma,California
94965,1,37.85263,-122.52699,Sausalito,California
95003,1,37.0089,-121.87775,Aptos,California
95008,2,37.27977,-121.95481,Campbell,California
95014,1,37.30827,-122.07981,Cupertino,California
95020,2,37.01461,-121.55718,Gilroy,California
95023,1,36.92113,-121.36117,Hollister,California
95030,2,37.22168,-121.98326,Los Gatos,California
95035,1,37.44319,-121.87632,Milpitas,California
95054,1,37.39308,-121.96483,Santa Clara,California
95060,4,37.01352,-122.10176,Santa Cruz,California
95066,2,37.0672,-122.01453,Scotts Valley,California
95076,2,36.94029,-121.75089,Watsonville,California
95110,1,37.34656,-121.9097,San Jose,California
95113,1,37.3339,-121.8905,San Jose,California
95117,4,37.31008,-121.96225,San Jose,California
95122,1,37.32925,-121.83481,San Jose,California
95123,1,37.24479,-121.83306,San Jose,California
95124,1,37.25684,-121.92286,San Jose,California
95125,1,37.29554,-121.89408,San Jose,California
95128,1,37.31579,-121.93647,San Jose,California
95129,1,37.30597,-122.00072,San Jose,California
95130,1,37.28803,-121.98146,San Jose,California
95136,2,37.27192,-121.85237,San Jose,California
95150,1,,,[],[]
95202,1,37.95968,-121.28772,Stockton,California
95210,1,38.03215,-121.29782,Stockton,California
95240,1,38.1177,-121.1627,Lodi,California
95307,1,37.55582,-120.95385,Ceres,California
95340,1,37.34128,-120.40658,Merced,California
95341,1,37.23037,-120.50715,Merced,California
95354,1,37.63849,-120.96428,Modesto,California
95356,1,37.71945,-121.02786,Modesto,California
95361,1,37.79342,-120.77654,Oakdale,California
95364,1,38.22908,-119.79174,Pinecrest,California
95367,1,37.73089,-120.94669,Riverbank,California
95370,1,37.98484,-120.34515,Sonora,California
95376,1,37.73678,-121.43404,Tracy,California
95380,1,37.47226,-120.86978,Turlock,California
95401,1,38.44922,-122.79307,Santa Rosa,California
95403,1,38.50326,-122.75358,Santa Rosa,California
95404,1,38.46488,-122.65709,Santa Rosa,California
95405,2,38.43926,-122.66908,Santa Rosa,California
95437,1,39.44535,-123.69402,Fort Bragg,California
95453,1,39.04346,-122.93918,Lakeport,California
95462,1,38.47263,-123.02064,Monte Rio,California
95472,1,38.39738,-122.86668,Sebastopol,California
95476,1,38.25531,-122.46055,Sonoma,California
95482,1,39.1618,-123.23925,Ukiah,California
95501,4,40.80435,-124.14034,Eureka,California
95519,1,40.95833,-124.04983,Mckinleyville,California
95521,1,40.84586,-124.04745,Arcata,California
95531,2,41.79288,-124.00473,Crescent City,California
95542,1,40.08074,-123.77369,Garberville,California
95603,1,38.91167,-121.08559,Auburn,California
95610,1,38.69494,-121.27219,Citrus Heights,California
95616,2,38.55819,-121.80044,Davis,California
95630,1,38.66558,-121.141,Folsom,California
95642,1,38.3434,-120.76398,Jackson,California
95661,2,38.74129,-121.24925,Roseville,California
95667,1,38.73407,-120.79216,Placerville,California
95688,1,38.41901,-122.02571,Vacaville,California
95758,1,38.42932,-121.44603,Elk Grove,California
95762,1,38.67694,-121.05755,El Dorado Hills,California
95776,1,38.68889,-121.70776,Woodland,California
95814,2,38.58064,-121.49488,Sacramento,California
95815,1,38.60544,-121.44497,Sacramento,California
95818,1,38.55579,-121.49669,Sacramento,California
95823,1,38.47473,-121.44266,Sacramento,California
95825,1,38.5901,-121.40644,Sacramento,California
95826,1,38.54554,-121.37885,Sacramento,California
95834,1,38.64207,-121.51967,Sacramento,California
95841,1,38.66031,-121.34812,Sacramento,California
95926,1,39.74573,-121.84396,Chico,California
95945,3,39.19426,-120.98199,Grass Valley,California
95959,1,39.34509,-120.86797,Nevada City,California
95965,1,39.59169,-121.59034,Oroville,California
95969,1,39.72178,-121.63388,Paradise,California
95993,1,39.08171,-121.68798,Yuba City,California
96001,1,40.57731,-122.45443,Redding,California
96003,1,40.66664,-122.31564,Redding,California
96013,1,40.97495,-121.68316,Burney,California
96067,1,41.31664,-122.31736,Mount Shasta,California
96080,1,40.16386,-122.39171,Red Bluff,California
96097,1,41.76234,-122.65921,Yreka,California
96130,2,40.54992,-120.63064,Susanville,California
96150,1,38.88971,-120.04409,South Lake Tahoe,California
96701,2,21.40368,-157.89875,Aiea,Hawaii
96707,3,21.36455,-158.08141,Kapolei,Hawaii
96720,2,19.67022,-155.21718,Hilo,Hawaii
96727,1,20.00803,-155.54842,Honokaa,Hawaii
96732,3,20.87593,-156.46092,Kahului,Hawaii
96740,2,19.74422,-155.89951,Kailua Kona,Hawaii
96744,3,21.4427,-157.83328,Kaneohe,Hawaii
96753,2,20.7317,-156.43606,Kihei,Hawaii
96761,2,20.90961,-156.62226,Lahaina,Hawaii
96762,1,21.62468,-157.94201,Laie,Hawaii
96766,1,22.00556,-159.41931,Lihue,Hawaii
96779,1,20.90534,-156.38208,Paia,Hawaii
96782,1,21.43471,-157.94694,Pearl City,Hawaii
96789,2,21.47823,-157.97264,Mililani,Hawaii
96813,1,21.31628,-157.84359,Honolulu,Hawaii
96814,1,21.29405,-157.84637,Honolulu,Hawaii
96816,1,21.29379,-157.79009,Honolulu,Hawaii
96817,2,21.34016,-157.83749,Honolulu,Hawaii
96819,1,21.34968,-157.87527,Honolulu,Hawaii
96825,2,21.29575,-157.69234,Honolulu,Hawaii
97005,1,45.49144,-122.80397,Beaverton,Oregon
97013,1,45.21799,-122.67277,Canby,Oregon
97030,2,45.50896,-122.43135,Gresham,Oregon
97031,1,45.61193,-121.61094,Hood River,Oregon
97045,1,45.32834,-122.53058,Oregon City,Oregon
97051,1,45.88902,-122.92011,Saint Helens,Oregon
97055,1,45.35975,-122.15396,Sandy,Oregon
97056,1,45.78935,-122.96941,Scappoose,Oregon
97058,1,45.54239,-121.15447,The Dalles,Oregon
97070,1,45.308,-122.77059,Wilsonville,Oregon
97086,1,45.44531,-122.52793,Happy Valley,Oregon
97103,1,46.13327,-123.69648,Astoria,Oregon
97113,1,45.50746,-123.04544,Cornelius,Oregon
97116,1,45.59054,-123.18876,Forest Grove,Oregon
97123,2,45.44353,-122.98048,Hillsboro,Oregon
97124,1,45.57088,-122.94584,Hillsboro,Oregon
97128,1,45.19814,-123.25812,Mcminnville,Oregon
97132,2,45.32272,-122.98854,Newberg,Oregon
97138,2,45.90946,-123.70036,Seaside,Oregon
97140,1,45.35359,-122.86339,Sherwood,Oregon
97141,2,45.47142,-123.73791,Tillamook,Oregon
97202,1,45.48232,-122.64365,Portland,Oregon
97204,1,45.5183,-122.67378,Portland,Oregon
97205,4,45.51924,-122.70127,Portland,Oregon
97209,1,45.53093,-122.68429,Portland,Oregon
97212,1,45.54428,-122.64322,Portland,Oregon
97214,2,45.51395,-122.64424,Portland,Oregon
97215,1,45.51436,-122.59923,Portland,Oregon
97221,1,45.49799,-122.72749,Portland,Oregon
97223,2,45.44023,-122.77838,Portland,Oregon
97224,1,45.40568,-122.7958,Portland,Oregon
97232,2,45.5292,-122.64376,Portland,Oregon
97236,1,45.48474,-122.51055,Portland,Oregon
97266,1,45.48268,-122.55838,Portland,Oregon
97267,1,45.40744,-122.61472,Portland,Oregon
97301,4,44.94948,-123.00439,Salem,Oregon
97307,1,,,[],[]
97322,1,44.62524,-123.01975,Albany,Oregon
97330,2,44.63796,-123.27814,Corvallis,Oregon
97333,1,44.4735,-123.3067,Corvallis,Oregon
97351,1,44.83857,-123.17449,Independence,Oregon
97355,1,44.5315,-122.81701,Lebanon,Oregon
97365,1,44.67113,-124.01825,Newport,Oregon
97367,1,44.9122,-123.96914,Lincoln City,Oregon
97381,1,44.97014,-122.74749,Silverton,Oregon
97383,1,44.80014,-122.71836,Stayton,Oregon
97401,2,44.06803,-123.08171,Eugene,Oregon
97439,1,44.06573,-124.03705,Florence,Oregon
97459,1,43.47444,-124.18216,North Bend,Oregon
97470,2,43.23288,-123.23111,Roseburg,Oregon
97477,2,44.05861,-123.01126,Springfield,Oregon
97501,1,42.2856,-122.89459,Medford,Oregon
97503,1,42.5836,-122.92721,White City,Oregon
97520,4,42.15472,-122.53168,Ashland,Oregon
97523,1,42.11349,-123.62961,Cave Junction,Oregon
97527,1,42.37615,-123.38288,Grants Pass,Oregon
97601,1,42.44404,-122.06741,Klamath Falls,Oregon
97701,1,44.00065,-121.03289,Bend,Oregon
97702,1,43.98336,-121.21083,Bend,Oregon
97720,1,43.58799,-118.85806,Burns,Oregon
97730,1,44.52265,-121.64535,Camp Sherman,Oregon
97754,1,44.13577,-120.52848,Prineville,Oregon
97756,1,44.28079,-121.19335,Redmond,Oregon
97801,1,45.67317,-118.83362,Pendleton,Oregon
97814,2,44.80075,-117.77034,Baker City,Oregon
97838,1,45.85266,-119.28878,Hermiston,Oregon
97850,2,45.30689,-118.13265,La Grande,Oregon
97862,1,45.92712,-118.31797,Milton Freewater,Oregon
98001,1,47.30919,-122.26426,Auburn,Washington
98002,1,47.3082,-122.21567,Auburn,Washington
98003,2,47.30596,-122.31465,Federal Way,Washington
98004,3,47.61865,-122.20548,Bellevue,Washington
98006,1,47.55772,-122.14957,Bellevue,Washington
98020,1,47.80015,-122.37267,Edmonds,Washington
98022,1,47.1714,-121.67958,Enumclaw,Washington
98027,2,47.50387,-122.00176,Issaquah,Washington
98032,1,47.3922,-122.25819,Kent,Washington
98033,1,47.67616,-122.19267,Kirkland,Washington
98037,3,47.83873,-122.28463,Lynnwood,Washington
98043,1,47.7921,-122.30758,Mountlake Terrace,Washington
98045,1,47.48276,-121.65678,North Bend,Washington
98052,1,47.68148,-122.1203,Redmond,Washington
98055,2,47.44775,-122.20205,Renton,Washington
98057,1,47.47188,-122.21961,Renton,Washington
98070,1,47.41219,-122.4726,Vashon,Washington
98072,1,47.76151,-122.13153,Woodinville,Washington
98101,2,47.61119,-122.33454,Seattle,Washington
98102,1,47.63627,-122.32337,Seattle,Washington
98103,1,47.6732,-122.34258,Seattle,Washington
98105,4,47.66094,-122.28321,Seattle,Washington
98107,1,47.66757,-122.37789,Seattle,Washington
98109,2,47.63128,-122.34486,Seattle,Washington
98110,3,47.64389,-122.54335,Bainbridge Island,Washington
98112,1,47.63242,-122.28732,Seattle,Washington
98115,1,47.68547,-122.28234,Seattle,Washington
98116,1,47.57399,-122.39503,Seattle,Washington
98117,1,47.6882,-122.38157,Seattle,Washington
98119,1,47.63943,-122.36932,Seattle,Washington
98122,4,47.60985,-122.29569,Seattle,Washington
98133,1,47.7399,-122.34432,Seattle,Washington
98155,1,47.75609,-122.30039,Seattle,Washington
98188,2,47.44754,-122.27398,Seattle,Washington
98198,1,47.39469,-122.31111,Seattle,Washington
98204,1,47.90105,-122.2586,Everett,Washington
98208,1,47.90072,-122.18852,Everett,Washington
98221,1,48.50401,-122.65435,Anacortes,Washington
98223,1,48.20994,-121.95081,Arlington,Washington
98225,2,48.75461,-122.50307,Bellingham,Washington
98226,3,48.80064,-122.42299,Bellingham,Washington
98233,1,48.50309,-122.35102,Burlington,Washington
98245,1,48.66241,-122.91616,Eastsound,Washington
98250,1,48.55264,-123.09631,Friday Harbor,Washington
98260,1,48.03074,-122.45106,Langley,Washington
98270,1,48.05952,-122.1443,Marysville,Washington
98272,1,47.85834,-121.88457,Monroe,Washington
98277,1,48.31688,-122.63152,Oak Harbor,Washington
98292,1,48.22455,-122.3032,Stanwood,Washington
98310,1,47.58939,-122.6175,Bremerton,Washington
98328,1,46.86055,-122.17227,Eatonville,Washington
98335,1,47.29909,-122.61911,Gig Harbor,Washington
98366,2,47.53732,-122.58647,Port Orchard,Washington
98367,1,47.46141,-122.67662,Port Orchard,Washington
98368,4,48.03879,-122.84406,Port Townsend,Washington
98370,1,47.75114,-122.62373,Poulsbo,Washington
98373,2,47.14761,-122.32506,Puyallup,Washington
98383,2,47.66212,-122.71652,Silverdale,Washington
98390,1,47.21195,-122.22894,Sumner,Washington
98402,2,47.25021,-122.44056,Tacoma,Washington
98406,1,47.26283,-122.50857,Tacoma,Washington
98407,1,47.28889,-122.5111,Tacoma,Washington
98466,1,47.22842,-122.53479,Tacoma,Washington
98499,2,47.16662,-122.50624,Lakewood,Washington
98501,1,46.9783,-122.86989,Olympia,Washington
98502,1,47.08466,-123.02958,Olympia,Washington
98516,1,47.09647,-122.78265,Olympia,Washington
98520,1,46.99478,-123.81054,Aberdeen,Washington
98532,2,46.63628,-123.03444,Chehalis,Washington
98569,1,47.00206,-124.15479,Ocean Shores,Washington
98584,2,47.24608,-123.16209,Shelton,Washington
98597,1,46.85241,-122.49212,Yelm,Washington
98604,1,45.80013,-122.5054,Battle Ground,Washington
98607,1,45.64395,-122.38242,Camas,Washington
98626,1,46.15317,-122.78564,Kelso,Washington
98631,1,46.37988,-124.02241,Long Beach,Washington
98632,1,46.21223,-123.06855,Longview,Washington
98660,2,45.6866,-122.73152,Vancouver,Washington
98662,1,45.68911,-122.57742,Vancouver,Washington
98665,1,45.68155,-122.65417,Vancouver,Washington
98683,1,45.6027,-122.50984,Vancouver,Washington
98801,1,47.43183,-120.34356,Wenatchee,Washington
98823,1,47.33853,-119.63536,Ephrata,Washington
98837,1,47.14809,-119.3163,Moses Lake,Washington
98841,1,48.37602,-119.29817,Omak,Washington
98901,1,46.66935,-120.33816,Yakima,Washington
98902,1,46.59778,-120.53393,Yakima,Washington
98903,1,46.54807,-120.90226,Yakima,Washington
98926,3,46.99054,-120.34902,Ellensburg,Washington
98941,1,47.22464,-121.00021,Roslyn,Washington
98944,1,46.49998,-119.66533,Sunnyside,Washington
99114,2,48.66067,-117.74333,Colville,Washington
99116,1,48.01429,-118.93063,Coulee Dam,Washington
99153,1,48.90951,-117.25229,Metaline Falls,Washington
99156,1,48.16211,-117.18826,Newport,Washington
99163,1,46.72798,-117.21654,Pullman,Washington
99169,1,47.11875,-118.37424,Ritzville,Washington
99201,1,47.66271,-117.43609,Spokane,Washington
99205,1,47.69657,-117.44609,Spokane,Washington
99207,1,47.68941,-117.38911,Spokane,Washington
99216,1,47.68142,-117.20826,Spokane,Washington
99224,1,47.64729,-117.53552,Spokane,Washington
99301,1,46.39184,-118.93509,Pasco,Washington
99326,1,46.66705,-118.83769,Connell,Washington
99336,2,46.21302,-119.17954,Kennewick,Washington
99344,1,46.82223,-119.17221,Othello,Washington
99362,2,46.08727,-118.31269,Walla Walla,Washington
99501,1,61.22005,-149.85872,Anchorage,Alaska
99503,3,61.90744,-156.85203,Anchorage,Alaska
99504,1,61.19195,-149.64255,Anchorage,Alaska
99515,1,61.11733,-149.88894,Anchorage,Alaska
99577,1,61.1824,-149.29229,Eagle River,Alaska
99603,1,59.52364,-151.22855,Homer,Alaska
99611,1,60.74777,-150.89,Kenai,Alaska
99615,1,57.57705,-153.39119,Kodiak,Alaska
99654,1,61.607,-149.41443,Wasilla,Alaska
99669,1,60.41497,-151.00207,Soldotna,Alaska
99701,1,67.25435,-149.87754,Fairbanks,Alaska
99801,2,58.39785,-134.05472,Juneau,Alaska
99901,1,55.6227,-131.67157,Ketchikan,Alaska
